id,name_tr,name_en,category,sub_category,city,district,neighbourhood,address,region_id,summary_tr,summary_en,opening_hours,ticket_required,website,main_image_url,is_unesco,protection_status,source_name,source_url,last_update,lon,lat
TR-Afyonkarahisar-0001,Afyon Kalesi,Afyon Castle,Historical Site,Castle,Afyonkarahisar,Merkez,Dumlupınar,"Dumlupınar, Kale Yolu, 03000 Afyonkarahisar Merkez/Afyonkarahisar",TR-WEST,"Afyonkarahisar şehir merkezinde bulunan volkanik bir kaya kütlesi üzerinde yer alan tarihi kaledir. Hititler tarafından 'Hapanuva' adıyla kullanıldığı düşünülmektedir. Kale, tarih boyunca çeşitli medeniyetlere ev sahipliği yapmıştır ve günümüzde turistik bir cazibe merkezidir.",Afyon Castle is a historical castle located on a volcanic rock mass in the city center of Afyonkarahisar. It is believed to have been used by the Hittites under the name 'Hapanuva'. The castle has been home to various civilizations throughout history and is now a tourist attraction.,24/7,FALSE,,,FALSE,Archaeological Site,Wikipedia,https://tr.wikipedia.org/wiki/Afyon_Kalesi,2025-12-18,30.5308973,38.7549969
TR-Afyonkarahisar-0001,Frig Vadisi,Phrygian Valley,Historical Site,Ancient City,Afyonkarahisar,İhsaniye,,,TR-WEST,"Frig Vadisi, Türkiye'nin batısında, Afyonkarahisar, Kütahya ve Eskişehir illeri arasında yer alan, Frigler döneminden kalma kaya oyma yerleşimleri, anıt mezarları ve dini yapılarıyla ünlü bir bölgedir. Doğal güzellikleri ve tarihi zenginlikleriyle dikkat çeker.","The Phrygian Valley is a region located in western Turkey, between the provinces of Afyonkarahisar, Kütahya, and Eskişehir. It is famous for its rock-cut settlements, monumental tombs, and religious structures dating back to the Phrygian period. It attracts attention with its natural beauty and historical richness.",24/7,FALSE,,,FALSE,Archaeological Site,Wikipedia,https://tr.wikipedia.org/wiki/Frig_Vadisi,2025-12-18,30.416788,39.031881
TR-Afyonkarahisar-0001,Afyon Ulu Camii,Afyon Grand Mosque,Historical Site,Mosque,Afyonkarahisar,Merkez,Ulu Cami,"Ulu Cami Mahallesi, Kurtuluş Caddesi, Afyonkarahisar",TR-WEST,"Afyon Ulu Camii, Afyonkarahisar'da bulunan tarihi bir camidir. Selçuklu dönemine ait önemli bir yapıdır ve ahşap işçiliği ile dikkat çeker.",Afyon Grand Mosque is a historical mosque located in Afyonkarahisar. It is an important Seljuk-era structure and stands out with its woodwork.,24/7,FALSE,,,FALSE,Cultural Property,Wikipedia,https://tr.wikipedia.org/wiki/Afyon_Ulu_Camii,2025-12-18,30.548711,38.7493073
TR-Afyonkarahisar-0001,Afyon Mevlevihanesi,Afyon Mevlevi Monastery,Historical Site,Monastery,Afyonkarahisar,Merkez,Dumlupınar,"Dumlupınar, Türbe Cd. No:1, 03200 Afyonkarahisar Merkez/Afyonkarahisar",TR-WEST,"Afyon Mevlevihanesi, Afyonkarahisar'da bulunan tarihi bir Mevlevi tekkesidir. 13. yüzyılda kurulduğu tahmin edilmektedir. Günümüzde müze olarak hizmet vermektedir.","Afyon Mevlevi Monastery is a historical Mevlevi tekke (lodge) located in Afyonkarahisar. It is estimated to have been founded in the 13th century. Today, it serves as a museum.",08:30 - 17:30,TRUE,https://afyonkarahisar.ktb.gov.tr/TR-77707/afyonkarahisar-mevlevihanesi.html,,FALSE,Cultural Property,Wikipedia,https://tr.wikipedia.org/wiki/Afyon_Mevlevihanesi,2025-12-18,30.530168,38.7551823
TR-Afyonkarahisar-0001,Kırkgöz Köprüsü,Kırkgöz Bridge,Historical Site,Bridge,Afyonkarahisar,Bolvadin,,"Bolvadin, Afyonkarahisar, Türkiye",TR-WEST,"Kırkgöz Köprüsü, Afyonkarahisar'ın Bolvadin ilçesinde bulunan tarihi bir köprüdür. Köprü, ilçe merkezine yakın bir konumda yer alır ve Bolvadin Çayı üzerinde bulunmaktadır. Roma döneminde yapıldığı tahmin edilmektedir.",Kırkgöz Bridge is a historical bridge located in the Bolvadin district of Afyonkarahisar. The bridge is located close to the town center and is on the Bolvadin Stream. It is estimated to have been built in the Roman period.,24/7,FALSE,,,FALSE,Historical monument,Wikipedia,https://tr.wikipedia.org/wiki/K%C4%B1rkg%C3%B6z_K%C3%B6pr%C3%BCs%C3%BC_(Bolvadin),2025-12-18,31.0484,38.7126
TR-Aydin-0001,Afrodisias Antik Kenti,Aphrodisias Ancient City,Historical Site,Ancient City,Aydın,Karacasu,Geyre,"Geyre Mahallesi, Karacasu, Aydın, Türkiye",TR-WEST,"Afrodisias, Aydın'ın Karacasu ilçesinde bulunan antik bir kenttir. Adını aşk ve güzellik tanrıçası Afrodit'ten almıştır. Kent, özellikle Roma döneminde önemli bir sanat ve kültür merkezi olmuştur.","Aphrodisias was an ancient Greek city in the historic Caria (Asia Minor). It is located near the modern village of Geyre, Turkey, about 230 km south-east of İzmir. Named after Aphrodite, the Greek goddess of love, it was a center of sculpture and had a prominent school of sculptors.",08:30 - 17:30,TRUE,https://muze.gov.tr/muze-detay?SectionId=AFD01&DistId=AFD,,TRUE,Archaeological Site,Wikipedia,https://en.wikipedia.org/wiki/Aphrodisias,2025-12-18,28.607231,37.729068
TR-Aydın-0001,Milet Antik Kenti,Ancient City of Miletus,Historical Site,Ancient City,Aydın,Didim,Balat,"Balat, Didim, Aydın, Türkiye",TR-WEST,"Milet, Aydın ilinin Didim ilçesi yakınlarında bulunan antik bir kenttir. Tarihi MÖ 3000'lere kadar uzanmaktadır ve İyonya'nın önemli bir liman kenti olmuştur. Felsefe, bilim ve sanat alanlarında önemli gelişmelere ev sahipliği yapmıştır.","Miletus was an ancient Greek city on the western coast of Anatolia, near the mouth of the Maeander River in ancient Caria. Its ruins are located near the modern village of Balat in Didim District, Aydın Province, Turkey. Before the Persian rule in the middle of the 6th century BC, Miletus was considered one of the greatest and richest Greek cities.",08:30 - 17:30,TRUE,https://muze.gov.tr/mekanlar/milet-orenyeri,,FALSE,Archaeological Site,Wikipedia,https://tr.wikipedia.org/wiki/Milet,2025-12-18,27.264729,37.376094
TR-Aydın-0001,Didyma Apollon Tapınağı,Temple of Apollo in Didyma,Historical Site,Ancient City,Aydın,Didim,Hisar,"Hisar Mahallesi, Didim, Aydın, Türkiye",TR-WEST,"Didyma Apollon Tapınağı, antik dönemde önemli bir kehanet merkeziydi. MÖ 8. yüzyılda kurulduğu tahmin edilen tapınak, özellikle Helenistik ve Roma dönemlerinde büyük bir öneme sahipti. Tanrı Apollon'a adanmış olan bu yapı, devasa boyutları ve etkileyici mimarisiyle dikkat çekmektedir. Tapınak, antik dünyanın en büyük dördüncü tapınağı olarak bilinir.","The Temple of Apollo in Didyma was an important prophecy center in ancient times. Believed to have been founded in the 8th century BC, the temple was of great importance, especially during the Hellenistic and Roman periods. Dedicated to the god Apollo, this structure is remarkable for its enormous size and impressive architecture. The temple is known as the fourth largest temple in the ancient world.",08:30 - 17:30,TRUE,https://muze.gov.tr/muze-detay?SectionId=DYM01&DistId=DYM,,TRUE,Archaeological Site,Wikipedia,https://en.wikipedia.org/wiki/Didyma,2025-12-18,27.264729,37.376094
TR-Aydın-0001,Tralleis Antik Kenti,Ancient City of Tralleis,Historical Site,Ancient City,Aydın,Efeler,Kemer,"Kemer Mahallesi, Tralleis Bulvarı, Aydın",TR-WEST,"Tralleis, Aydın şehir merkezinin yaklaşık 1 km kuzeydoğusunda yer alan antik bir kenttir. Tarihi MÖ 3. bin yıla kadar uzanmaktadır ve birçok medeniyete ev sahipliği yapmıştır. Özellikle Roma döneminde önemli bir merkez olmuştur.","Tralleis is an ancient city located approximately 1 km northeast of the city center of Aydın. Its history dates back to the 3rd millennium BC and has been home to many civilizations. It was an important center, especially during the Roman period.",24/7,FALSE,,,FALSE,Archaeological Site,Wikipedia,https://tr.wikipedia.org/wiki/Tralleis,2025-12-18,27.8725806,37.8396527
TR-Aydın-0005,Priene Antik Kenti,Ancient City of Priene,Historical Site,Ancient City,Aydın,Söke,Güllübahçe,"Güllübahçe Mahallesi, Söke, Aydın, Türkiye",TR-WEST,"Priene, İyonya bölgesinde yer alan antik bir şehirdir. Helenistik dönemde önemli bir kültür ve sanat merkezi olmuştur. Athena Tapınağı ve tiyatrosu en önemli yapılarındandır.","Priene was an ancient Greek city of Ionia, located at the base of an escarpment of Mycale. It was an important center of culture and art during the Hellenistic period. The Temple of Athena and its theater are among its most important structures.","08:30 - 17:30 (Winter), 08:30 - 19:00 (Summer)",TRUE,https://muze.gov.tr/mekanlar/mekan/priene-oren-yeri,,FALSE,Archaeological Site,"Wikipedia, Muze.gov.tr",https://en.wikipedia.org/wiki/Priene,2025-12-18,27.405666,37.751961
TR-Aydın-0012,Heraion-Teikhos Antik Kenti,Heraion-Teikhos Ancient City,Historical Site,Ancient City,Aydın,Söke,,"Söke, Aydın, Türkiye",TR-WEST,"Heraion-Teikhos, Aydın'ın Söke ilçesi yakınlarında bulunan antik bir kenttir. Kentin tarihi, MÖ 8. yüzyıla kadar uzanmaktadır ve İyon yerleşimlerinden biridir. Özellikle Athena Tapınağı ile bilinir.",Heraion-Teikhos is an ancient city located near the Söke district of Aydın. The city's history dates back to the 8th century BC and is one of the Ionian settlements. It is particularly known for the Temple of Athena.,24/7,FALSE,,,FALSE,Archaeological Site,Wikipedia,https://tr.wikipedia.org/wiki/Heraion_Teikhos,2025-12-18,27.405666,37.751961
TR-Balikesir-0001,Antandros Antik Kenti,Antandros Ancient City,Historical Site,Ancient City,Balıkesir,Edremit,Altınoluk,"Altınoluk, Edremit, Balıkesir, Türkiye",TR-WEST,"Antandros, Balıkesir'in Altınoluk beldesinde yer alan antik bir kenttir. MÖ 10. yüzyılda kurulduğu tahmin edilmektedir. Kent, Mysia ve Troas bölgelerinin kesişim noktasında stratejik bir konuma sahipti.",Antandros is an ancient city located in the Altınoluk district of Balıkesir. It is estimated to have been founded in the 10th century BC. The city had a strategic location at the intersection of the Mysia and Troas regions.,24/7,FALSE,,,FALSE,Archaeological Site,Wikipedia,https://tr.wikipedia.org/wiki/Antandros,2025-12-18,26.7472678,39.5781748
TR-Balikesir-0001,Kyzikos Antik Kenti,Ancient City of Cyzicus,Historical Site,Ancient City,Balıkesir,Erdek,,"Erdek, Balıkesir, Türkiye",TR-WEST,"Kyzikos, Balıkesir'e bağlı Erdek ilçesinde bulunan antik bir kenttir. MÖ 7. yüzyılda Miletoslular tarafından kurulmuştur. Tarihi boyunca önemli bir ticaret ve kültür merkezi olmuştur. Günümüzde antik kentin kalıntıları ziyaret edilebilmektedir.","Cyzicus was an ancient Greek town in Mysia, located on the shore of Propontis (present-day Sea of Marmara) in present-day Turkey. It was founded by colonists from Miletus in the 7th century BC and became an important trading center. Today, the ruins of the ancient city can be visited.",24/7,FALSE,,,FALSE,Archaeological Site,Wikipedia,https://en.wikipedia.org/wiki/Cyzicus,2025-12-18,27.791673,40.39832
TR-Balikesir-0001,Zağnos Paşa Camii,Zağnos Pasha Mosque,Historical Site,Mosque,Balıkesir,Karesi,Paşa Alanı,"Paşa Alanı Mahallesi, Zağnos Paşa Camii Sk. No:2, 10050 Karesi/Balıkesir",TR-WEST,"Zağnos Paşa Camii, Balıkesir'de bulunan tarihi bir camidir. Zağnos Paşa tarafından 1461 yılında yaptırılmıştır. Osmanlı döneminin önemli yapılarından biridir ve Balıkesir'in sembol yapılarından biri olarak kabul edilir.",Zağnos Pasha Mosque is a historical mosque located in Balıkesir. It was built in 1461 by Zağnos Pasha. It is one of the important structures of the Ottoman period and is considered one of the symbolic structures of Balıkesir.,24/7,FALSE,,,FALSE,Cultural Property,Wikipedia,https://tr.wikipedia.org/wiki/Za%C4%9Fnos_Pa%C5%9Fa_Camii,2025-12-18,27.8879156,39.6372677
TR-Balikesir-0001,Balıkesir Saat Kulesi,Balıkesir Clock Tower,Historical Site,Clock Tower,Balıkesir,Karesi,Atatürk,"Atatürk, Milli Kuvvetler Cd. No:4, 10010 Karesi/Balıkesir",TR-WEST,"Balıkesir Saat Kulesi, Balıkesir'de bulunan tarihi bir saat kulesidir. 1901 yılında dönemin Mutasarrıfı Giritli Hasan Paşa tarafından yaptırılmıştır.","Balıkesir Clock Tower is a historical clock tower located in Balıkesir. It was built in 1901 by Hasan Pasha of Crete, the Mutasarrıf of the time.",24/7,FALSE,,,FALSE,Cultural Property,Wikipedia,https://tr.wikipedia.org/wiki/Bal%C4%B1kesir_Saat_Kulesi,2025-12-18,27.8830711,39.6478264
TR-Balikesir-0001,Cunda Adası (Alibey Adası),Cunda Island (Alibey Island),Natural,Island,Balıkesir,Ayvalık,Cunda,"Cunda Adası, Ayvalık, Balıkesir, Türkiye",TR-WEST,"Cunda Adası, Türkiye'nin Ayvalık ilçesine bağlı bir adadır. Ayvalık Adaları olarak da bilinen takımadanın en büyük dördüncü adasıdır. Sahip olduğu tarihi taş evleri, Arnavut kaldırımlı sokakları ve doğal güzellikleriyle ünlüdür.","Cunda Island, also known as Alibey Island, is an island located in the Ayvalık district of Balıkesir, Turkey. It is the fourth largest island in the archipelago, also known as the Ayvalık Islands. It is famous for its historical stone houses, cobblestone streets, and natural beauties.",24/7,FALSE,,,FALSE,Natural Protected Area,Wikipedia,https://tr.wikipedia.org/wiki/Cunda_Adas%C4%B1,2025-12-18,26.692387,39.319185
TR-Balikesir-0001,Taksiyarhis Kilisesi (Rahmi Koç Müzesi - Ayvalık),Taksiyarhis Church (Rahmi Koç Museum - Ayvalık),Museum,History Museum,Balıkesir,Ayvalık,Cunda Adası,"Hayrettin Paşa Mahallesi, Cunda Adası, Ayvalık, Balıkesir",TR-WEST,"Taksiyarhis Kilisesi, Ayvalık'ta bulunan tarihi bir kilisedir. Restore edildikten sonra Rahmi Koç Müzesi olarak hizmet vermektedir. Müzede, Rahmi Koç'un kişisel koleksiyonundan çeşitli objeler sergilenmektedir.","The Taksiyarhis Church is a historical church located in Ayvalık. After being restored, it serves as the Rahmi Koç Museum. The museum exhibits various objects from Rahmi Koç's personal collection.","10:00 - 17:00 (Winter), 10:00 - 19:00 (Summer)",TRUE,https://www.rmk-museum.org.tr/ayvalik/,,FALSE,Registered Cultural Property,Wikipedia,https://en.wikipedia.org/wiki/Taksiyarhis_Church_(Ayval%C4%B1k),2025-12-18,26.692387,39.319185
TR-Balıkesir-0001,Ayvalık Tarihi Kent Dokusu,Historical Texture of Ayvalık,Historical Site,Historical City Center,Balıkesir,Ayvalık,Merkez,"Ayvalık Merkez, Balıkesir",TR-WEST,"Ayvalık Tarihi Kent Dokusu, dar sokakları, taş evleri ve tarihi yapılarıyla dikkat çeken, Ege Bölgesi'nin önemli kültürel miraslarından biridir. Zeytincilik ve sabunculuk geçmişiyle de ünlüdür.","The Historical Texture of Ayvalık is one of the important cultural heritages of the Aegean Region, attracting attention with its narrow streets, stone houses, and historical buildings. It is also famous for its olive growing and soap making history.",24/7,FALSE,,,TRUE,Urban Protected Area,Wikipedia,https://tr.wikipedia.org/wiki/Ayval%C4%B1k,2025-12-18,26.692183,39.3177182
TR-Balıkesir-0005,Şeytan Sofrası,Şeytan Sofrası (Devil's Feast),Natural,Viewpoint,Balıkesir,Ayvalık,Küçükköy,"Küçükköy, 10400 Ayvalık/Balıkesir, Turkey",TR-WEST,"Şeytan Sofrası, Ayvalık'ta bulunan, lav birikintisiyle oluşmuş tepe. Üzerinde demir kafes içinde ayak izi şeklinde bir çukur bulunur. Rivayete göre şeytanın ayak izi olduğuna inanılır ve dilek dilemek için ziyaret edilir. Gün batımının eşsiz manzarasıyla ünlüdür.","Şeytan Sofrası (Devil's Feast) is a hill formed by lava accumulation in Ayvalık. There is a footprint-shaped pit inside an iron cage on it. According to the legend, it is believed to be the footprint of the devil and is visited to make wishes. It is famous for its unique sunset view.",24/7,FALSE,,,FALSE,,Wikipedia,https://tr.wikipedia.org/wiki/%C5%9Eeytan_Sofras%C4%B1,2025-12-18,26.7172305,39.3046262
TR-Bartın-0001,Amasra Kalesi,Amasra Castle,Historical Site,Castle,Bartın,Amasra,,"Amasra, Bartın, Türkiye",TR-WEST,"Amasra Kalesi, Karadeniz kıyısında yer alan antik Amasra kentinde bulunan tarihi bir kaledir. Roma döneminde yapımına başlanmış, Cenevizliler ve Osmanlılar döneminde de kullanılmıştır.","Amasra Castle is a historical castle located in the ancient city of Amasra on the Black Sea coast. Its construction began in the Roman period, and it was also used during the Genoese and Ottoman periods.",24/7,FALSE,,,FALSE,Archaeological Site,Wikipedia,https://en.wikipedia.org/wiki/Amasra_Castle,2025-12-18,32.385537,41.7470209
TR-Bilecik-0001,Şeyh Edebali Türbesi,Sheikh Edebali Tomb,Historical Site,Tomb,Bilecik,Merkez,Pelitözü,"Pelitözü Köyü, Bilecik",TR-WEST,"Şeyh Edebali Türbesi, Osmanlı Devleti'nin kuruluş döneminde yaşamış önemli bir İslam âlimi ve Osmanlı Devleti'nin manevi kurucusu olarak kabul edilen Şeyh Edebali'nin Bilecik'te bulunan türbesidir.","The Sheikh Edebali Tomb is the tomb of Sheikh Edebali, an important Islamic scholar who lived during the establishment of the Ottoman Empire and is considered the spiritual founder of the Ottoman Empire, located in Bilecik.",08:00 - 17:00,FALSE,,,FALSE,Historical Site,Wikipedia,https://tr.wikipedia.org/wiki/%C5%9Eeyh_Edebali_T%C3%BCrbesi,2025-12-18,29.97933,40.142573
TR-Bodrum-0001,Bodrum Kalesi,Bodrum Castle,Historical Site,Castle,Bodrum,Bodrum,Çarşı,"Çarşı, Kale Cd. No:1, 48400 Bodrum/Muğla, Türkiye",TR-WEST,"Bodrum Kalesi, 15. yüzyılda Rodos Şövalyeleri tarafından St. Jean Şövalyeleri adına inşa edilmiş tarihi bir kaledir. Kale, Bodrum'un sembol yapılarından biridir ve günümüzde müze olarak hizmet vermektedir.",Bodrum Castle is a historical castle built in the 15th century by the Knights of Rhodes in the name of the Knights of St. John. The castle is one of the symbolic structures of Bodrum and serves as a museum today.,"08:30 - 18:30 (Yaz Sezonu), 08:30 - 17:30 (Kış Sezonu)",TRUE,https://muze.gov.tr/muze-detay?SectionId=BKM01&DistId=BKM,,TRUE,Archaeological Site,"Wikipedia, Muze.gov.tr",https://en.wikipedia.org/wiki/Bodrum_Castle,2025-12-18,27.4301994,37.0339334
TR-Bolu-0001,Mudurnu Tarihi Kent Dokusu,Historical Town of Mudurnu,Historical Site,Historical Town,Bolu,Mudurnu,,"Mudurnu, Bolu, Türkiye",TR-WEST,"Mudurnu, Bolu iline bağlı, tarihi evleri ve Osmanlı döneminden kalma yapılarıyla ünlü bir ilçedir. Tarihi kent dokusu, geleneksel Türk şehir yaşamının önemli bir örneğini sunar.","Mudurnu is a town and a district of Bolu Province in the Black Sea region of Turkey, famous for its historical houses and Ottoman-era structures. The historical town texture presents an important example of traditional Turkish urban life.",24/7,FALSE,,,TRUE,Urban Site,Wikipedia,https://tr.wikipedia.org/wiki/Mudurnu,2025-12-18,31.211936,40.462581
TR-Bolu-0001,Göynük Tarihi Kent Dokusu,Historical Town of Göynük,Historical Site,Historical Town,Bolu,Göynük,,"Göynük, Bolu, Türkiye",TR-WEST,"Göynük, Bolu iline bağlı, tarihi evleri ve doğal güzellikleriyle ünlü bir ilçedir. Osmanlı döneminden kalma yapıları, geleneksel yaşam tarzı ve doğal çevresiyle dikkat çeker. Göynük'ün tarihi kent dokusu, UNESCO Dünya Mirası Geçici Listesi'nde yer almaktadır.","Göynük is a town and district of Bolu Province in the Black Sea region of Turkey, known for its historical houses and natural beauty. Its Ottoman-era structures, traditional lifestyle, and natural environment attract visitors. The historical urban texture of Göynük is on the UNESCO World Heritage Tentative List.",24/7 (Exterior Viewing),FALSE,,,TRUE,Urban Protected Area,Wikipedia,https://en.wikipedia.org/wiki/G%C3%B6yn%C3%BCk,2025-12-18,31.5884246,40.724642
TR-Bolu-0001,Yedigöller Milli Parkı,Yedigoller National Park,Natural,National Park,Bolu,Merkez,,"Yedigöller Milli Parkı, Bolu",TR-WEST,"Yedigöller Milli Parkı, Bolu ilinin kuzeyinde yer alan, yedi adet gölü bünyesinde barındıran ve zengin bitki örtüsüyle ünlü bir milli parktır. Farklı ağaç türleri ve doğal güzellikleriyle ziyaretçilerine eşsiz bir deneyim sunar.","Yedigoller National Park is a national park located in the north of Bolu province, Turkey. It is famous for its seven lakes and rich vegetation. It offers a unique experience to its visitors with its different tree species and natural beauties.",24/7,TRUE,https://bolu.ktb.gov.tr/TR-62089/yedigoller-milli-parki.html,,FALSE,National Park,Wikipedia,https://tr.wikipedia.org/wiki/Yedig%C3%B6ller_Mill%C3%AE_Park%C4%B1,2025-12-18,31.7407502,40.9373071
TR-Bolu-0001,Gölcük Tabiat Parkı,Gölcük Nature Park,Natural,Lake,Bolu,Bolu Merkez,,"Gölcük Milli Parkı, 14030 Bolu Merkez/Bolu, Türkiye",TR-WEST,"Gölcük Tabiat Parkı, Bolu şehir merkezine yaklaşık 13 km uzaklıkta bulunan, doğal güzellikleriyle ünlü bir tabiat parkıdır. Göl çevresinde yürüyüş yapabilir, piknik alanlarında dinlenebilir ve eşsiz manzaranın tadını çıkarabilirsiniz.","Gölcük Nature Park is a nature park famous for its natural beauties, located approximately 13 km from Bolu city center. You can walk around the lake, relax in the picnic areas and enjoy the unique view.",24/7,TRUE,http://bolugolcuk.tabiat.gov.tr/,,FALSE,Nature Park,Wikipedia,https://tr.wikipedia.org/wiki/G%C3%B6lc%C3%BCk_Tabiat_Park%C4%B1,2025-12-18,31.6300098,40.6563133
TR-Bolu-0001,Abant Gölü,Lake Abant,Natural,Lake,Bolu,Mudurnu,,"Abant Tabiat Parkı, Bolu",TR-WEST,"Abant Gölü, Bolu il sınırları içerisinde yer alan, doğal güzellikleriyle ünlü bir heyelan set gölüdür. Çevresi zengin bitki örtüsü ve ormanlarla kaplıdır. Göl ve çevresi, Abant Tabiat Parkı olarak korunmaktadır.","Lake Abant is a freshwater lake in Turkey's Bolu Province, at an altitude of 1,328 m. It was formed as a result of a great landslide. The lake is a popular tourist attraction due to its natural beauty.",24/7,TRUE,https://bolu.ktb.gov.tr/TR-62081/abant-milli-parki.html,,FALSE,National Park,Wikipedia,https://en.wikipedia.org/wiki/Lake_Abant,2025-12-18,31.211936,40.462581
TR-Bursa-0001,Bursa ve Cumalıkızık: Osmanlı İmparatorluğu'nun Doğuşu,Bursa and Cumalıkızık: the Birth of the Ottoman Empire,Historical Site,"Historical City, Village",Bursa,"Osmangazi, Yıldırım",,,TR-WEST,"Bursa ve Cumalıkızık, Osmanlı İmparatorluğu'nun erken dönemlerine ait önemli tarihi ve kültürel miras alanlarıdır. Bursa, Osmanlı'nın ilk başkenti olarak büyük önem taşırken, Cumalıkızık ise Osmanlı kırsal mimarisini günümüze kadar koruyan nadir köylerden biridir.","Bursa and Cumalıkızık represent key historical and cultural heritage sites from the early Ottoman Empire. Bursa, as the first capital of the Ottomans, holds great significance, while Cumalıkızık is one of the rare villages that has preserved Ottoman rural architecture to this day.",Açık Alan,FALSE,https://bursa.ktb.gov.tr/,,TRUE,UNESCO Dünya Mirası,"UNESCO, Wikipedia",https://whc.unesco.org/en/list/1452,2025-12-18,29.1623231,40.1787113
TR-Bursa-0001,Ulu Camii,Grand Mosque of Bursa,Historical Site,Mosque,Bursa,Osmangazi,Nalbantoğlu,"Nalbantoğlu, 16020 Osmangazi/Bursa, Türkiye",TR-WEST,"Bursa Ulu Camii, Osmanlı döneminde inşa edilmiş en önemli camilerden biridir. 1399 yılında Yıldırım Bayezid tarafından yaptırılmıştır. Cami, 20 kubbesi ve içindeki hat sanatıyla dikkat çeker.","The Grand Mosque of Bursa is a historic mosque in Bursa, Turkey. It was commissioned by the Ottoman Sultan Bayezid I and built between 1396 and 1399. It is a large and notable monument of early Ottoman architecture, featuring 20 domes and impressive calligraphy.",24/7,FALSE,,,TRUE,Cultural Property,Wikipedia,https://en.wikipedia.org/wiki/Grand_Mosque_of_Bursa,2025-12-18,29.0670842,40.1843141
TR-Bursa-0001,Yeşil Türbe,Green Tomb,Historical Site,Tomb,Bursa,Yıldırım,Yeşil,"Yeşil, 1. Yeşil Cd., 16040 Yıldırım/Bursa, Türkiye",TR-WEST,"Yeşil Türbe, Bursa'da bulunan ve Osmanlı padişahı Çelebi Mehmet'in (I. Mehmet) türbesidir. Yeşil Külliyesi içinde yer alır ve Osmanlı türbe mimarisinin en güzel örneklerinden biri olarak kabul edilir.","The Green Tomb is a mausoleum of the fifth Ottoman Sultan, Mehmed I, in Bursa, Turkey. It forms part of a larger complex (külliye) located in the Yeşil district.",09:00 - 17:00,FALSE,,,TRUE,Part of UNESCO World Heritage Site (Bursa and Cumalıkızık: the Birth of the Ottoman Empire),Wikipedia,https://en.wikipedia.org/wiki/Green_Tomb,2025-12-18,29.0729925,40.1810205
TR-Bursa-0001,Yeşil Camii,Green Mosque,Historical Site,Mosque,Bursa,Yıldırım,Yeşil,"Yeşil, 1. Yeşil Cd. No:2, 16040 Yıldırım/Bursa",TR-WEST,"Yeşil Camii, Bursa'da bulunan, Osmanlı dönemine ait tarihi bir camidir. Çelebi Mehmet tarafından yaptırılmıştır ve Yeşil Türbe ile birlikte Yeşil Külliyesi'nin bir parçasını oluşturur.","The Green Mosque is a historic mosque in Bursa, Turkey, part of the larger Green Complex. It was commissioned by Çelebi Mehmet and completed in 1424.",08:00 - 18:00,FALSE,,,TRUE,UNESCO World Heritage Site,Wikipedia,"https://en.wikipedia.org/wiki/Green_Mosque,_Bursa",2025-12-18,29.0716276,40.1806345
TR-Bursa-0001,İznik Tarihi Kenti,Historical City of İznik,Historical Site,Ancient City,Bursa,İznik,,"İznik, Bursa, Türkiye",TR-WEST,"İznik, tarih boyunca birçok medeniyete ev sahipliği yapmış, önemli bir tarihi kenttir. Roma, Bizans, Selçuklu ve Osmanlı dönemlerine ait birçok eseri barındırır. İznik Çinileri ile de ünlüdür.","İznik is an important historical city that has hosted many civilizations throughout history. It houses many artifacts from the Roman, Byzantine, Seljuk, and Ottoman periods. It is also famous for İznik Tiles.",24/7 (Dış mekanlar),FALSE,,,TRUE,Archaeological Site,Wikipedia,https://tr.wikipedia.org/wiki/%C4%B0znik,2025-12-18,29.719743,40.429524
TR-Bursa-0001,Koza Han,Koza Han,Historical Site,Caravanserai,Bursa,Osmangazi,Nalbantoğlu,"Nalbantoğlu, Uzunçarşı Cd. No:86, 16010 Osmangazi/Bursa",TR-WEST,"Koza Han, Bursa'da bulunan tarihi bir handır. 1491 yılında II. Bayezid tarafından yaptırılmıştır ve Bursa'nın en önemli ticaret merkezlerinden biridir. Özellikle ipek ticareti ile ünlüdür.","Koza Han is a historical caravanserai located in Bursa, Turkey. It was built in 1491 by Bayezid II and is one of the most important trade centers in Bursa, especially famous for its silk trade.",08:30 - 19:00,FALSE,,,TRUE,Historical Site,Wikipedia,https://tr.wikipedia.org/wiki/Koza_Han,2025-12-18,29.0619382,40.1849468
TR-Bursa-0001,Muradiye Külliyesi,Muradiye Complex,Historical Site,Complex,Bursa,Osmangazi,Muradiye,"Muradiye, Çekirge Cd. No:20, 16050 Osmangazi/Bursa",TR-WEST,"Muradiye Külliyesi, Bursa'da bulunan ve Osmanlı padişahı II. Murad tarafından yaptırılan külliyedir. İçerisinde cami, medrese, hamam ve türbeler bulunmaktadır.","The Muradiye Complex is a complex of buildings in Bursa, Turkey, built during the reign of Ottoman Sultan Murad II. It contains a mosque, madrasa, bath, and tombs.",09:00 - 17:00,FALSE,,,TRUE,UNESCO World Heritage Site,Wikipedia,https://en.wikipedia.org/wiki/Muradiye_Complex,2025-12-18,29.037749,40.19785
TR-Bursa-0001,Irgandı Köprüsü,Irgandi Bridge,Historical Site,Bridge,Bursa,Osmangazi,İvazpaşa,"İvazpaşa, Irgandı Köprüsü, 16220 Osmangazi/Bursa, Türkiye",TR-WEST,"Irgandı Köprüsü, Bursa'da bulunan, üzerinde dükkanlar olan tarihi bir köprüdür. 1442 yılında Pir Ali oğlu Hoca Muslihiddin tarafından yaptırılmıştır.","Irgandi Bridge is a historical bridge located in Bursa, Turkey, notable for having shops built on it. It was constructed in 1442 by Hoca Muslihiddin, son of Pir Ali.",24/7,FALSE,,,TRUE,Urban Site,Wikipedia,https://tr.wikipedia.org/wiki/Irgand%C4%B1_K%C3%B6pr%C3%BCs%C3%BC,2025-12-18,29.0708123,40.1819479
TR-Bursa-0001,Osmangazi ve Orhangazi Türbeleri (Tophane),Tombs of Osman Gazi and Orhan Gazi (Tophane),Historical Site,Tomb,Bursa,Osmangazi,Tophane,"Tophane, Bursa",TR-WEST,"Osmangazi ve Orhangazi Türbeleri, Bursa'da Tophane semtinde bulunan ve Osmanlı İmparatorluğu'nun kurucusu Osman Gazi ile oğlu Orhan Gazi'nin mezarlarının bulunduğu yapılar.","The Tombs of Osman Gazi and Orhan Gazi are located in the Tophane district of Bursa, Turkey. They contain the graves of Osman I, the founder of the Ottoman Empire, and his son Orhan I.",08:30 - 17:30,FALSE,,,TRUE,Part of Bursa and Cumalıkızık: the Birth of the Ottoman Empire UNESCO World Heritage Site,Wikipedia,https://en.wikipedia.org/wiki/Tomb_of_Osman_Gazi,2025-12-18,29.0566515,40.187485
TR-Bursa-0001,Gölyazı Kültürel Peyzajı,Gölyazı Cultural Landscape,Historical Site,Ancient Village,Bursa,Nilüfer,Gölyazı,"Gölyazı Mahallesi, Nilüfer, Bursa, Türkiye",TR-WEST,"Gölyazı, Bursa'nın Nilüfer ilçesine bağlı, Uluabat Gölü kıyısında yer alan tarihi bir köydür. Antik çağlardan beri yerleşim yeri olmuş ve farklı medeniyetlere ev sahipliği yapmıştır. Gölyazı, doğal güzellikleri, tarihi yapıları ve kültürel zenginlikleriyle dikkat çekmektedir.","Gölyazı is a historical village located on the shore of Lake Uluabat, in the Nilüfer district of Bursa. It has been a settlement since ancient times and has hosted different civilizations. Gölyazı attracts attention with its natural beauties, historical structures and cultural riches.",24/7,FALSE,,,TRUE,Archaeological Site,Wikipedia,https://tr.wikipedia.org/wiki/G%C3%B6lyaz%C4%B1,2025-12-18,28.6844854,40.1742731
TR-Bursa-0001,Saltanat Kapısı,Saltanat Gate,Historical Site,Gate,Bursa,Osmangazi,,"Osmangazi, Bursa, Türkiye",TR-WEST,"Saltanat Kapısı, Bursa surlarının doğu tarafında yer alan ve günümüze ulaşan önemli kapılarından biridir. Osmanlı İmparatorluğu döneminde önemli törenlerde kullanılmıştır.","The Saltanat Gate is one of the important gates of the Bursa city walls, located on the east side, that has survived to the present day. It was used for important ceremonies during the Ottoman Empire period.",24/7,FALSE,,,TRUE,UNESCO World Heritage Site,Wikipedia,https://tr.wikipedia.org/wiki/Saltanat_Kap%C4%B1s%C4%B1,2025-12-18,29.0609636,40.1885281
TR-Bursa-0001,Emir Sultan Camii ve Külliyesi,Emir Sultan Mosque and Complex,Religious Site,Mosque,Bursa,Yıldırım,Emirsultan,"Emirsultan, Emir Sultan Cd. No:2, 16360 Yıldırım/Bursa",TR-WEST,"Emir Sultan Camii, Bursa'da bulunan tarihi bir camidir. Caminin bulunduğu külliye, cami, türbe, hamam, medrese ve şadırvandan oluşmaktadır. Cami, Osmanlı dönemi mimarisinin önemli örneklerindendir.","The Emir Sultan Mosque is a mosque in Bursa, Turkey. The mosque and the adjoining complex (külliye) which includes a hammam, soup kitchen, and mausoleum are considered one of the most significant religious sites in Bursa.",24/7,FALSE,,,TRUE,Cultural Property,Wikipedia,https://en.wikipedia.org/wiki/Emir_Sultan_Mosque,2025-12-18,29.075177,40.181602
TR-Bursa-0001,Yıldırım Bayezid Külliyesi,Yıldırım Bayezid Complex,Historical Site,Külliye,Bursa,Yıldırım,Yıldırım,"Yıldırım, Yıldırım Bayezid Külliyesi, 16360 Yıldırım/Bursa",TR-WEST,"Yıldırım Bayezid Külliyesi, Bursa'da bulunan ve Osmanlı padişahı Yıldırım Bayezid tarafından yaptırılan külliye. Cami, medrese, hamam, darüşşifa ve imaretten oluşmaktadır.","The Yıldırım Bayezid Complex is a complex (külliye) in Bursa, Turkey, consisting of a mosque, madrasa, bath, hospital and almshouse built by the Ottoman sultan Bayezid I (Yıldırım Bayezid, meaning 'Bayezid the Thunderbolt') between 1390 and 1395.",24/7,FALSE,,,TRUE,UNESCO World Heritage Site,Wikipedia,https://en.wikipedia.org/wiki/Y%C4%B1ld%C4%B1r%C4%B1m_Bayezid_Complex,2025-12-18,29.0822941,40.1879181
TR-Bursa-0001,Hüdavendigar Camii (I. Murad),Hüdavendigar Mosque (Murad I),Historical Site,Mosque,Bursa,Osmangazi,Hüdavendigar,"Hüdavendigar Mahallesi, Hüdavendigar Cd. No:6, 16170 Osmangazi/Bursa",TR-WEST,"Hüdavendigar Camii, Bursa'da bulunan ve I. Murad tarafından yaptırılan tarihi bir camidir. Cami, medrese, imaret, hamam ve türbeden oluşan bir külliyenin parçasıdır.","The Hüdavendigar Mosque is a historic mosque in Bursa, Turkey, built by Murad I. The mosque is part of a larger complex (külliye) that includes a madrasa, soup kitchen, bath, and tomb.",24/7,FALSE,,,TRUE,Cultural Property,Wikipedia,https://en.wikipedia.org/wiki/Murad_I_Mosque,2025-12-18,29.0916728,40.1859868
TR-Bursa-0001,Tofaş Bursa Anadolu Arabaları Müzesi,Tofaş Museum of Cars of Anatolia,Museum,Automobile Museum,Bursa,Osmangazi,Ulu Mahallesi,"Ulu Mahallesi, Cemal Nadir Caddesi No:28, 16020 Osmangazi/Bursa",TR-WEST,"Tofaş Bursa Anadolu Arabaları Müzesi, Türkiye'nin ilk ve tek otomobil müzesidir. Müzede, Anadolu'da üretilen otomobillerin yanı sıra, at arabaları, faytonlar ve diğer ulaşım araçları sergilenmektedir.","The Tofaş Museum of Cars of Anatolia is an automobile museum in Bursa, Turkey. The museum exhibits various automobiles manufactured in Anatolia, as well as horse carriages and other transportation vehicles.",10:00 - 17:00 (Closed on Mondays),TRUE,http://www.tofasanadoluarabalari.com/,,FALSE,,Wikipedia,https://en.wikipedia.org/wiki/Tofa%C5%9F_Museum_of_Cars_of_Anatolia,2025-12-18,29.0595389,40.1874821
TR-Bursa-0001,Bursa Kent Müzesi,Bursa City Museum,Museum,City Museum,Bursa,Osmangazi,Heykel,"Atatürk Caddesi, No:6, Osmangazi, Bursa",TR-WEST,"Bursa Kent Müzesi, Bursa'nın tarihini ve kültürel mirasını sergileyen bir müzedir. Müzede, Bursa'nın Osmanlı dönemindeki yaşam tarzı, gelenekleri ve el sanatları hakkında bilgiler ve eserler bulunmaktadır.","Bursa City Museum is a museum that exhibits the history and cultural heritage of Bursa. The museum contains information and artifacts about Bursa's Ottoman-era lifestyle, traditions, and handicrafts.",09:00 - 17:30 (Closed on Mondays),TRUE,http://www.bursakentmuzesi.com/,,TRUE,Cultural Property,Bursa Kent Müzesi Official Website,http://www.bursakentmuzesi.com/,2025-12-18,29.0668989,40.182618
TR-Bursa-0001,Panorama 1326 Bursa Fetih Müzesi,Panorama 1326 Bursa Conquest Museum,Museum,History Museum,Bursa,Osmangazi,,"Osmangazi, Bursa",TR-WEST,"Panorama 1326 Bursa Fetih Müzesi, Bursa'nın fethini anlatan panoramik bir müzedir. Müze, Bursa'nın Osmangazi ilçesinde yer almaktadır.",Panorama 1326 Bursa Conquest Museum is a panoramic museum depicting the conquest of Bursa. The museum is located in the Osmangazi district of Bursa.,09:00 - 18:00,TRUE,http://www.bursapanorama1326.com/,,FALSE,,Wikipedia,https://tr.wikipedia.org/wiki/Panorama_1326_Bursa_Fetih_M%C3%BCzesi,2025-12-18,29.0227159,40.1794309
TR-Bursa-0001,Pirinç Han,Pirinç Han (Rice Inn),Historical Site,Caravanserai,Bursa,Osmangazi,Nalbantoğlu,"Nalbantoğlu, Uzunçarşı Cd. No:7, 16010 Osmangazi/Bursa, Türkiye",TR-WEST,"Pirinç Han, Bursa'da bulunan tarihi bir handır. Osmanlı döneminde inşa edilmiştir ve günümüzde de ticari faaliyetlere ev sahipliği yapmaktadır.","Pirinç Han is a historical caravanserai located in Bursa, Turkey. It was built during the Ottoman period and continues to host commercial activities today.",08:00 - 19:00,FALSE,,,TRUE,Urban Site,Wikipedia,https://en.wikipedia.org/wiki/Koza_Han,2025-12-18,29.06111,40.1847652
TR-Bursa-0001,Fidan Han,Fidan Han,Historical Site,Caravanserai,Bursa,Osmangazi,Nalbantoğlu,"Nalbantoğlu, Uzunçarşı Cd. No:7, 16010 Osmangazi/Bursa",TR-WEST,"Fidan Han, Bursa'da bulunan tarihi bir handır. Osmanlı döneminde inşa edilmiştir ve günümüzde de ziyaretçilere açıktır.","Fidan Han is a historical caravanserai located in Bursa, Turkey. It was built during the Ottoman period and is still open to visitors today.",08:00 - 19:00,FALSE,,,TRUE,Urban Site,Wikipedia,https://tr.wikipedia.org/wiki/Fidan_Han,2025-12-18,29.06111,40.1847652
TR-Bursa-0001,Balibey Hanı,Balibey Han,Historical Site,Caravanserai,Bursa,Osmangazi,Nalbantoğlu,"Nalbantoğlu, Uzunçarşı Cd. No:16, 16010 Osmangazi/Bursa",TR-WEST,"Balibey Hanı, Bursa'da bulunan tarihi bir handır. 15. yüzyılda inşa edilmiştir ve günümüzde otel olarak hizmet vermektedir.",Balibey Han is a historical caravanserai located in Bursa. It was built in the 15th century and now serves as a hotel.,24/7,FALSE,,,TRUE,Urban Site,Wikipedia,https://tr.wikipedia.org/wiki/Balibey_Han%C4%B1,2025-12-18,29.064491,40.18481
TR-Bursa-0001,İnkaya Tarihi Çınarı,İnkaya Historical Plane Tree,Natural,Tree,Bursa,Osmangazi,İnkaya,"İnkaya Köyü, Uludağ Yolu, Bursa",TR-WEST,"İnkaya Tarihi Çınarı, Bursa'nın sembollerinden biri olan, yaklaşık 600 yıllık bir çınar ağacıdır. Uludağ yolu üzerinde, İnkaya köyünde bulunur ve Türkiye'nin en yaşlı ağaçlarından biridir.","The İnkaya Historical Plane Tree is a plane tree in Bursa, Turkey, that is about 600 years old. It is located on the Uludağ road, in the village of İnkaya, and is one of the oldest trees in Turkey.",24/7,FALSE,,,FALSE,Natural Monument,Wikipedia,https://tr.wikipedia.org/wiki/%C4%B0nkaya_%C3%87%C4%B1nar%C4%B1,2025-12-18,29.0156116,40.1818942
TR-Bursa-0001,Suuçtu Şelalesi,Suuçtu Waterfall,Natural,Waterfall,Bursa,Mustafakemalpaşa,Muradiyesarnıç,"Muradiyesarnıç, 16500 Mustafakemalpaşa/Bursa, Türkiye",TR-WEST,"Suuçtu Şelalesi, Bursa'nın Mustafakemalpaşa ilçesinde bulunan doğal güzelliktir. Şelale, 38 metre yükseklikten düşen suyuyla ünlüdür ve özellikle ilkbahar aylarında debisi yükseldiğinde etkileyici bir manzara sunar. Çevresi piknik alanları ve yürüyüş parkurlarıyla donatılmıştır.","Suuçtu Waterfall is a natural beauty located in the Mustafakemalpaşa district of Bursa. The waterfall is famous for its water falling from a height of 38 meters and offers an impressive view, especially when its flow rate increases in the spring months. The surrounding area is equipped with picnic areas and hiking trails.",24/7,FALSE,,,FALSE,Natural Monument,Wikipedia,https://tr.wikipedia.org/wiki/Suu%C3%A7tu_%C5%9Eelalesi,2025-12-18,28.4097382,40.0332699
TR-Bursa-0002,Karagöz Müzesi,Karagöz Museum,Museum,Specialty Museum,Bursa,Osmangazi,Dikkaldırım,"Dikkaldırım, Tophane Sk. No:2, 16050 Osmangazi/Bursa",TR-WEST,"Karagöz Müzesi, Bursa'da geleneksel Türk gölge oyunu Karagöz ve Hacivat'ın tarihini ve sanatını sergileyen bir müzedir. Müzede Karagöz figürleri, oyun metinleri ve diğer ilgili eserler bulunmaktadır.","The Karagöz Museum in Bursa exhibits the history and art of the traditional Turkish shadow play, Karagöz and Hacivat. The museum features Karagöz figures, play scripts, and other related artifacts.",08:30 - 17:30 (Closed on Mondays),TRUE,https://www.bursa.bel.tr/karagoz-muzesi/icerik/148/1,,TRUE,,Bursa Büyükşehir Belediyesi,https://www.bursa.bel.tr/karagoz-muzesi/icerik/148/1,2025-12-18,28.838317,40.231021
TR-Bursa-0002,İznik Müzesi (Nilüfer Hatun İmareti),İznik Museum (Nilüfer Hatun Imaret),Museum,Archaeology and Ceramics Museum,Bursa,İznik,Elbeyli,"Elbeyli, Kılıçaslan Cd. No:2, 16860 İznik/Bursa",TR-WEST,"İznik Müzesi, Bursa'nın İznik ilçesinde bulunan, Nilüfer Hatun İmareti'nde yer alan bir müzedir. Müzede İznik ve çevresinden çıkarılan arkeolojik eserler ile Osmanlı dönemine ait çini eserleri sergilenmektedir.","İznik Museum is a museum in İznik, Bursa, Turkey. It is housed in the Nilüfer Hatun Imaret, which was built in 1388. The museum displays archaeological finds from İznik and its surroundings, as well as Ottoman-era ceramics.",08:30 - 17:30,TRUE,https://muze.gov.tr/muze-detay?SectionId=IZN01&DistId=IZN,,TRUE,Cultural Property,Wikipedia,https://en.wikipedia.org/wiki/%C4%B0znik_Museum,2025-12-18,29.7147727,40.4290246
TR-Bursa-0005,İznik Ayasofya Camii (Orhan Camii),İznik Hagia Sophia Mosque (Orhan Mosque),Historical Site,Mosque,Bursa,İznik,Merkez,"Kılıçaslan Caddesi, İznik, Bursa",TR-WEST,"İznik Ayasofya Camii, İznik'te bulunan tarihi bir yapıdır. İlk olarak Roma döneminde gymnasium olarak inşa edilmiş, daha sonra bazilikaya çevrilmiş ve 1331'de Orhan Gazi tarafından camiye dönüştürülmüştür. Bir dönem müze olarak da kullanılmıştır.","The İznik Hagia Sophia Mosque is a historical building located in İznik. It was first built as a gymnasium during the Roman period, later converted into a basilica, and transformed into a mosque by Orhan Gazi in 1331. It was also used as a museum for a period.",24/7,FALSE,,,TRUE,Archaeological Site,Wikipedia,https://tr.wikipedia.org/wiki/%C4%B0znik_Ayasofya_Camii,2025-12-18,29.7207708,40.4293934
TR-Bursa-0008,Tirilye Tarihi Evleri,Historical Houses of Tirilye,Historical Site,Historical Houses,Bursa,Mudanya,Tirilye,"Tirilye Mahallesi, Mudanya, Bursa, Türkiye",TR-WEST,"Tirilye'deki tarihi evler, Osmanlı döneminden kalma mimari yapılarıyla dikkat çekmektedir. Zeytin ağaçları arasındaki bu şirin evler, bölgenin tarihi dokusunu yansıtmaktadır.",The historical houses in Tirilye stand out with their Ottoman-era architectural structures. These charming houses among the olive trees reflect the historical texture of the region.,24/7 (Exterior Viewing),FALSE,,,FALSE,Urban Protected Area,Wikipedia,https://tr.wikipedia.org/wiki/Tirilye,2025-12-18,28.7940759,40.3914481
TR-Bursa-0008,İznik Yeşil Camii,İznik Green Mosque,Religious Site,Mosque,Bursa,İznik,Elbeyli,"Elbeyli, Yeşil Cami Sk. No:2, 16860 İznik/Bursa, Türkiye",TR-WEST,"İznik Yeşil Camii, Bursa'nın İznik ilçesinde bulunan tarihi bir camidir. 1378-1391 yılları arasında Çandarlı Halil Hayrettin Paşa tarafından yaptırılmıştır. İsmini, üzerindeki yeşil renkli çinilerden almaktadır.","The Green Mosque is a 14th-century mosque in İznik, Turkey, commissioned by Çandarlı Halil Hayreddin Pasha. It is noted for its turquoise tiles.",Open 24 hours,FALSE,,,TRUE,Historical Monument,Wikipedia,https://en.wikipedia.org/wiki/Green_Mosque_(Iznik),2025-12-18,29.7272392,40.4300436
TR-Bursa-0022,İznik Lefke Kapı,Lefke Gate of İznik,Historical Site,Ancient City Gate,Bursa,İznik,,"Lefke Kapısı, İznik, Bursa, Türkiye",TR-WEST,"Lefke Kapı, İznik'in dört ana giriş kapısından biridir. Roma döneminde inşa edilmiş ve Bizans ve Osmanlı dönemlerinde de kullanılmıştır. Şehrin doğu yönünde yer alır ve Lefke (Osmaneli) yönüne açıldığı için bu adı almıştır.",The Lefke Gate is one of the four main entrance gates of İznik. It was built during the Roman period and was also used during the Byzantine and Ottoman periods. It is located on the eastern side of the city and is named after Lefke (Osmaneli) because it opens in that direction.,24/7,FALSE,,,TRUE,Archaeological Site,Wikipedia,https://tr.wikipedia.org/wiki/%C4%B0znik_Lefke_Kap%C4%B1s%C4%B1,2025-12-18,29.729072,40.4288241
TR-Canakkale-0001,Assos Antik Kenti,Assos Ancient City,Historical Site,Ancient City,Çanakkale,Ayvacık,Behramkale,"Behramkale Köyü, Ayvacık, Çanakkale, Türkiye",TR-WEST,"Assos, Çanakkale'nin Ayvacık ilçesinde yer alan antik bir kenttir. MÖ 6. yüzyılda kurulmuştur ve tarih boyunca birçok medeniyete ev sahipliği yapmıştır. Özellikle Aristo'nun bir dönem burada yaşamış ve felsefe okulu kurmuş olmasıyla bilinir. Kent, Athena Tapınağı, antik tiyatro, agora ve nekropol gibi önemli kalıntılara sahiptir.","Assos is an ancient city located in the Ayvacık district of Çanakkale, Turkey. It was founded in the 6th century BC and has been home to many civilizations throughout history. It is particularly known for Aristotle having lived here for a time and establishing a philosophy school. The city has important remains such as the Temple of Athena, the ancient theater, the agora, and the necropolis.",08:30 - 17:30,TRUE,https://muze.gov.tr/muze-detay?SectionId=ASS01&DistId=ASS,,TRUE,Archaeological Site,Wikipedia,https://en.wikipedia.org/wiki/Assos,2025-12-18,26.336559,39.497459
TR-Canakkale-0001,Aleksandria Troas Antik Kenti,Alexandria Troas Ancient City,Historical Site,Ancient City,Çanakkale,Ezine,Dalyan,"Dalyan Köyü, Ezine, Çanakkale, Türkiye",TR-WEST,"Aleksandria Troas, Çanakkale ilinde yer alan antik bir kenttir. Helenistik dönemde kurulmuş ve Roma döneminde önemli bir liman kenti olmuştur. Kalıntıları arasında tiyatro, hamam, agora ve surlar bulunmaktadır.","Alexandria Troas was an ancient Greek port city located in the Troad region of Anatolia, near the modern town of Dalyan, Turkey. It was established in the Hellenistic period and flourished during Roman times. Its ruins include a theater, baths, an agora, and city walls.",24/7,FALSE,,,FALSE,Archaeological Site,Wikipedia,https://en.wikipedia.org/wiki/Alexandria_Troas,2025-12-18,26.149973,39.761035
TR-Çanakkale-0001,Troya Arkeolojik Alanı,Archaeological Site of Troy,Historical Site,Ancient City,Çanakkale,Merkez,Tevfikiye Köyü,"Tevfikiye Köyü, 17100 Merkez/Çanakkale",TR-WEST,"Troya, Homeros'un İlyada destanında bahsedilen antik kenttir. Çanakkale il sınırları içinde yer alır ve UNESCO Dünya Mirası Listesi'ndedir. Arkeolojik kazılar, kentin tarih boyunca farklı medeniyetlere ev sahipliği yaptığını göstermektedir.",Troy is an ancient city mentioned in Homer's Iliad. It is located within the borders of Çanakkale province and is a UNESCO World Heritage Site. Archaeological excavations show that the city has been home to different civilizations throughout history.,08:30 - 17:30 (Yaz Sezonu: 08:30 - 19:00),TRUE,https://muze.gov.tr/muze-detay?SectionId=TRV01&DistId=TRV,,TRUE,Archaeological Site,"Wikipedia, UNESCO, Türkiye Kültür Portalı",https://tr.wikipedia.org/wiki/Truva,2025-12-18,26.5727815,40.1249606
TR-Çanakkale-0001,Gelibolu Tarihi Alanı,Gallipoli Historical Site,Historical Site,"Battlefield, Memorial",Çanakkale,Eceabat,,"Gelibolu Yarımadası, Eceabat, Çanakkale, Türkiye",TR-WEST,"Gelibolu Yarımadası Tarihi Milli Parkı, Çanakkale Savaşları'nın yaşandığı Gelibolu Yarımadası'nda yer almaktadır. Park, savaşın izlerini taşıyan siperler, anıtlar, şehitlikler ve müzelerle doludur.","The Gallipoli Peninsula Historical National Park is located on the Gallipoli Peninsula, where the Gallipoli Campaign took place. The park is filled with trenches, memorials, cemeteries, and museums that bear traces of the war.",24/7 (for the open areas; museums and visitor centers have specific hours),FALSE,https://www.kulturportali.gov.tr/turkiye/canakkale/gezilecekyerler/gelibolu-yarimadasi-tarihi-milli-parki,,TRUE,National Park,Wikipedia,https://en.wikipedia.org/wiki/Gallipoli,2025-12-18,26.4144134,40.2192057
TR-Çanakkale-0001,Kilitbahir Kalesi,Kilitbahir Castle,Historical Site,Castle,Çanakkale,Eceabat,Kilitbahir,"Kilitbahir Köyü, Eceabat",TR-WEST,"Kilitbahir Kalesi, Çanakkale Boğazı'nın en dar noktasında, Fatih Sultan Mehmet tarafından 1462-1463 yıllarında yaptırılmıştır. Kale, boğazın güvenliğini sağlamak amacıyla inşa edilmiştir ve günümüzde müze olarak hizmet vermektedir.",Kilitbahir Castle was built by Fatih Sultan Mehmet in 1462-1463 on the narrowest point of the Dardanelles Strait. The castle was built to ensure the safety of the strait and now serves as a museum.,08:30 - 17:30,TRUE,https://muze.gov.tr/muze-detay?SectionId=KLB01&DistId=KLB,,TRUE,Cultural Property,Wikipedia,https://en.wikipedia.org/wiki/Kilitbahir_Castle,2025-12-18,26.379811,40.147767
TR-Çanakkale-0001,Parion Antik Kenti,Parion Ancient City,Historical Site,Ancient City,Çanakkale,Biga,Kemer Köyü,"Kemer Köyü, Biga, Çanakkale, Türkiye",TR-WEST,"Parion, antik çağda önemli bir liman kentiydi. Günümüzde Çanakkale'nin Biga ilçesi Kemer köyü yakınlarında bulunur. Kazılar, kentin tarihini MÖ 7. yüzyıla kadar götürmektedir.","Parion was an important port city in ancient times. Today, it is located near the village of Kemer in the Biga district of Çanakkale. Excavations trace the city's history back to the 7th century BC.",08:30 - 17:30 (Summer Season),TRUE,https://canakkalekulturturizm.ktb.gov.tr/TR-62429/parion-antik-kenti.html,,FALSE,Archaeological Site,Wikipedia,https://tr.wikipedia.org/wiki/Parion,2025-12-18,27.065415,40.417936
TR-Çanakkale-0001,Çanakkale Şehitler Abidesi,Çanakkale Martyrs' Memorial,Historical Site,Monument,Çanakkale,Eceabat,Hisarlık Köyü,"Hisarlık Köyü, Morto Koyu, Gelibolu Yarımadası, Eceabat, Çanakkale, Türkiye",TR-WEST,"Çanakkale Şehitler Abidesi, Çanakkale Savaşı'nda hayatını kaybeden Türk askerlerinin anısına Gelibolu Yarımadası'nda yapılmış olan anıttır.","The Çanakkale Martyrs' Memorial is a war memorial commemorating the service of about 253,000 Turkish soldiers who participated in the Battle of Gallipoli, which took place here.",24/7,FALSE,,,FALSE,National Park,Wikipedia,https://tr.wikipedia.org/wiki/%C3%87anakkale_%C5%9Eehitler_Abidesi,2025-12-18,26.669997,40.4139849
TR-Çanakkale-0001,Conkbayırı Atatürk Zafer Anıtı,Conkbayırı Atatürk Victory Monument,Historical Site,Monument,Çanakkale,Eceabat,,"Conkbayırı, Eceabat, Çanakkale, Türkiye",TR-WEST,"Conkbayırı Atatürk Zafer Anıtı, Çanakkale ilinde bulunan ve Atatürk'ün Conkbayırı'nda kazandığı zaferleri anmak için dikilmiş bir anıttır.","The Conkbayırı Atatürk Victory Monument is a monument located in Çanakkale, Turkey, erected to commemorate the victories Atatürk achieved in Conkbayırı.",24/7,FALSE,,,TRUE,Historical Site,Wikipedia,https://tr.wikipedia.org/wiki/Conkbay%C4%B1r%C4%B1_Atat%C3%BCrk_Zafer_An%C4%B1t%C4%B1,2025-12-18,26.3078114,40.2503121
TR-Çanakkale-0001,Çimenlik Kalesi,Çimenlik Castle,Historical Site,Castle,Çanakkale,Merkez,Kemalpaşa,"Kemalpaşa Mahallesi, Çanakkale Merkez",TR-WEST,"Çimenlik Kalesi, Çanakkale Boğazı'nın en dar noktasında, Fatih Sultan Mehmet tarafından 1462 yılında yaptırılmıştır. Kale, boğazın güvenliğini sağlamak amacıyla inşa edilmiştir ve günümüzde müze olarak hizmet vermektedir.",Çimenlik Castle was built in 1462 by Fatih Sultan Mehmet at the narrowest point of the Dardanelles Strait. The castle was built to ensure the safety of the strait and now serves as a museum.,08:30 - 17:30,TRUE,https://muze.gov.tr/muze-detay?SectionId=CKM01&DistId=CKM,,FALSE,Cultural Property,Wikipedia,https://tr.wikipedia.org/wiki/%C3%87imenlik_Kalesi,2025-12-18,26.4038967,40.1491405
TR-Çanakkale-0001,Aynalı Çarşı,Aynalı Çarşı (Mirror Bazaar),Historical Site,Bazaar,Çanakkale,Merkez,Kemalpaşa,"Kemalpaşa, Zühtü Sk. No:22, 17100 Çanakkale Merkez/Çanakkale",TR-WEST,"Aynalı Çarşı, Çanakkale şehir merkezinde bulunan tarihi bir çarşıdır. 1889 yılında Musevi cemaatinden Eliyau Hallio tarafından yaptırılmıştır. Çarşı, I. Dünya Savaşı sırasında büyük ölçüde hasar görmüş, ancak daha sonra restore edilmiştir. Günümüzde turistik bir mekan olarak hizmet vermektedir.","Aynalı Çarşı (Mirror Bazaar) is a historical bazaar located in the city center of Çanakkale. It was built in 1889 by Eliyau Hallio from the Jewish community. The bazaar was largely damaged during World War I, but was later restored. Today it serves as a tourist attraction.",08:00 - 22:00,FALSE,,,FALSE,Registered Historical Site,Wikipedia,https://tr.wikipedia.org/wiki/Aynal%C4%B1_%C3%87ar%C5%9F%C4%B1,2025-12-18,26.4842982,40.151499
TR-Çanakkale-0012,Seyit Onbaşı Anıtı,Corporal Seyit Monument,Historical Site,Monument,Çanakkale,Eceabat,Kilitbahir,"Rumeli Mecidiye Tabyası, Kilitbahir",TR-WEST,"Seyit Onbaşı Anıtı, Çanakkale Savaşları'nda gösterdiği kahramanlıkla tanınan Seyit Ali Çabuk'un anısına dikilmiştir. Anıt, Seyit Onbaşı'nın 276 kiloluk top mermisini sırtında taşıdığı anı sembolize etmektedir.","The Corporal Seyit Monument is dedicated to Seyit Ali Çabuk, known for his heroism in the Battle of Çanakkale (Gallipoli). The monument symbolizes the moment when Corporal Seyit carried a 276-kilogram shell on his back.",24/7,FALSE,,,TRUE,Historical Site,Wikipedia,https://tr.wikipedia.org/wiki/Seyit_Onba%C5%9F%C4%B1_An%C4%B1t%C4%B1,2025-12-18,26.3736304,40.1408453
TR-Çanakkale-0057,57. Alay Şehitliği,57th Regiment Cemetery,Historical Site,War Memorial,Çanakkale,Eceabat,,"Gelibolu Yarımadası Tarihi Milli Parkı, Eceabat, Çanakkale",TR-WEST,"57. Alay Şehitliği, Çanakkale'de bulunan ve Çanakkale Savaşı'nda şehit düşen 57. Alay askerlerinin anısına yaptırılan şehitliktir.","The 57th Regiment Cemetery is a cemetery in Çanakkale, Turkey, dedicated to the soldiers of the 57th Regiment who fell during the Battle of Gallipoli.",24/7,FALSE,,,TRUE,National Park,Wikipedia,https://tr.wikipedia.org/wiki/57._Alay_%C5%9Eehitli%C4%9Fi,2025-12-18,26.4144134,40.2192057
TR-Denizli-0001,Hierapolis – Pamukkale,Hierapolis – Pamukkale,Historical Site,Ancient City,Denizli,Merkez,Pamukkale,"Pamukkale, Denizli, Türkiye",TR-WEST,"Hierapolis, günümüzde Pamukkale yakınlarında bulunan antik bir Frigya kentidir. Pamukkale travertenleri ile birlikte UNESCO Dünya Mirası Listesi'ndedir. Antik kent, Helenistik ve Roma dönemlerinde önemli bir merkez olmuştur.","Hierapolis was an ancient Greek city located near Pamukkale in present-day Turkey. Together with Pamukkale, it is a UNESCO World Heritage Site. The ancient city was an important center during the Hellenistic and Roman periods.",24/7,TRUE,https://muze.gov.tr/muze-detay?SectionId=HIE01&DistId=HIE,,TRUE,UNESCO World Heritage Site,Wikipedia,https://en.wikipedia.org/wiki/Hierapolis,2025-12-18,29.1099855,37.9136209
TR-Denizli-0001,Laodikeia Antik Kenti,Laodicea Ancient City,Historical Site,Ancient City,Denizli,Merkezefendi,Eskihisar,"Eskihisar Mahallesi, Laodikeia Antik Kenti, Denizli",TR-WEST,"Laodikeia, Denizli'de bulunan antik bir kenttir. Tarihi ve arkeolojik önemi büyüktür. Helenistik dönemde kurulmuş ve Roma döneminde gelişmiştir.","Laodicea is an ancient city located in Denizli, Turkey. It holds great historical and archaeological significance. It was founded in the Hellenistic period and developed during the Roman period.","08:00 - 17:00 (Yaz Sezonu), 08:30 - 17:30 (Kış Sezonu)",TRUE,https://muze.gov.tr/muze-detay?SectionId=LAO01&DistId=MRZ,,TRUE,Archaeological Site,Wikipedia,https://en.wikipedia.org/wiki/Laodicea_on_the_Lycus,2025-12-18,29.1087807,37.8367423
TR-Denizli-0005,Tripolis Antik Kenti,Tripolis Ancient City,Historical Site,Ancient City,Denizli,Buldan,Yenicekent,"Yenicekent Mahallesi, Buldan, Denizli, Türkiye",TR-WEST,"Tripolis, Denizli ilinin Buldan ilçesi yakınlarında yer alan antik bir kenttir. Menderes Nehri vadisinde, Lidya ve Karya bölgelerinin sınırında kurulmuştur. Kent, özellikle Roma ve Bizans dönemlerinde önemli bir merkez olmuştur.","Tripolis is an ancient city located near the town of Buldan in Denizli Province, Turkey. It was founded in the Menderes (Meander) River valley, on the border between Lydia and Caria. The city was an important center, especially during the Roman and Byzantine periods.","08:00 - 17:00 (Winter), 08:00 - 19:00 (Summer)",TRUE,https://muze.gov.tr/muze-detay?SectionId=TRH01&DistId=TR-20,,FALSE,Archaeological Site,Wikipedia,https://en.wikipedia.org/wiki/Tripolis_on_the_Maeander,2025-12-18,28.95,38.05
TR-Düzce-0001,Prusias ad Hypium Antik Kenti,Prusias ad Hypium Ancient City,Historical Site,Ancient City,Düzce,Merkez,Konuralp,"Konuralp, Düzce, Türkiye",TR-WEST,"Prusias ad Hypium, Düzce il sınırları içinde bulunan antik bir kenttir. MÖ 3. yüzyılda kurulmuştur ve çeşitli medeniyetlere ev sahipliği yapmıştır. Kent, özellikle Roma ve Bizans dönemlerinde önemli bir yerleşim yeri olmuştur.","Prusias ad Hypium is an ancient city located within the borders of Düzce province. It was founded in the 3rd century BC and has hosted various civilizations. The city was an important settlement, especially during the Roman and Byzantine periods.",24/7,FALSE,,,FALSE,Archaeological Site,Wikipedia,https://tr.wikipedia.org/wiki/Prusias_ad_Hypium,2025-12-18,31.147039,40.91404
TR-Düzce-0001,Konuralp Antik Tiyatrosu,Konuralp Ancient Theatre,Historical Site,Ancient Theatre,Düzce,Merkez,Konuralp,"Konuralp, Düzce, Türkiye",TR-WEST,"Konuralp Antik Tiyatrosu, Düzce'nin Konuralp beldesinde bulunan ve Roma dönemine ait olan antik tiyatrodur. İyi korunmuş yapısıyla dikkat çekmektedir.",Konuralp Ancient Theatre is an ancient Roman theatre located in the Konuralp town of Düzce. It stands out with its well-preserved structure.,08:30 - 17:30,TRUE,https://duzce.ktb.gov.tr/,,FALSE,Archaeological Site,Wikipedia,https://tr.wikipedia.org/wiki/Konuralp_Antik_Tiyatrosu,2025-12-18,31.147039,40.91404
TR-Edirne-0001,Selimiye Camii ve Külliyesi,Selimiye Mosque and its Social Complex,Historical Site,Mosque,Edirne,Edirne Merkez,Meydan,"Meydan Mahallesi, Mimar Sinan Cd. No:1, 22020 Edirne Merkez/Edirne",TR-WEST,"Selimiye Camii, Mimar Sinan'ın 80 yaşında yaptığı ve 'ustalık eserim' dediği, Edirne'de bulunan camidir. 2011 yılında UNESCO Dünya Mirası Listesi'ne dahil edilmiştir.","The Selimiye Mosque is an Ottoman mosque in the city of Edirne, Turkey. It was commissioned by Sultan Selim II, and was built by the imperial architect Mimar Sinan from 1568 to 1575. It was considered by Sinan to be his best work and is one of the highest achievements of Islamic architecture. In 2011, it was added to the UNESCO World Heritage List.",24/7,FALSE,,,TRUE,UNESCO World Heritage Site,Wikipedia,https://en.wikipedia.org/wiki/Selimiye_Mosque,2025-12-18,26.5560092,41.6775792
TR-Edirne-0001,Eski Camii,Eski Mosque,Historical Site,Mosque,Edirne,Edirne Merkez,Sabuni,"Sabuni Mahallesi, Eski Cami Cd. No:1, 22020 Edirne Merkez/Edirne",TR-WEST,"Eski Camii, Edirne'de bulunan ve 1403-1414 yılları arasında inşa edilmiş olan tarihi bir camidir. Edirne'nin en eski camilerinden biridir ve Osmanlı mimarisinin erken dönem örneklerini yansıtır.","The Eski (Old) Mosque in Edirne, Turkey, is a historical mosque built between 1403 and 1414. It is one of the oldest mosques in Edirne and reflects the early period of Ottoman architecture.",24/7,FALSE,,,TRUE,Cultural Property,Wikipedia,https://tr.wikipedia.org/wiki/Eski_Camii_(Edirne),2025-12-18,26.5328991,41.6777418
TR-Edirne-0001,Üç Şerefeli Camii,Üç Şerefeli Mosque,Historical Site,Mosque,Edirne,Edirne Merkez,Muradiye,"Muradiye, Üç Şerefeli Cami Sk. No:1, 22020 Edirne Merkez/Edirne",TR-WEST,"Üç Şerefeli Camii, Edirne'de bulunan ve Osmanlı İmparatorluğu döneminde inşa edilmiş önemli bir camidir. Caminin en dikkat çekici özelliği, dört minaresinin her birinin farklı tasarımlara sahip olmasıdır.","Üç Şerefeli Mosque is a 15th-century Ottoman mosque in Edirne, Turkey. It is known for its four unique minarets, each with different designs.",24/7,FALSE,,,TRUE,Cultural Property,Wikipedia,https://en.wikipedia.org/wiki/%C3%9C%C3%A7_%C5%9Eerefeli_Mosque,2025-12-18,26.5328991,41.6777418
TR-Edirne-0001,II. Bayezid Külliyesi Sağlık Müzesi,II. Bayezid Complex Health Museum,Museum,Health Museum,Edirne,Edirne Merkez,Yeniimaret,"II. Bayezid Külliyesi, Yeniimaret Mahallesi, 22020 Edirne Merkez/Edirne",TR-WEST,"II. Bayezid Külliyesi Sağlık Müzesi, Edirne'de bulunan ve Osmanlı İmparatorluğu döneminde inşa edilmiş olan II. Bayezid Külliyesi'nin bir parçasıdır. Müze, külliyenin darüşşifa (hastane) bölümünde yer alır ve Osmanlı tıbbı tarihini sergiler.","The II. Bayezid Külliye Health Museum is a museum in Edirne, Turkey, located within the complex (külliye) of Sultan Bayezid II. It showcases the history of medicine during the Ottoman Empire, particularly focusing on the darüşşifa (hospital) section of the külliye.",09:00 - 17:00 (Closed on Mondays),TRUE,https://www.kulturturizm.gov.tr/,,TRUE,Part of UNESCO World Heritage Site,Wikipedia,https://en.wikipedia.org/wiki/Beyazid_II_Kulliye_Health_Museum,2025-12-18,26.5428219,41.6857627
TR-Edirne-0001,Meriç Köprüsü (Mecidiye),Meriç Bridge (Mecidiye),Historical Site,Bridge,Edirne,Merkez,Mecidiye,"Mecidiye Köyü, Edirne",TR-WEST,"Meriç Köprüsü, Edirne'de Meriç Nehri üzerinde bulunan tarihi bir köprüdür. Mecidiye Köprüsü olarak da bilinir ve şehrin önemli simgelerindendir.","The Meriç Bridge is a historical bridge located on the Meriç River in Edirne. Also known as the Mecidiye Bridge, it is one of the important symbols of the city.",24/7,FALSE,,,FALSE,Historical Monument,Wikipedia,https://tr.wikipedia.org/wiki/Meri%C3%A7_K%C3%B6pr%C3%BCs%C3%BC,2025-12-18,26.5609857,41.7
TR-Edirne-0001,Uzunköprü,Uzunköprü,Historical Site,Bridge,Edirne,Uzunköprü,,"Uzunköprü, Edirne, Türkiye",TR-WEST,"Uzunköprü, Edirne iline bağlı bir ilçedir. Özellikle tarihi taş köprüsü ile bilinir. Köprü, Ergene Nehri üzerinde yer alır ve adını ilçeye vermiştir.","Uzunköprü is a district of Edirne Province in Turkey, known especially for its historical stone bridge. The bridge is located on the Ergene River and gave its name to the district.",24/7,FALSE,,,TRUE,Historical Monument,Wikipedia,https://tr.wikipedia.org/wiki/Uzunk%C3%B6pr%C3%BC,2025-12-18,26.687679,41.266979
TR-Edirne-0001,Edirne Sarayı (Saray-ı Cedid) Kalıntıları,Edirne Palace (New Palace) Ruins,Historical Site,Palace Ruins,Edirne,Edirne Merkez,Yeniimaret,"Yeniimaret, 22020 Edirne Merkez/Edirne, Turkey",TR-WEST,"Edirne Sarayı veya Saray-ı Cedid, Osmanlı İmparatorluğu'nun Edirne'deki en önemli yapılarından biriydi. Günümüzde kalıntıları bulunmaktadır.","Edirne Palace or Saray-ı Cedid was one of the most important structures of the Ottoman Empire in Edirne. Today, its ruins remain.",24/7,FALSE,,,TRUE,Archaeological Site,Wikipedia,https://tr.wikipedia.org/wiki/Edirne_Sarayı,2025-12-18,26.548452,41.6758256
TR-Edirne-0001,Adalet Kasrı,Palace of Justice,Historical Site,Palace,Edirne,Edirne Merkez,Saray İçi,"Saray İçi, 22020 Edirne Merkez/Edirne, Türkiye",TR-WEST,"Adalet Kasrı, Edirne Sarayı'nın günümüze ulaşan önemli yapılarından biridir. Fatih Sultan Mehmet döneminde inşa edilmiştir. Devlet işlerinin görüşüldüğü ve önemli kararların alındığı bir mekân olarak kullanılmıştır.",The Palace of Justice is one of the important surviving structures of Edirne Palace. It was built during the reign of Mehmed the Conqueror. It was used as a place where state affairs were discussed and important decisions were made.,Ziyarete açık değil,FALSE,,,TRUE,Kültür Varlığı,Wikipedia,https://tr.wikipedia.org/wiki/Edirne_Sarayı,2025-12-18,26.548452,41.6758256
TR-Edirne-0008,Rüstem Paşa Kervansarayı,Rustem Pasha Caravanserai,Historical Site,Caravanserai,Edirne,Edirne Merkez,Kervansaray,"Kervansaray İçi No:1, 22020 Edirne Merkez/Edirne",TR-WEST,"Rüstem Paşa Kervansarayı, Edirne'de bulunan ve Osmanlı dönemine ait önemli bir kervansaraydır. Şehir merkezinde yer alır ve günümüzde otel olarak hizmet vermektedir.",Rustem Pasha Caravanserai is an important Ottoman-era caravanserai located in Edirne. It is located in the city center and now serves as a hotel.,24/7,FALSE,,,TRUE,Cultural Property,Wikipedia,https://tr.wikipedia.org/wiki/R%C3%BCstem_Pa%C5%9Fa_Kervansarayı,2025-12-18,26.548452,41.6758256
TR-Edirne-0012,Lozan Anıtı ve Müzesi (Karaağaç),Lausanne Monument and Museum (Karaağaç),Historical Site,Monument,Edirne,Merkez,Karaağaç,"Karaağaç, Edirne",TR-WEST,"Lozan Anıtı ve Müzesi, Edirne'nin Karaağaç bölgesinde bulunan ve Lozan Barış Antlaşması'nı simgeleyen bir anıt ve müzedir. Türkiye'nin bağımsızlığını ve yeni bir dönemin başlangıcını temsil eder.","The Lausanne Monument and Museum is a monument and museum located in the Karaağaç region of Edirne, symbolizing the Treaty of Lausanne. It represents Turkey's independence and the beginning of a new era.","08:00 - 17:00 (Winter), 08:00 - 19:00 (Summer)",TRUE,https://www.trakya.edu.tr/birim/lozan-anit-muzesi/140/iletisim,,FALSE,Historical Site,Wikipedia,https://tr.wikipedia.org/wiki/Lozan_An%C4%B1t%C4%B1,2025-12-18,26.526933,41.65592
TR-Eskisehir-0001,Yazılıkaya (Midas Anıtı),Yazılıkaya (Midas Monument),Historical Site,Ancient Sanctuary,Eskişehir,Han,Yazılıkaya Köyü,"Yazılıkaya Köyü, Han, Eskişehir, Türkiye",TR-WEST,"Yazılıkaya, Eskişehir'in Han ilçesinde bulunan ve Frigler dönemine ait önemli bir açık hava tapınağıdır. Midas Anıtı olarak da bilinir ve Frig kaya sanatının en etkileyici örneklerinden birini sergiler.","Yazılıkaya is an open-air Phrygian sanctuary located in the Han district of Eskişehir, Turkey. Also known as the Midas Monument, it showcases one of the most impressive examples of Phrygian rock art.",08:30 - 17:30,TRUE,https://muze.gov.tr/muze-detay?SectionId=ESK01&DistId=ESK,,TRUE,Archaeological Site,Wikipedia,https://en.wikipedia.org/wiki/Yaz%C4%B1l%C4%B1kaya_(Phrygia),2025-12-18,30.715056,39.204052
TR-Eskisehir-0001,Odunpazarı Tarihi Evleri,Historical Houses of Odunpazarı,Historical Site,Historical Houses,Eskişehir,Odunpazarı,Odunpazarı,"Odunpazarı, Eskişehir, Türkiye",TR-WEST,"Odunpazarı Evleri, Eskişehir'in Odunpazarı ilçesinde bulunan, Osmanlı döneminden kalma tarihi evlerdir. Restore edilerek turizme kazandırılmıştır.",The Historical Houses of Odunpazarı are historical Ottoman-era houses located in the Odunpazarı district of Eskişehir. They have been restored and opened to tourism.,24/7 (Exterior Viewing),FALSE,,,TRUE,Urban Site,Wikipedia,https://tr.wikipedia.org/wiki/Odunpazar%C4%B1_Evleri,2025-12-18,30.5739579,39.6482972
TR-Eskisehir-0001,Seyitgazi Külliyesi (Battal Gazi),Seyitgazi Complex (Battal Gazi),Historical Site,Complex,Eskişehir,Seyitgazi,,"Seyitgazi, Eskişehir, Türkiye",TR-WEST,"Seyitgazi Külliyesi, Eskişehir'in Seyitgazi ilçesinde bulunan tarihi bir külliyedir. Battal Gazi'nin türbesi ve çeşitli dini yapıları içerir.",The Seyitgazi Complex is a historical complex located in the Seyitgazi district of Eskişehir. It includes the tomb of Battal Gazi and various religious structures.,08:00 - 17:00,FALSE,,,FALSE,Historical Site,Wikipedia,https://tr.wikipedia.org/wiki/Seyitgazi_K%C3%BClliyesi,2025-12-18,30.693912,39.445619
TR-Eskisehir-0001,Eskişehir Balmumu Heykel Müzesi,Eskisehir Wax Sculpture Museum,Museum,Wax Museum,Eskişehir,Odunpazarı,,"Atatürk Bulvarı No:43 Odunpazarı, Eskişehir",TR-WEST,"Eskişehir Balmumu Heykel Müzesi, Yılmaz Büyükerşen tarafından açılan ve Türkiye'nin önemli balmumu heykel müzelerinden biridir. Müzede, Türk ve dünya tarihine damga vurmuş önemli kişilerin balmumu heykelleri sergilenmektedir.","Eskisehir Wax Sculpture Museum, opened by Yılmaz Büyükerşen, is one of Turkey's important wax sculpture museums. The museum exhibits wax sculptures of important figures who have left their mark on Turkish and world history.",10:00 - 17:00 (Closed on Mondays),TRUE,https://www.eskisehir.bel.tr/icerik/148/yilmaz-buyukersen-balmumu-heykeller-muzesi,,FALSE,,Wikipedia,https://tr.wikipedia.org/wiki/Eski%C5%9Fehir_Balmumu_Heykel_M%C3%BCzesi,2025-12-18,30.5181266,39.7650981
TR-Eskisehir-0001,Devrim Arabaları Müzesi,Devrim (Revolution) Cars Museum,Museum,Automobile Museum,Eskişehir,Odunpazarı,Şeker Mahallesi,"TÜRASAŞ Yerleşkesi, Eskişehir",TR-WEST,"Devrim Arabaları Müzesi, Türkiye'nin ilk yerli otomobili olan Devrim'in hikayesini ve prototiplerini sergileyen bir müzedir. Müze, Eskişehir'de TÜRASAŞ (Türkiye Raylı Sistem Araçları Sanayii A.Ş.) yerleşkesi içinde bulunmaktadır.","The Devrim (Revolution) Cars Museum is a museum that exhibits the story and prototypes of Devrim, Turkey's first domestic automobile. The museum is located within the TÜRASAŞ (Turkish Rail System Vehicles Industry Inc.) campus in Eskişehir.",09:00 - 17:00 (Closed on Mondays),TRUE,https://www.eskisehir.bel.tr/icerik/110/devrim-arabasi-muzesi,,FALSE,,Eskişehir Büyükşehir Belediyesi,https://www.eskisehir.bel.tr/icerik/110/devrim-arabasi-muzesi,2025-12-18,30.5256311,39.7667061
TR-Eskisehir-0001,Porsuk Çayı Adalar Bölgesi,Porsuk River Islands Region,Natural,River,Eskişehir,Tepebaşı,Eskibağlar,"Eskibağlar, Porsuk Çayı Adalar Bölgesi, 26020 Tepebaşı/Eskişehir, Türkiye",TR-WEST,"Porsuk Çayı'nın Eskişehir şehir merkezinden geçen ve adalarla çevrili bölümü, popüler bir rekreasyon alanıdır. Çevresinde kafeler, restoranlar ve parklar bulunur. Gondol ve bot turları ile ünlüdür.","The section of the Porsuk River passing through Eskişehir city center and surrounded by islands is a popular recreational area. It is surrounded by cafes, restaurants and parks. It is famous for its gondola and boat tours.",24/7,FALSE,,,FALSE,,Wikipedia,https://tr.wikipedia.org/wiki/Porsuk_%C3%87ay%C4%B1,2025-12-18,30.5155922,39.7760147
TR-Eskisehir-0001,Sazova Bilim Kültür ve Sanat Parkı,Sazova Science Culture and Art Park,Park,Theme Park,Eskişehir,Tepebaşı,Sazova,"Sazova, 26110 Tepebaşı/Eskişehir, Türkiye",TR-WEST,"Sazova Bilim Kültür ve Sanat Parkı, Eskişehir'de bulunan büyük bir parktır. İçerisinde bilim merkezi, hayvanat bahçesi, Türk dünyası şaheserleri ve çeşitli eğlence alanları bulunmaktadır.","Sazova Science Culture and Art Park is a large park located in Eskişehir. It includes a science center, a zoo, masterpieces of the Turkish world, and various entertainment areas.",10:00 - 22:00,TRUE,http://www.eskisehir.bel.tr/,,FALSE,,Wikipedia,https://tr.wikipedia.org/wiki/Sazova_Bilim_K%C3%BClt%C3%BCr_ve_Sanat_Park%C4%B1,2025-12-18,30.6602534,39.7497639
TR-Eskisehir-0001,Midas Şehri (Yazılıkaya),City of Midas (Yazılıkaya),Historical Site,Ancient City,Eskişehir,Han,Yazılıkaya Köyü,"Yazılıkaya Köyü, Han, Eskişehir, Türkiye",TR-WEST,"Midas Şehri, Eskişehir'in Han ilçesinde bulunan antik bir Frig yerleşim yeridir. Yazılıkaya olarak da bilinir ve Frig Vadisi'nin önemli bir parçasıdır. Bölgede Frig dönemine ait kaya anıtları, tapınaklar ve yerleşim kalıntıları bulunmaktadır.","The City of Midas, also known as Yazılıkaya, is an ancient Phrygian settlement located in the Han district of Eskişehir. It is an important part of the Phrygian Valley. The area contains rock monuments, temples, and settlement remains from the Phrygian period.",08:30 - 17:30,TRUE,https://muze.gov.tr/muze-detay?SectionId=ESK01&DistId=ESK,,TRUE,Archaeological Site,Wikipedia,https://en.wikipedia.org/wiki/Midas_City,2025-12-18,30.715056,39.204052
TR-Eskişehir-0001,Kurşunlu Camii ve Külliyesi,Kurşunlu Mosque and Complex,Historical Site,Mosque,Eskişehir,Odunpazarı,Paşa Mahallesi,"Odunpazarı, Eskişehir",TR-WEST,"Kurşunlu Camii ve Külliyesi, Eskişehir'de bulunan Osmanlı dönemine ait bir yapıdır. Caminin yanı sıra medrese, imaret, zaviye, hamam ve şadırvan gibi yapıları da içermektedir. Günümüzde cami ibadete açık olup, külliye çeşitli kültürel etkinliklere ev sahipliği yapmaktadır.","The Kurşunlu Mosque and Complex is an Ottoman-era structure located in Eskişehir. In addition to the mosque, it includes structures such as a madrasah, almshouse, dervish lodge, bath, and fountain. Today, the mosque is open for worship, and the complex hosts various cultural events.",24/7,FALSE,,,FALSE,Cultural Property,Wikipedia,https://tr.wikipedia.org/wiki/Kur%C5%9Funlu_Camii_ve_K%C3%BClliyesi_(Eski%C5%9Fehir),2025-12-18,30.5243113,39.7641014
TR-Eskişehir-0001,Çağdaş Cam Sanatları Müzesi,Contemporary Glass Arts Museum,Museum,Art Museum,Eskişehir,Odunpazarı,Paşa,"Odunpazarı, Atatürk Blv. No:64, 26030 Odunpazarı/Eskişehir",TR-WEST,"Çağdaş Cam Sanatları Müzesi, Eskişehir'de bulunan ve cam sanatına odaklanan bir müzedir. Türkiye'nin ve dünyanın çeşitli yerlerinden sanatçıların eserlerini sergilemektedir.","The Contemporary Glass Arts Museum is a museum located in Eskişehir, focusing on glass art. It exhibits works by artists from various parts of Turkey and the world.",10:00 - 18:00 (Closed on Mondays),TRUE,http://www.eskisehir.bel.tr/icerik/108/cagdas-cam-sanatlari-muzesi.html,,FALSE,,Wikipedia,https://tr.wikipedia.org/wiki/%C3%87a%C4%9Fda%C5%9F_Cam_Sanatlar%C4%B1_M%C3%BCzesi,2025-12-18,30.5132014,39.7658584
TR-Istanbul-0001,İstanbul'un Tarihi Alanları,Historic Areas of Istanbul,Historical Site,Historical Urban Area,İstanbul,Fatih,Sultanahmet,"İstanbul, Türkiye",TR-WEST,"İstanbul'un tarihi alanları, Doğu Roma ve Osmanlı İmparatorlukları'na başkentlik yapmış olan şehrin zengin kültürel mirasını yansıtmaktadır. Bu alanlar arasında Ayasofya, Sultanahmet Camii, Topkapı Sarayı ve Kapalıçarşı gibi önemli yapılar bulunmaktadır.","The Historic Areas of Istanbul reflect the rich cultural heritage of the city, which served as the capital of the Eastern Roman and Ottoman Empires. These areas include significant structures such as Hagia Sophia, Sultan Ahmed Mosque, Topkapi Palace, and the Grand Bazaar.",24/7 (Dış alanlar),FALSE,https://whc.unesco.org/en/list/356,,TRUE,UNESCO World Heritage Site,Wikipedia,https://en.wikipedia.org/wiki/Historic_Areas_of_Istanbul,2025-12-18,28.9778313,41.0078742
TR-Istanbul-0001,Galata Kulesi,Galata Tower,Historical Site,Tower,İstanbul,Beyoğlu,Bereketzade,"Bereketzade Mahallesi, Galata Kulesi, Beyoğlu, İstanbul",TR-WEST,"Galata Kulesi, İstanbul'un Beyoğlu ilçesinde bulunan tarihi bir kuledir. Şehrin önemli sembollerinden biridir ve ziyaretçilere eşsiz bir İstanbul manzarası sunar.","Galata Tower is a historical tower in the Beyoğlu district of Istanbul, Turkey. It is one of the city's most important landmarks and offers visitors a unique view of Istanbul.",08:30 - 22:00,TRUE,https://muze.gov.tr/muze-detay?SectionId=GLT01&DistId=GLT,https://whc.unesco.org/uploads/thumbs/site_0356_0047-750-750-20151105154645.webp,TRUE,Cultural Property,Wikipedia,https://en.wikipedia.org/wiki/Galata_Tower,2025-12-18,28.9741286,41.025569
TR-Istanbul-0001,Dolmabahçe Sarayı,Dolmabahçe Palace,Historical Site,Palace,İstanbul,Beşiktaş,Dolmabahçe,"Dolmabahçe Caddesi, Beşiktaş, İstanbul",TR-WEST,"Dolmabahçe Sarayı, İstanbul'da bulunan ve Osmanlı İmparatorluğu'nun son dönemlerinde kullanılan bir saraydır. 19. yüzyıl ortalarında inşa edilen saray, geleneksel Osmanlı mimarisi ile Avrupa neo-klasik tarzının birleşimidir.","Dolmabahçe Palace is a palace located in Istanbul, Turkey. It served as the main administrative center of the Ottoman Empire from 1856 to 1922, apart from a 20-year interval (1887–1909) during which Yıldız Palace was used. ",09:00 - 18:00 (Closed on Mondays),TRUE,https://www.millisaraylar.gov.tr/en/palaces/dolmabahce-palace,https://encrypted-tbn0.gstatic.com/images?q=tbn:ANd9GcSpXLV8NbBr9utHODv-cqL-tJR9H2SspVx97Q&s,TRUE,Historical Monument,Wikipedia,https://en.wikipedia.org/wiki/Dolmabah%C3%A7e_Palace,2025-12-18,28.9967181,41.0374607
TR-Istanbul-0001,Yerebatan Sarnıcı,Basilica Cistern,Historical Site,Cistern,İstanbul,Fatih,Alemdar,"Alemdar, Yerebatan Cd. 1/3, 34110 Fatih/İstanbul",TR-WEST,"Yerebatan Sarnıcı, İstanbul'da bulunan ve Bizans İmparatoru I. Justinianus tarafından 6. yüzyılda yaptırılan tarihi bir su sarnıcıdır. Ayasofya'nın güneybatısında yer alır.","The Basilica Cistern is the largest of several hundred ancient cisterns that lie beneath the city of Istanbul, Turkey. The cistern, located 150 meters (490 ft) southwest of the Hagia Sophia on the historical peninsula of Sarayburnu, was built in the 6th century during the reign of Byzantine Emperor Justinian I.",09:00 - 18:00,TRUE,https://yerebatan.com/,https://yerebatan.com/wp-content/uploads/2022/12/yerebatan-sergi-ogu6525-min-JlPk-scaled-1.jpg,TRUE,Archaeological Site,Wikipedia,https://en.wikipedia.org/wiki/Basilica_Cistern,2025-12-18,28.9783329,41.0087837
TR-Istanbul-0001,Kız Kulesi,Maiden's Tower,Historical Site,Tower,İstanbul,Üsküdar,Salacak,"Salacak, Üsküdar, İstanbul",TR-WEST,"Kız Kulesi, İstanbul Boğazı'nın Marmara Denizi'ne yakın kısmında yer alan küçük bir adacık üzerinde bulunur. Tarihi boyunca farklı amaçlarla kullanılmış, günümüzde ise restoran ve müze olarak hizmet vermektedir.","Maiden's Tower is a tower lying on a small islet located at the southern entrance of the Bosphorus strait off the coast of Üsküdar in Istanbul, Turkey. It has served various purposes throughout its history, and today it operates as a restaurant and museum.",09:00 - 19:00,TRUE,https://www.kizkulesi.com/,https://encrypted-tbn0.gstatic.com/images?q=tbn:ANd9GcQyvuRomOZKtKxJhBI-OdeuiooWWGRim-y6fQ&s,FALSE,Cultural Property,Wikipedia,https://en.wikipedia.org/wiki/Maiden%27s_Tower,2025-12-18,29.0125313,41.016282
TR-Istanbul-0001,Topkapı Sarayı,Topkapi Palace,Historical Site,Palace,İstanbul,Fatih,Cankurtaran,"Cankurtaran Mh., 34122 Fatih/İstanbul",TR-WEST,"Topkapı Sarayı, İstanbul'da Osmanlı İmparatorluğu'nun 400 yıl boyunca devletin idare merkezi ve padişahların evi olarak kullandığı saraydır.","Topkapi Palace is a large museum in Istanbul, Turkey. In the 15th century, it served as the main residence and administrative headquarters of the Ottoman sultans.",09:00 - 18:00 (Closed on Tuesdays),TRUE,https://muze.gov.tr/muze-detay?SectionId=TKP01&DistId=TKP,https://encrypted-tbn0.gstatic.com/images?q=tbn:ANd9GcS4yOIMlmL9nfyqxIRzkK5uQl8ncCIwUDxzxg&s,TRUE,Museum,Wikipedia,https://en.wikipedia.org/wiki/Topkap%C4%B1_Palace,2025-12-18,28.9834284,41.0103672
TR-Istanbul-0001,Ayasofya-i Kebir Cami-i Şerifi,Hagia Sophia Grand Mosque,Historical Site,Mosque,İstanbul,Fatih,Sultan Ahmet,"Sultan Ahmet, Ayasofya Meydanı No:1, 34122 Fatih/İstanbul",TR-WEST,"Ayasofya, İstanbul'da yer alan ve Bizans İmparatoru I. Justinianus tarafından 532-537 yılları arasında inşa ettirilmiş bir yapıdır. 1453'te Fatih Sultan Mehmet'in İstanbul'u fethetmesiyle camiye dönüştürülmüştür. 1935'ten 2020'ye kadar müze olarak hizmet vermiştir. 2020'de tekrar cami olarak ibadete açılmıştır.","Hagia Sophia, officially known as the Hagia Sophia Grand Mosque, is a mosque in Istanbul, Turkey. Originally built as a Christian church in the 6th century, it was converted into a mosque in 1453. From 1935 to 2020, it served as a museum. In 2020, it was re-designated as a mosque.",24/7,FALSE,,https://arkeofili.com/wp-content/uploads/2020/07/ayasofya1.jpg,TRUE,UNESCO World Heritage Site,Wikipedia,https://en.wikipedia.org/wiki/Hagia_Sophia,2025-12-18,28.980175,41.008583
TR-Istanbul-0001,Sultanahmet Camii,Sultan Ahmed Mosque,Historical Site,Mosque,İstanbul,Fatih,Sultanahmet,"Sultan Ahmet, Atmeydanı Cd. No:7, 34122 Fatih/İstanbul",TR-WEST,"Sultanahmet Camii, İstanbul'da bulunan ve 17. yüzyılda inşa edilmiş tarihi bir camidir. Osmanlı İmparatorluğu'nun en önemli yapılarından biridir ve özellikle iç mekanındaki mavi İznik çinileriyle ünlüdür.","The Sultan Ahmed Mosque, also known as the Blue Mosque, is a historical mosque in Istanbul, Turkey. It was built in the 17th century during the reign of Ahmed I, and is famous for its blue Iznik tiles.",24/7,FALSE,https://www.kulturturizm.gov.tr/,https://upload.wikimedia.org/wikipedia/commons/thumb/7/77/Blue_Mosque_Courtyard_Dusk_Wikimedia_Commons.jpg/500px-Blue_Mosque_Courtyard_Dusk_Wikimedia_Commons.jpg,TRUE,UNESCO World Heritage Site,Wikipedia,https://en.wikipedia.org/wiki/Blue_Mosque,2025-12-18,28.977664,41.0077025
TR-Istanbul-0001,Kapalıçarşı,Grand Bazaar,Historical Site,Bazaar,İstanbul,Fatih,Beyazıt,"Beyazıt, Kalpakçılar Cd. No:22, 34126 Fatih/İstanbul",TR-WEST,"Kapalıçarşı, İstanbul'da bulunan en eski ve en büyük kapalı çarşılardan biridir. İçinde dükkanlar, restoranlar ve atölyeler bulunur.","The Grand Bazaar in Istanbul is one of the oldest and largest covered markets in the world. It contains shops, restaurants, and workshops.",08:30 - 19:00 (Pazar günleri kapalı),FALSE,,https://upload.wikimedia.org/wikipedia/commons/thumb/0/03/Istanbul_%2834223582516%29_%28cropped%29.jpg/960px-Istanbul_%2834223582516%29_%28cropped%29.jpg,TRUE,Historical Site,Wikipedia,"https://en.wikipedia.org/wiki/Grand_Bazaar,_Istanbul",2025-12-18,28.9699298,41.0100198
TR-Istanbul-0001,Rumeli Hisarı,Rumeli Fortress,Historical Site,Castle,İstanbul,Sarıyer,Rumelihisarı,"Yahya Kemal Caddesi No:42, 34470 Sarıyer/İstanbul",TR-WEST,"Rumeli Hisarı, İstanbul Boğazı'nın Avrupa yakasında, Sarıyer ilçesinde bulunan tarihi bir yapıdır. Fatih Sultan Mehmet tarafından İstanbul'un fethinden önce 1452 yılında inşa ettirilmiştir.","Rumeli Hisarı is a medieval fortress located in Istanbul, Turkey, on a series of hills on the European banks of the Bosphorus strait. It was built by the Ottoman Sultan Mehmed II between 1451 and 1452, before the conquest of Constantinople. ",09:00 - 18:00 (Closed on Mondays),TRUE,https://muze.gov.tr/muze-detay?SectionId=RHM01&DistId=RHM,https://upload.wikimedia.org/wikipedia/commons/thumb/4/47/Istanbul%2C_Turkey_-_53686764072.jpg/1280px-Istanbul%2C_Turkey_-_53686764072.jpg,TRUE,Archaeological Site,Wikipedia,https://en.wikipedia.org/wiki/Rumelihisar%C4%B1,2025-12-18,29.056741,41.0848823
TR-Istanbul-0001,Kariye Camii,Chora Church,Historical Site,Church,İstanbul,Fatih,Edirnekapı,"Kariye Cami Sk. No:18, 34087 Fatih/İstanbul",TR-WEST,"Kariye Camii, İstanbul'da bulunan ve aslen Kariye Manastırı'nın bir parçası olan bir Bizans kilisesidir. Osmanlı döneminde camiye çevrilmiştir ve günümüzde müze olarak hizmet vermektedir. Özellikle mozaikleri ve freskleriyle ünlüdür.","The Chora Church, formally known as the Church of the Holy Saviour in Chora, is a medieval Byzantine Greek Orthodox church preserved as the Kariye Museum in the Edirnekapı neighborhood of Istanbul. The church is covered inside and out with exquisite Byzantine mosaics and frescoes.",09:00 - 17:00,TRUE,,https://upload.wikimedia.org/wikipedia/commons/thumb/e/e0/Chora_Church_2024.jpg/2560px-Chora_Church_2024.jpg,TRUE,Museum,Wikipedia,https://en.wikipedia.org/wiki/Chora_Church,2025-12-18,28.9484978,41.0292106
TR-Istanbul-0001,Fener Rum Lisesi (Kırmızı Mektep),Phanar Greek Orthodox College (Red School),Historical Site,School,İstanbul,Fatih,Balat,"Balat, Sancaktar Yokuşu No:26, 34087 Fatih/İstanbul",TR-WEST,"Fener Rum Lisesi, İstanbul'da bulunan özel bir Rum lisesidir. Halk arasında Kırmızı Mektep olarak da bilinir. 1454 yılında kurulmuştur ve Türkiye'deki en eski Rum okullarından biridir.","The Phanar Greek Orthodox College, also known as the Red School, is a private Greek school in Istanbul, Turkey. It was established in 1454 and is one of the oldest surviving Greek Orthodox schools in the city.",Closed to public,FALSE,http://www.fenerrumlisesi.k12.tr/,https://upload.wikimedia.org/wikipedia/commons/thumb/a/af/Greek_Orthodox_College_in_Istanbul-0748_-_Flickr_-_Ragnhild_%26_Neil_Crawford.jpg/960px-Greek_Orthodox_College_in_Istanbul-0748_-_Flickr_-_Ragnhild_%26_Neil_Crawford.jpg,FALSE,Cultural Heritage,Wikipedia,https://en.wikipedia.org/wiki/Phanar_Greek_Orthodox_College,2025-12-18,28.9497212,41.0295413
TR-Istanbul-0001,Yıldız Sarayı,Yıldız Palace,Historical Site,Palace,İstanbul,Beşiktaş,Yıldız,"Yıldız, Barbaros Bulvarı, Serencebey Yokuşu, No:6, 34349 Beşiktaş/İstanbul",TR-WEST,"Yıldız Sarayı, İstanbul'da bulunan ve Osmanlı İmparatorluğu döneminde inşa edilmiş bir saray kompleksidir. 19. yüzyılın sonlarında ve 20. yüzyılın başlarında Osmanlı padişahı II. Abdülhamid tarafından kullanılmıştır. Saray, çeşitli köşkler, bahçeler ve diğer yapılardan oluşmaktadır.","Yıldız Palace is a large complex of former imperial Ottoman palaces, villas, kiosks, mosques, pavilions, and gardens in Istanbul, Turkey. It was used as a residence by Sultan Abdul Hamid II in the late 19th century.",09:00 - 17:00 (Closed on Mondays),TRUE,http://www.yildizsarayi.gov.tr/,https://upload.wikimedia.org/wikipedia/commons/thumb/e/ed/%C4%B0stanbul_5717.jpg/1280px-%C4%B0stanbul_5717.jpg,FALSE,Historical Site,Wikipedia,https://en.wikipedia.org/wiki/Y%C4%B1ld%C4%B1z_Palace,2025-12-18,29.0079745,41.0430499
TR-Istanbul-0001,Beylerbeyi Sarayı,Beylerbeyi Palace,Historical Site,Palace,İstanbul,Üsküdar,Beylerbeyi,"Beylerbeyi, Abdullahağa Yalıboyu Cd., 34676 Üsküdar/İstanbul",TR-WEST,"Beylerbeyi Sarayı, İstanbul'da bulunan tarihi bir saraydır. Sultan Abdülaziz tarafından yaptırılmıştır ve Boğaziçi'nin incilerinden biri olarak kabul edilir.",Beylerbeyi Palace is a historical palace located in Istanbul. It was built by Sultan Abdülaziz and is considered one of the pearls of the Bosphorus.,09:00 - 17:00 (Closed on Mondays),TRUE,https://muze.gov.tr/muze-detay?SectionId=BEY01&DistId=BEY,https://upload.wikimedia.org/wikipedia/commons/thumb/9/9a/Beylerbeyi_Palace_%28cropped%29.jpg/2560px-Beylerbeyi_Palace_%28cropped%29.jpg,FALSE,Historical Monument,Wikipedia,https://en.wikipedia.org/wiki/Beylerbeyi_Palace,2025-12-18,29.0443762,41.0439571
TR-Istanbul-0001,Anadolu Hisarı,Anadolu Hisarı,Historical Site,Castle,İstanbul,Beykoz,Göksu,"Göksu, Anadolu Hisarı Cd. No:97, 34815 Beykoz/İstanbul",TR-WEST,"Anadolu Hisarı, İstanbul Boğazı'nın Anadolu yakasında bulunan tarihi bir yapıdır. Fatih Sultan Mehmet tarafından yaptırılmıştır.","Anadolu Hisarı is a medieval fortress located on the Asian side of Istanbul, Turkey, on the Bosphorus.","09:00 - 18:00 (Summer), 09:00 - 17:00 (Winter). Closed on Mondays.",TRUE,https://muze.gov.tr/muze-detay?SectionId=AHM01&DistId=AHM,https://upload.wikimedia.org/wikipedia/commons/thumb/d/d4/Anadolu_Hisar%C4%B1_in_2024_%28cropped%29.jpg/1280px-Anadolu_Hisar%C4%B1_in_2024_%28cropped%29.jpg,FALSE,Historical Site,Wikipedia,https://en.wikipedia.org/wiki/Anadolu_Hisar%C4%B1,2025-12-18,29.0670122,41.0934773
TR-Istanbul-0001,Çırağan Sarayı,Çırağan Palace,Historical Site,Palace,İstanbul,Beşiktaş,Çırağan,"Çırağan Caddesi No:32, Beşiktaş, İstanbul",TR-WEST,"Çırağan Sarayı, İstanbul'da bulunan tarihi bir saraydır. 19. yüzyılda Sultan Abdülaziz tarafından yaptırılmıştır. Günümüzde lüks bir otel olarak hizmet vermektedir.","Çırağan Palace is a former Ottoman palace, now a five-star hotel in Istanbul, Turkey. It was built in the 19th century by Sultan Abdülaziz and is located on the European shore of the Bosphorus.",24/7 (Hotel),FALSE,https://www.kempinski.com/en/istanbul/ciragan-palace/,https://upload.wikimedia.org/wikipedia/commons/thumb/5/54/Istanbul_asv2020-02_img59_%C3%87%C4%B1ra%C4%9Fan_Palace.jpg/1280px-Istanbul_asv2020-02_img59_%C3%87%C4%B1ra%C4%9Fan_Palace.jpg,TRUE,Historical Monument,Wikipedia,https://en.wikipedia.org/wiki/%C3%87%C4%B1ra%C4%9Fan_Palace,2025-12-18,29.0161433,41.0439752
TR-Istanbul-0001,Küçüksu Kasrı,Küçüksu Pavilion,Historical Site,Pavilion,İstanbul,Beykoz,Küçüksu,"Küçüksu, 34815 Beykoz/İstanbul",TR-WEST,"Küçüksu Kasrı, İstanbul'un Beykoz ilçesinde bulunan tarihi bir yapıdır. Sultan Abdülmecid tarafından yaptırılan kasır, Boğaziçi'nin incilerinden biri olarak kabul edilir.","Küçüksu Pavilion, also known as Küçüksu Kasrı, is a historical building in Istanbul, Turkey, located in the Küçüksu neighborhood of Beykoz district. It was built by Sultan Abdülmecid and is considered one of the gems of the Bosphorus.",09:00 - 17:00 (Closed on Mondays),TRUE,https://muze.gov.tr/muze-detay?SectionId=KSR01&DistId=KSR,https://upload.wikimedia.org/wikipedia/commons/thumb/9/9f/Istanbul_Bosphorus_K%C3%BC%C3%A7%C3%BCksu_Palace_IMG_7764_1920.jpg/1280px-Istanbul_Bosphorus_K%C3%BC%C3%A7%C3%BCksu_Palace_IMG_7764_1920.jpg,FALSE,Historical Monument,Wikipedia,https://en.wikipedia.org/wiki/K%C3%BC%C3%A7%C3%BCksu_Pavilion,2025-12-18,29.0896271,41.077254
TR-Istanbul-0001,Hidiv Kasrı,Hidiv Pavilion,Historical Site,Pavilion,İstanbul,Beykoz,Çubuklu,"Çubuklu, Mehmet Akif Ersoy Cd. No:32, 34805 Beykoz/İstanbul",TR-WEST,"Hidiv Kasrı, İstanbul'un Beykoz ilçesinde bulunan tarihi bir yapıdır. 1907 yılında Mısır Hidivi Abbas Hilmi Paşa tarafından yaptırılmıştır. Art Nouveau tarzında inşa edilmiş olup, Boğaz manzarasına hakim bir konumdadır.","Hidiv Pavilion is a historical building located in the Beykoz district of Istanbul. It was built in 1907 by Abbas Hilmi Pasha, the Khedive of Egypt. It was built in Art Nouveau style and has a commanding view of the Bosphorus.",09:00 - 23:00,FALSE,https://www.beltur.com.tr/hidiv-kasri,https://upload.wikimedia.org/wikipedia/commons/4/4f/H%C4%B1div_Kasr%C4%B1.jpg,FALSE,Historical Building,Wikipedia,https://tr.wikipedia.org/wiki/Hidiv_Kasr%C4%B1,2025-12-18,29.1040708,41.1136473
TR-Istanbul-0001,Sepetçiler Kasrı,Sepetciler Pavilion,Historical Site,Pavilion,İstanbul,Fatih,Cankurtaran,"Cankurtaran, Kennedy Cd. No:25, 34122 Fatih/İstanbul",TR-WEST,"Sepetçiler Kasrı, İstanbul'da, Gülhane Parkı'nın Marmara Denizi'ne bakan kıyısında yer alan tarihi bir yapıdır. Sultan Abdülmecid tarafından yaptırılmıştır ve çeşitli dönemlerde farklı amaçlarla kullanılmıştır.",Sepetciler Pavilion is a historical structure located on the Marmara Sea coast of Gülhane Park in Istanbul. It was built by Sultan Abdülmecid and has been used for various purposes in different periods.,09:00 - 17:00,FALSE,,https://upload.wikimedia.org/wikipedia/commons/7/70/Istanbul.Bosphorus004_small.jpg,TRUE,Historical Monument,Wikipedia,https://tr.wikipedia.org/wiki/Sepet%C3%A7iler_Kasr%C4%B1,2025-12-18,28.9803109,41.01595
TR-Istanbul-0001,Tophane-i Amire Kültür Sanat Merkezi,Tophane-i Amire Culture and Art Center,Cultural Center,Art Gallery,İstanbul,Beyoğlu,Kemankeş Karamustafa Paşa,"Kemankeş Karamustafa Paşa, Ali Paşa Değirmeni Sk. No:1, 34425 Beyoğlu/İstanbul",TR-WEST,"Tophane-i Amire Kültür ve Sanat Merkezi, İstanbul'da bulunan bir sanat merkezidir. Çeşitli sergilere, etkinliklere ve kültürel faaliyetlere ev sahipliği yapmaktadır.","Tophane-i Amire Culture and Art Center is an art center located in Istanbul. It hosts various exhibitions, events and cultural activities.",10:00 - 18:00 (Closed on Mondays),FALSE,http://www.gsbfakulte.marmara.edu.tr/tophaneiamire/,https://encrypted-tbn0.gstatic.com/images?q=tbn:ANd9GcQg77mSjBr4Sc0I3hrQS8Hs9C-czTXT2XKvZg&s,FALSE,Historical Site,Wikipedia,https://tr.wikipedia.org/wiki/Tophane-i_Amire_K%C3%BClt%C3%BCr_ve_Sanat_Merkezi,2025-12-18,28.9788597,41.0251255
TR-Istanbul-0001,Rahmi M. Koç Müzesi,Rahmi M. Koç Museum,Museum,Industry Museum,İstanbul,Beyoğlu,Hasköy,"Hasköy Cad. No:5, 34445 Hasköy / İstanbul",TR-WEST,"Rahmi M. Koç Müzesi, İstanbul'da Haliç kıyısında yer alan bir sanayi müzesidir. Ulaşım, endüstri ve iletişim tarihine adanmış objeleri barındırır.","The Rahmi M. Koç Museum is a private industrial museum in Istanbul, Turkey. It is dedicated to the history of transport, industry and communications.",Pazartesi kapalı; Salı-Cuma: 10:00-17:30; Cumartesi-Pazar: 10:00-18:00,TRUE,https://www.rmk-museum.org.tr/istanbul/,https://upload.wikimedia.org/wikipedia/commons/thumb/8/89/Sakip-Sabanci-Museum.jpg/1280px-Sakip-Sabanci-Museum.jpg,FALSE,https://upload.wikimedia.org/wikipedia/commons/0/01/Rahmi_ko%C3%A7_m%C3%BCzesi.jpg,Wikipedia,https://tr.wikipedia.org/wiki/Rahmi_M._Ko%C3%A7_M%C3%BCzesi,2025-12-18,28.9491868,41.0425309
TR-Istanbul-0001,Sakıp Sabancı Müzesi,Sakıp Sabancı Museum,Museum,Art Museum,İstanbul,Sarıyer,Emirgan,"Sakıp Sabancı Müzesi, Sakıp Sabancı Caddesi No:42 Emirgan 34467 İstanbul",TR-WEST,"Sakıp Sabancı Müzesi, İstanbul'da yer alan özel bir müzedir. Müzede, hat sanatı örnekleri, dini ve tarihi belgeler, tablolar ve heykeller sergilenmektedir.","The Sakıp Sabancı Museum is a private fine arts museum in Istanbul, Turkey. Dedicated to Turkish and Ottoman calligraphy, religious and historical documents, as well as paintings of the Ottoman era.","10:00 - 18:00 (Tuesday-Sunday), Closed on Mondays",TRUE,https://www.sakipsabancimuzesi.org/,https://upload.wikimedia.org/wikipedia/commons/thumb/8/89/Sakip-Sabanci-Museum.jpg/1280px-Sakip-Sabanci-Museum.jpg,FALSE,,Wikipedia,https://en.wikipedia.org/wiki/Sak%C4%B1p_Sabanc%C4%B1_Museum,2025-12-18,29.0569444,41.1055556
TR-Istanbul-0001,Panorama 1453 Tarih Müzesi,Panorama 1453 History Museum,Museum,History Museum,İstanbul,Zeytinburnu,Merkezefendi,"Topkapı Kültür Parkı, Merkezefendi Mahallesi, Yolu Caddesi, No:14/2, Zeytinburnu, İstanbul",TR-WEST,"Panorama 1453 Tarih Müzesi, İstanbul'un fethini canlandıran panoramik bir müzedir. Müze, Topkapı Kültür Parkı içinde yer almaktadır ve ziyaretçilere İstanbul'un fethini farklı bir perspektiften deneyimleme fırsatı sunar.",Panorama 1453 History Museum is a panoramic museum depicting the conquest of Istanbul. The museum is located in Topkapı Cultural Park and offers visitors the opportunity to experience the conquest of Istanbul from a different perspective.,08:00 - 18:00,TRUE,http://www.panorama1453.com/,https://upload.wikimedia.org/wikipedia/commons/thumb/9/9d/Panorama_1453_History_Museum_2.JPG/1280px-Panorama_1453_History_Museum_2.JPG,FALSE,,Wikipedia,https://en.wikipedia.org/wiki/Panorama_1453_History_Museum,2025-12-18,28.9196556,41.0197842
TR-Istanbul-0001,Harbiye Askeri Müzesi,Harbiye Military Museum,Müze,Askeri Müze,İstanbul,Şişli,Harbiye,"Valikonağı Caddesi, Harbiye, Şişli, İstanbul",TR-WEST,"Harbiye Askeri Müzesi, İstanbul'da bulunan ve Türk askeri tarihine ait eserlerin sergilendiği bir müzedir. Müzede Osmanlı İmparatorluğu ve Türkiye Cumhuriyeti dönemlerine ait askeri kıyafetler, silahlar, araçlar ve diğer askeri malzemeler bulunmaktadır.","Harbiye Military Museum is a museum in Istanbul that exhibits artifacts related to Turkish military history. The museum houses military clothing, weapons, vehicles, and other military equipment from the Ottoman Empire and the Republic of Turkey.",09:00 - 17:00 (Pazartesi ve Salı kapalı),TRUE,http://www.muze.gov.tr/tr/muzeler/istanbul-askeri-muze,https://upload.wikimedia.org/wikipedia/commons/thumb/0/0a/Askeri_muze_Istanbul.jpg/1280px-Askeri_muze_Istanbul.jpg,FALSE,Kültür Varlığı,Wikipedia,https://tr.wikipedia.org/wiki/Harbiye_Askeri_M%C3%BCzesi,2025-12-18,28.9893181,41.0501793
TR-Istanbul-0001,Türk ve İslam Eserleri Müzesi,Museum of Turkish and Islamic Arts,Museum,Islamic Art Museum,İstanbul,Fatih,Sultanahmet,"Sultan Ahmet Mahallesi, At Meydanı Cad. No:46, 34122 Fatih/İstanbul",TR-WEST,"Türk ve İslam Eserleri Müzesi, İstanbul'da bulunan ve İslam dünyasına ait önemli eserleri barındıran bir müzedir. Sultanahmet Meydanı'nda yer alır ve zengin koleksiyonuyla dikkat çeker.","The Museum of Turkish and Islamic Arts is a museum located in Istanbul, Turkey, showcasing significant artifacts from the Islamic world. Situated in Sultanahmet Square, it is notable for its rich collection.",09:00 - 18:00 (Closed on Mondays),TRUE,https://muze.gov.tr/muze-detay?SectionId=TIEM01&DistId=MRK,https://upload.wikimedia.org/wikipedia/commons/thumb/a/a3/Turkish_and_Islamic_Museum_1432_%28cropped%29.jpg/1280px-Turkish_and_Islamic_Museum_1432_%28cropped%29.jpg,TRUE,Museum,Wikipedia,https://en.wikipedia.org/wiki/Museum_of_Turkish_and_Islamic_Arts,2025-12-18,28.9750213,41.0059889
TR-Istanbul-0001,Eyüp Sultan Camii ve Türbesi,Eyüp Sultan Mosque and Tomb,Religious Site,Mosque,İstanbul,Eyüpsultan,Merkez,"Merkez, Camii Kebir Sk. No:1, 34050 Eyüpsultan/İstanbul",TR-WEST,"Eyüp Sultan Camii, İstanbul'da Haliç kıyısında Eyüp semtinde bulunan ve İslam dünyası için önemli bir ziyaretgâh olan cami ve türbe kompleksidir. İçinde Ebu Eyyûb el-Ensarî'nin türbesi bulunmaktadır.","The Eyüp Sultan Mosque is a mosque situated in the Eyüp district of Istanbul, Turkey, outside the city's main historic areas. It is a significant religious site for Muslims, housing the tomb of Abu Ayyub al-Ansari, a close companion of Prophet Muhammad.",24/7,FALSE,https://www.eyupsultan.bel.tr/,https://upload.wikimedia.org/wikipedia/commons/thumb/9/98/Eyup_Sultan_Mosque_DSCF9637.jpg/500px-Eyup_Sultan_Mosque_DSCF9637.jpg,FALSE,Historical Site,Wikipedia,https://tr.wikipedia.org/wiki/Ey%C3%BCp_Sultan_Camii,2025-12-18,28.9351465,41.0472927
TR-Istanbul-0001,Ortaköy Camii (Büyük Mecidiye),Ortaköy Mosque (Büyük Mecidiye),Historical Site,Mosque,İstanbul,Beşiktaş,Ortaköy,"Ortaköy Meydanı, Beşiktaş, İstanbul",TR-WEST,"Ortaköy Camii, İstanbul'un Beşiktaş ilçesinde bulunan, Boğaziçi'nin kıyısında yer alan tarihi bir camidir. Sultan Abdülmecid tarafından 1853-1854 yılları arasında yaptırılmıştır.","The Ortaköy Mosque, officially the Büyük Mecidiye Camii (Grand Imperial Mosque) in Beşiktaş, Istanbul, Turkey, is situated at the waterside of the Ortaköy pier square, one of the most popular locations on the Bosphorus.",24/7,FALSE,,https://upload.wikimedia.org/wikipedia/commons/thumb/d/d8/Istanbul_asv2020-02_img60_Ortak%C3%B6y_Mosque.jpg/960px-Istanbul_asv2020-02_img60_Ortak%C3%B6y_Mosque.jpg,FALSE,Cultural Property,Wikipedia,https://en.wikipedia.org/wiki/Ortak%C3%B6y_Mosque,2025-12-18,29.0285355,41.068616
TR-Istanbul-0001,Yeni Cami (Eminönü),New Mosque (Eminönü),Historical Site,Mosque,İstanbul,Fatih,Rüstem Paşa,"Rüstem Paşa Mahallesi, Yeni Cami Meydanı, Eminönü, Fatih, İstanbul",TR-WEST,"Yeni Cami, İstanbul'un Eminönü semtinde bulunan tarihi bir camidir. 1663 yılında tamamlanmıştır ve İstanbul'un siluetinin önemli bir parçasıdır.","The New Mosque, originally named the Valide Sultan Mosque and later New Valide Sultan Mosque after its partial reconstruction and completion between 1660 and 1665; is an Ottoman imperial mosque located in the Eminönü quarter of Istanbul, Turkey. It is situated on the Golden Horn, at the southern end of the Galata Bridge.",24/7,FALSE,,https://upload.wikimedia.org/wikipedia/commons/thumb/1/13/New_Mosque_in_2025_%2854504109092%29_%28cropped%29.jpg/1280px-New_Mosque_in_2025_%2854504109092%29_%28cropped%29.jpg,TRUE,Part of Istanbul's UNESCO World Heritage Site,Wikipedia,https://en.wikipedia.org/wiki/New_Mosque_(Istanbul),2025-12-18,28.9706547,41.0161602
TR-Istanbul-0001,Sokullu Mehmet Paşa Camii,Sokollu Mehmet Pasha Mosque,Historical Site,Mosque,İstanbul,Beyoğlu,Azapkapı,"Azapkapı, Tersane Cd. No:24, 34421 Beyoğlu/İstanbul",TR-WEST,"Sokullu Mehmet Paşa Camii, İstanbul'da bulunan ve Mimar Sinan tarafından inşa edilen bir camidir. Azapkapı semtinde yer alır ve Osmanlı döneminin önemli yapılarından biridir.","The Sokollu Mehmet Pasha Mosque is a 16th-century Ottoman mosque in the Azapkapı neighborhood of Istanbul, Turkey. It was commissioned by Grand Vizier Sokollu Mehmet Pasha and designed by the imperial architect Mimar Sinan.",09:00 - 18:00,FALSE,,https://upload.wikimedia.org/wikipedia/commons/thumb/7/75/Sokollu_Mehmet_Pasha_Mosque_Azapkapi_7408.jpg/1280px-Sokollu_Mehmet_Pasha_Mosque_Azapkapi_7408.jpg,TRUE,Historical Site,Wikipedia,https://en.wikipedia.org/wiki/Sokollu_Mehmed_Pasha_Mosque_(Azapkapi),2025-12-18,28.9737187,41.0228237
TR-Istanbul-0001,Bozdoğan Kemeri (Valens Su Kemeri),Valens Aqueduct,Historical Site,Ancient Structure,İstanbul,Fatih,Kemalpaşa,"Kemalpaşa Mahallesi, Prof. Dr. Cemil Birsel Caddesi, Fatih, İstanbul",TR-WEST,"Valens Su Kemeri, İstanbul'da bulunan ve Roma İmparatoru Valens tarafından 4. yüzyılda inşa ettirilen su kemeri.","The Valens Aqueduct is a Roman aqueduct in Istanbul, Turkey. Completed by Roman Emperor Valens in the late 4th century AD, it was used to bring water into the Eastern Roman capital of Constantinople.",24/7,FALSE,,https://upload.wikimedia.org/wikipedia/commons/thumb/9/9d/Valens_2012_DK.jpg/2560px-Valens_2012_DK.jpg,TRUE,Archaeological Site,Wikipedia,https://en.wikipedia.org/wiki/Valens_Aqueduct,2025-12-18,28.9668172,41.0171306
TR-Istanbul-0001,Çemberlitaş Sütunu,Column of Constantine,Historical Site,Ancient Monument,İstanbul,Fatih,Çemberlitaş,"Mollafenari, Vezirhan Cd. No:9, 34440 Fatih/İstanbul",TR-WEST,"Çemberlitaş Sütunu, İstanbul'da bulunan ve Roma İmparatoru I. Konstantin tarafından 330 yılında dikilmiş olan bir zafer sütunudur. Şehrin en önemli tarihi yapılarından biridir.","The Column of Constantine is a Roman monumental column erected in 330 AD in Constantinople (present-day Istanbul, Turkey) to commemorate the dedication of the new Roman capital. It is one of the most important historical monuments of the city.",24/7,FALSE,,https://upload.wikimedia.org/wikipedia/commons/thumb/6/6c/Coluna_de_Constantino_01-2.jpg/500px-Coluna_de_Constantino_01-2.jpg,TRUE,Archaeological Site,Wikipedia,https://en.wikipedia.org/wiki/Column_of_Constantine,2025-12-18,28.9711616,41.0093218
TR-Istanbul-0001,Dikilitaş (Theodosius Sütunu),Obelisk of Theodosius,Historical Site,Ancient Monument,İstanbul,Fatih,Sultanahmet,"Sultan Ahmet, Atmeydanı Cd. No:12, 34122 Fatih/İstanbul, Türkiye",TR-WEST,"Dikilitaş, İstanbul'da Sultanahmet Meydanı'nda bulunan ve Mısır Firavunu III. Thutmose tarafından yaptırılan bir dikilitaştır. Roma İmparatoru I. Theodosius tarafından Mısır'dan getirilerek buraya dikilmiştir.","The Obelisk of Theodosius is an ancient Egyptian obelisk in Istanbul, Turkey, located in the Hippodrome of Constantinople (present-day Sultanahmet Square). It was erected in its current location by the Roman emperor Theodosius I in the 4th century AD.",24/7,FALSE,,https://upload.wikimedia.org/wikipedia/commons/thumb/f/f1/Obelisk_of_Theodosius_I.jpg/960px-Obelisk_of_Theodosius_I.jpg,TRUE,Part of the UNESCO World Heritage Site of Istanbul,Wikipedia,https://en.wikipedia.org/wiki/Obelisk_of_Theodosius,2025-12-18,28.974945,41.0061632
TR-Istanbul-0001,Yılanlı Sütun,Serpentine Column,Historical Site,Ancient Monument,İstanbul,Fatih,Sultanahmet,"Sultanahmet Meydanı, Fatih",TR-WEST,"Yılanlı Sütun, İstanbul'da bulunan antik bir sütundur. Bizans döneminde Hipodrom'da yer almıştır. Günümüzde Sultanahmet Meydanı'nda bulunmaktadır.","The Serpentine Column is an ancient bronze column located in Istanbul. It was originally erected in Delphi and later moved to Constantinople (present-day Istanbul) during the Byzantine period. It stands in the Hippodrome of Constantinople, now Sultanahmet Square.",24/7,FALSE,,https://upload.wikimedia.org/wikipedia/commons/thumb/9/92/The_Serpent_Column.jpg/1280px-The_Serpent_Column.jpg,TRUE,Archaeological Site,Wikipedia,https://en.wikipedia.org/wiki/Serpentine_Column,2025-12-18,28.9757051,41.0063286
TR-Istanbul-0001,Alman Çeşmesi,German Fountain,Historical Site,Fountain,İstanbul,Fatih,Sultanahmet,"Sultanahmet Meydanı, Fatih, İstanbul",TR-WEST,"Alman Çeşmesi, İstanbul'da Sultanahmet Meydanı'nda bulunan neo-Bizans tarzında yapılmış bir çeşmedir. II. Wilhelm'in 1898'de İstanbul'u ziyareti anısına yaptırılmıştır.","The German Fountain is a gazebo-styled fountain in the northern end of old hippodrome (now Sultanahmet Square), Istanbul, Turkey and across from the Mausoleum of Sultan Ahmed I. It was constructed to commemorate the second anniversary of German Emperor Wilhelm II's visit to Istanbul in 1898.",24/7,FALSE,,https://upload.wikimedia.org/wikipedia/commons/thumb/c/c2/Istanbul_asv2021-11_img36_German_Fountain.jpg/960px-Istanbul_asv2021-11_img36_German_Fountain.jpg,TRUE,,Wikipedia,https://en.wikipedia.org/wiki/German_Fountain,2025-12-18,28.9757051,41.0063286
TR-Istanbul-0001,III. Ahmet Çeşmesi,Fountain of Ahmed III,Historical Site,Fountain,İstanbul,Fatih,Sultanahmet,"Topkapı Sarayı Girişi, Sultanahmet",TR-WEST,"III. Ahmet Çeşmesi, İstanbul'da, Topkapı Sarayı'nın girişinde yer alan tarihi bir çeşmedir. 18. yüzyıl Osmanlı mimarisinin önemli örneklerindendir.","The Fountain of Ahmed III is a historical fountain located in Istanbul, Turkey, at the entrance to Topkapı Palace. It is an important example of 18th-century Ottoman architecture.",24/7 (exterior),FALSE,,https://upload.wikimedia.org/wikipedia/commons/b/bf/Fountain_of_Ahmed_III_-1.jpg,TRUE,Part of UNESCO World Heritage Site (Historic Areas of Istanbul),Wikipedia,https://en.wikipedia.org/wiki/Fountain_of_Ahmed_III_(Istanbul),2025-12-18,28.9824877,41.0105635
TR-Istanbul-0001,Çemberlitaş Hamamı,Çemberlitaş Hamam,Historical Site,Bath,İstanbul,Fatih,Çemberlitaş,"Vezirhan Caddesi No:8, Çemberlitaş, Fatih, İstanbul",TR-WEST,"Çemberlitaş Hamamı, İstanbul'da bulunan tarihi bir hamamdır. 1584 yılında III. Murad'ın annesi Nurbanu Sultan tarafından Mimar Sinan'a yaptırılmıştır. Günümüzde hala hizmet vermektedir.","The Çemberlitaş Hamam is a historical Turkish bath in Istanbul, Turkey. It was built in 1584 by the Ottoman architect Mimar Sinan for Nurbanu Sultan, the mother of Sultan Murad III. It is still in use today.",11:00 - 23:00,FALSE,http://www.cemberlitashamami.com.tr/,https://upload.wikimedia.org/wikipedia/commons/thumb/4/40/Istanbul_Alley_02.jpg/1280px-Istanbul_Alley_02.jpg,TRUE,Historical Monument,Wikipedia,https://en.wikipedia.org/wiki/%C3%87emberlita%C5%9F_Hamam,2025-12-18,28.9715545,41.0085001
TR-Istanbul-0001,Sent Antuan Kilisesi,St. Anthony of Padua Church,Religious Site,Church,İstanbul,Beyoğlu,Tomtom Mahallesi,"İstiklal Caddesi No:171, 34433 Beyoğlu/İstanbul",TR-WEST,"Sent Antuan Kilisesi, İstanbul'da bulunan en büyük ve en önemli Katolik kilisesidir. İstiklal Caddesi üzerinde yer alır.","St. Anthony of Padua Church, alternatively known as Sent Antuan Kilisesi, is the largest Roman Catholic church in Istanbul, Turkey. It is located on İstiklal Avenue.",08:00 - 19:30,FALSE,http://www.sentantuan.com/,https://upload.wikimedia.org/wikipedia/commons/thumb/d/d1/Istanbul_asv2021-11_img71_StAnthony_of_Padua_Church.jpg/960px-Istanbul_asv2021-11_img71_StAnthony_of_Padua_Church.jpg,FALSE,,Wikipedia,"https://en.wikipedia.org/wiki/St._Anthony_of_Padua_Church,_Istanbul",2025-12-18,28.9768795,41.0301201
TR-Istanbul-0001,Sveti Stefan Kilisesi (Demir Kilise),St. Stephen Church (Iron Church),Historical Site,Church,İstanbul,Fatih,Balat,"Mürselpaşa Caddesi, Balat, Fatih, İstanbul",TR-WEST,"Sveti Stefan Kilisesi, diğer adıyla Demir Kilise, İstanbul'da bulunan Bulgar Ortodoks kilisesidir. Haliç kıyısında, Balat ve Fener semtleri arasında yer alır. Tamamı demirden inşa edildiği için Demir Kilise olarak da anılır.","St. Stephen Church, also known as the Iron Church, is a Bulgarian Orthodox church in Istanbul, Turkey. It is located on the shore of the Golden Horn, between the districts of Balat and Fener. It is also known as the Iron Church because it was built entirely of iron.",09:00 - 17:00,FALSE,http://www.demirklise.org/,https://upload.wikimedia.org/wikipedia/commons/thumb/a/ab/Istanbul_asv2021-11_img13_StStephen_Church.jpg/960px-Istanbul_asv2021-11_img13_StStephen_Church.jpg,FALSE,None,Wikipedia,"https://en.wikipedia.org/wiki/St._Stephen_Church,_Istanbul",2025-12-18,28.9483994,41.0323986
TR-Istanbul-0001,Aya İrini Müzesi,Hagia Irene,Müze,Tarihi Müze,İstanbul,Fatih,Sultanahmet,"Sultanahmet Meydanı, Topkapı Sarayı 1. Avlusu, Fatih, İstanbul",TR-WEST,"Aya İrini, İstanbul'da bulunan tarihi bir müzedir. Bizans döneminde kilise olarak inşa edilmiş, Osmanlı döneminde ise cephanelik olarak kullanılmıştır. Günümüzde müze olarak ziyaretçilere açıktır.","Hagia Irene is a historical museum located in Istanbul. It was built as a church during the Byzantine period and used as an armory during the Ottoman period. Today, it is open to visitors as a museum.",09:00 - 17:00 (Pazartesi kapalı),TRUE,https://muze.gov.tr/muze-detay?SectionId=AYI01&DistId=AY,https://upload.wikimedia.org/wikipedia/commons/thumb/4/42/Hagia_Irene%2C_Istanbul_%2852112279404%29_%28cropped%29.jpg/1280px-Hagia_Irene%2C_Istanbul_%2852112279404%29_%28cropped%29.jpg,TRUE,Tescilli Kültür Varlığı,Wikipedia,https://tr.wikipedia.org/wiki/Aya_%C4%B0rini,2025-12-18,28.9783329,41.0087837
TR-Istanbul-0001,Kırım Kilisesi (Anglikan),Crimean Memorial Church (Anglican),Religious Site,Church,İstanbul,Beyoğlu,Bereketzade,"Bereketzade, Yanıkkapı Sk. No:4, 34421 Beyoğlu/İstanbul",TR-WEST,"Kırım Kilisesi, İstanbul'un Beyoğlu ilçesinde bulunan bir Anglikan kilisesidir. 19. yüzyılda Kırım Savaşı'nda ölen İngiliz askerleri anısına inşa edilmiştir.","The Crimean Memorial Church, also known as Christ Church, is an Anglican church in the Beyoğlu district of Istanbul, Turkey. It was built in the 19th century in memory of British soldiers who died in the Crimean War.",09:00 - 17:00 (Sunday services at 10:30),FALSE,http://www.christchurchistanbul.org/,https://upload.wikimedia.org/wikipedia/commons/thumb/a/ab/Crimea_Memorial_Church_%28K%C4%B1r%C4%B1m_Kilisesi%29_Beyo%C4%9Flu%2C_%C4%B0stanbul_-_Mart_2013.JPG/1280px-Crimea_Memorial_Church_%28K%C4%B1r%C4%B1m_Kilisesi%29_Beyo%C4%9Flu%2C_%C4%B0stanbul_-_Mart_2013.JPG,FALSE,None,Wikipedia,https://en.wikipedia.org/wiki/Crimean_Memorial_Church,2025-12-18,28.9717141,41.0251432
TR-Istanbul-0001,Pierre Loti Tepesi,Pierre Loti Hill,Historical Site,Hill,İstanbul,Eyüpsultan,Eyüp,"Eyüp Sultan, İstanbul",TR-WEST,"Pierre Loti Tepesi, İstanbul'da Haliç'e nazır eşsiz manzarasıyla ünlü bir tepedir. Adını, Fransız yazar Pierre Loti'den almıştır. Tepede kafeler, restoranlar ve tarihi yapılar bulunmaktadır.","Pierre Loti Hill is a hill in Istanbul, Turkey, known for its panoramic view of the Golden Horn. It is named after the French novelist Pierre Loti, who was inspired by the view. The hill features cafes, restaurants, and historical structures.",24/7,FALSE,,https://upload.wikimedia.org/wikipedia/commons/thumb/0/02/Istanbul_-_Pierre_Loti_Cafe_-_01.jpg/1280px-Istanbul_-_Pierre_Loti_Cafe_-_01.jpg,TRUE,Urban Site,Wikipedia,https://en.wikipedia.org/wiki/Pierre_Loti_Hill,2025-12-18,28.8829816,41.1871598
TR-Istanbul-0001,Miniatürk,Miniatürk,Museum,Open Air Museum,İstanbul,Beyoğlu,Örnektepe,"Örnektepe Mahallesi, İmrahor Caddesi, No:7/1, 34445 Beyoğlu/İstanbul",TR-WEST,"Miniatürk, Türkiye'deki çeşitli tarihi ve kültürel yapıların minyatürlerinin sergilendiği bir açık hava müzesidir. İstanbul'da bulunmaktadır.","Miniatürk is an open-air miniature park in Istanbul, Turkey. It contains miniature models of various historical and cultural structures from Turkey and other regions.",09:00 - 19:00,TRUE,http://www.miniaturk.com.tr/,https://upload.wikimedia.org/wikipedia/commons/thumb/c/c5/Miniat%C3%BCrk_genel_g%C3%B6r%C3%BCn%C3%BCm.JPG/1280px-Miniat%C3%BCrk_genel_g%C3%B6r%C3%BCn%C3%BCm.JPG,FALSE,,Wikipedia,https://en.wikipedia.org/wiki/Miniat%C3%BCrk,2025-12-18,28.9489195,41.0589047
TR-İstanbul-0001,İstanbul Arkeoloji Müzeleri,Istanbul Archaeology Museums,Museum,Archaeology Museum,İstanbul,Fatih,Gülhane,"Osman Hamdi Bey Yokuşu, Gülhane",TR-WEST,"İstanbul Arkeoloji Müzeleri, Türkiye'nin İstanbul şehrinde yer alan, Osmanlı İmparatorluğu döneminde çeşitli zamanlarda toplanmış eserlerin sergilendiği müzedir. Türkiye'nin ilk müzesi olma özelliğini taşır.","The Istanbul Archaeology Museums are a group of three museums located in the Eminönü quarter of Istanbul, Turkey, near Gülhane Park and Topkapı Palace. They house a vast collection of artifacts from various cultures and time periods.",09:00 - 17:00,TRUE,https://muze.gov.tr/muze-detay?sectionId=IAR01&distId=IAR,https://upload.wikimedia.org/wikipedia/commons/thumb/7/76/Istanbularcheology.jpg/2560px-Istanbularcheology.jpg,TRUE,Cultural Property,Wikipedia,https://en.wikipedia.org/wiki/Istanbul_Archaeology_Museums,2025-12-18,28.9470422,41.0168639
TR-İstanbul-0001,İstanbul Modern Sanat Müzesi,İstanbul Museum of Modern Art,Museum,Art Museum,İstanbul,Beyoğlu,Asmalımescit,"Asmalımescit, Meşrutiyet Cd. No:99, 34430 Beyoğlu/İstanbul",TR-WEST,"İstanbul Modern, Türkiye'nin ilk modern ve çağdaş sanat müzesidir. 2004 yılında kurulan müze, Karaköy'de denize nazır tarihi bir antrepoda hizmet vermektedir. Müzede, Türkiye'nin önde gelen sanatçılarının resim, heykel, fotoğraf, video ve yeni medya alanlarındaki eserleri sergilenmektedir.","İstanbul Modern is Turkey's first museum of modern and contemporary art. Founded in 2004, the museum is located in a historic warehouse on the waterfront in Karaköy. The museum exhibits paintings, sculptures, photographs, videos, and new media works by leading Turkish artists.","Tuesday-Sunday: 10:00 AM - 6:00 PM, Friday: 10:00 AM - 8:00 PM, Closed on Mondays",TRUE,https://www.istanbulmodern.org/,https://upload.wikimedia.org/wikipedia/commons/thumb/e/ec/Outside_view_of_the_Istanbul_Modern%2C_2022.jpg/1280px-Outside_view_of_the_Istanbul_Modern%2C_2022.jpg,FALSE,,İstanbul Modern Website,https://www.istanbulmodern.org/,2025-12-18,28.973279,41.0299175
TR-İstanbul-0001,İstanbul Deniz Müzesi,Istanbul Naval Museum,Museum,Naval Museum,İstanbul,Beşiktaş,Sinan Paşa,"Sinan Paşa, Beşiktaş Cd. No:6, 34353 Beşiktaş/İstanbul",TR-WEST,"İstanbul Deniz Müzesi, Türkiye'nin en büyük denizcilik müzesidir. Müzede Osmanlı İmparatorluğu ve Türkiye Cumhuriyeti'nin denizcilik tarihine ait eserler sergilenmektedir.","The Istanbul Naval Museum is a naval museum located in Beşiktaş, Istanbul, Turkey. It contains an important collection of Ottoman and Turkish naval artifacts.",09:00 - 17:00 (Closed on Mondays),TRUE,https://denizmuzesi.dzkk.tsk.tr/,https://upload.wikimedia.org/wikipedia/commons/thumb/6/6a/IstanbulNavalMuseum01.JPG/2560px-IstanbulNavalMuseum01.JPG,FALSE,,Wikipedia,https://en.wikipedia.org/wiki/Istanbul_Naval_Museum,2025-12-18,29.0054379,41.0409582
TR-İstanbul-0001,Beth İsrael Sinagogu,Beth Israel Synagogue,Religious Site,Synagogue,İstanbul,Beyoğlu,Şişhane,"Havra Sokağı, No:12, Şişhane, Beyoğlu, İstanbul",TR-WEST,"Beth İsrael Sinagogu, İstanbul'da bulunan ve Türkiye'nin en büyük sinagogu olarak kabul edilen önemli bir Yahudi ibadethanesidir.","Beth Israel Synagogue is a synagogue in Istanbul, Turkey. It is considered the largest synagogue in Turkey.",Please check their website or contact them directly for opening hours.,FALSE,http://www.musevicemaati.com/,https://dynamic-media-cdn.tripadvisor.com/media/photo-o/06/c2/4e/dc/beth-israel-synagogue.jpg?w=1200&h=-1&s=1,FALSE,None,Wikipedia,https://en.wikipedia.org/wiki/Beth_Israel_Synagogue_(Istanbul),2025-12-18,28.9703304,41.0382864
TR-Istanbul-0002,Süleymaniye Camii,Süleymaniye Mosque,Historical Site,Mosque,İstanbul,Fatih,Süleymaniye,"Süleymaniye Mah., Prof. Sıddık Sami Onar Cad. No:13, 34134 Fatih/İstanbul",TR-WEST,"Süleymaniye Camii, İstanbul'da bulunan ve Osmanlı padişahı I. Süleyman adına 1550-1557 yılları arasında Mimar Sinan tarafından inşa edilen camidir. Mimar Sinan'ın İstanbul'daki en önemli eserlerinden biridir.","The Süleymaniye Mosque is an Ottoman imperial mosque located on the Third Hill of Istanbul, Turkey. It is the second largest mosque in the city, and one of the best-known sights of Istanbul.",24/7,FALSE,,https://upload.wikimedia.org/wikipedia/commons/thumb/3/38/S%C3%BCleymaniyeMosqueIstanbul_%28cropped%29.jpg/1280px-S%C3%BCleymaniyeMosqueIstanbul_%28cropped%29.jpg,TRUE,"Part of the UNESCO World Heritage Site ""Historic Areas of Istanbul""",Wikipedia,https://en.wikipedia.org/wiki/Suleymaniye_Mosque,2025-12-18,28.9631285,41.0155069
TR-Istanbul-0005,Yoros Kalesi,Yoros Castle,Historical Site,Castle,İstanbul,Beykoz,Anadolu Kavağı,"Yoros Mevkii, Anadolu Kavağı, Beykoz, İstanbul",TR-WEST,"Yoros Kalesi, İstanbul Boğazı'nın Karadeniz'e açılan noktasında, Anadolu Yakası'nda bulunan tarihi bir kaledir. Cenevizliler tarafından inşa edildiği düşünülen kale, stratejik önemi nedeniyle çeşitli medeniyetler tarafından kullanılmıştır.","Yoros Castle is a historical castle located on the Anatolian side of Istanbul, at the point where the Bosphorus opens to the Black Sea. Believed to have been built by the Genoese, the castle has been used by various civilizations due to its strategic importance.",24/7,FALSE,,https://upload.wikimedia.org/wikipedia/commons/thumb/3/31/Yoros_Kalesi.jpg/1280px-Yoros_Kalesi.jpg,FALSE,Archaeological Site,Wikipedia,https://tr.wikipedia.org/wiki/Yoros_Kalesi,2025-12-18,29.088682,41.173816
TR-Istanbul-0008,Mısır Çarşısı,Spice Bazaar,Historical Site,Bazaar,İstanbul,Fatih,Rüstem Paşa,"Rüstem Paşa Mahallesi, Erzak Ambarı Sok. No:92, 34116 Fatih/İstanbul",TR-WEST,"Mısır Çarşısı, İstanbul'da bulunan tarihi bir çarşıdır. Baharatları, kuruyemişleri, lokumları ve diğer geleneksel ürünleriyle ünlüdür. Eminönü'nde, Yeni Cami'nin yanında yer alır.","The Spice Bazaar (Turkish: Mısır Çarşısı, meaning Egyptian Bazaar) in Istanbul, Turkey is one of the largest bazaars in the city. Located in Eminönü, it is the second largest covered shopping complex after the Grand Bazaar.",08:00 - 19:00 (Everyday),FALSE,,https://upload.wikimedia.org/wikipedia/commons/thumb/6/68/Spice_Bazaar_Istanbul_Feb_2020%2C_img_2.jpg/960px-Spice_Bazaar_Istanbul_Feb_2020%2C_img_2.jpg,TRUE,Historical Bazaar,Wikipedia,https://en.wikipedia.org/wiki/Spice_Bazaar,2025-12-18,28.9709671,41.0161741
TR-Istanbul-0008,Dolmabahçe Saat Kulesi,Dolmabahçe Clock Tower,Historical Site,Clock Tower,İstanbul,Beşiktaş,Vişnezade,"Dolmabahçe Caddesi, Beşiktaş, İstanbul",TR-WEST,"Dolmabahçe Saat Kulesi, İstanbul'da Dolmabahçe Sarayı'nın dış bahçesinde yer alan saat kulesidir. 1890-1895 yılları arasında Sultan II. Abdülhamid tarafından yaptırılmıştır.","The Dolmabahçe Clock Tower is a clock tower situated outside the Dolmabahçe Palace in Istanbul, Turkey. It was ordered by Ottoman Sultan Abdul Hamid II and designed by the court architect Sarkis Balyan between 1890 and 1895.",24/7 (Exterior),FALSE,,https://upload.wikimedia.org/wikipedia/commons/thumb/0/00/Dolmabah%C3%A7e_Palace_%28Dolmabah%C3%A7e_Saray%C4%B1%29%2C_Istanbul%2C_Turkey_%289606766892%29_%282%29.jpg/1280px-Dolmabah%C3%A7e_Palace_%28Dolmabah%C3%A7e_Saray%C4%B1%29%2C_Istanbul%2C_Turkey_%289606766892%29_%282%29.jpg,TRUE,Part of UNESCO World Heritage Site (Historic Areas of Istanbul),Wikipedia,https://en.wikipedia.org/wiki/Dolmabah%C3%A7e_Clock_Tower,2025-12-18,28.9988899,41.0398767
TR-Istanbul-0008,Maslak Kasrı,Maslak Pavilion,Historical Site,Pavilion,İstanbul,Sarıyer,Maslak,"Maslak Mahallesi, Büyükdere Caddesi, No:245, 34398 Sarıyer/İstanbul",TR-WEST,"Maslak Kasırları, İstanbul'un Sarıyer ilçesinde bulunan tarihi kasırlardır. Sultan Abdülaziz döneminde yaptırılmıştır. Günümüzde müze olarak hizmet vermektedir.","Maslak Kasrı (Maslak Pavilions) are historical pavilions located in the Sarıyer district of Istanbul. It was built during the reign of Sultan Abdulaziz. Today, it serves as a museum.",09:00 - 17:00,TRUE,https://muze.gov.tr/muze-detay?SectionId=MSK01&DistId=MSK,https://upload.wikimedia.org/wikipedia/commons/thumb/0/04/Maslak_Kasr%C4%B1.jpg/960px-Maslak_Kasr%C4%B1.jpg,FALSE,Historical Site,Wikipedia,https://tr.wikipedia.org/wiki/Maslak_Kasr%C4%B1,2025-12-18,29.0244436,41.1116019
TR-Istanbul-0008,Aydos Kalesi,Aydos Castle,Historical Site,Castle,İstanbul,Sultanbeyli,Aydos,"Aydos Ormanı, Sultanbeyli, İstanbul",TR-WEST,"Aydos Kalesi, İstanbul'un Sultanbeyli ilçesinde bulunan tarihi bir kaledir. Bizans döneminde inşa edildiği tahmin edilmektedir. Osmanlı İmparatorluğu döneminde de kullanılmıştır.",Aydos Castle is a historical castle located in the Sultanbeyli district of Istanbul. It is estimated to have been built during the Byzantine period. It was also used during the Ottoman Empire.,24/7,FALSE,,https://upload.wikimedia.org/wikipedia/commons/thumb/2/20/DSC_5400_Aydos_harabeleri_-_panoramio.jpg/1280px-DSC_5400_Aydos_harabeleri_-_panoramio.jpg,FALSE,Archaeological Site,Wikipedia,https://tr.wikipedia.org/wiki/Aydos_Kalesi,2025-12-18,29.2645349,40.9503215
TR-Istanbul-0008,Cağaloğlu Hamamı,Cağaloğlu Hamam,Historical Site,Bath,İstanbul,Fatih,Cağaloğlu,"Prof. Kazım İsmail Gürkan Cad. No:34 Cağaloğlu, Fatih, İstanbul",TR-WEST,"Cağaloğlu Hamamı, İstanbul'da bulunan tarihi bir hamamdır. 1741 yılında Sultan I. Mahmut tarafından yaptırılmıştır. İstanbul'un en büyük hamamlarından biridir ve günümüzde hala hizmet vermektedir.","Cağaloğlu Hamam is a historical Turkish bath (hamam) located in Istanbul, Turkey. It was built in 1741 by Sultan Mahmud I. It is one of the largest hamams in Istanbul and is still in operation today.",09:00 - 22:00,FALSE,http://www.cagalogluhamami.com.tr/,https://upload.wikimedia.org/wikipedia/commons/thumb/0/06/Istanbul_Cagaloglu_hamami_entrance.jpg/500px-Istanbul_Cagaloglu_hamami_entrance.jpg,TRUE,Cultural Property,Wikipedia,https://en.wikipedia.org/wiki/Ca%C4%9Falo%C4%9Flu_Hamam,2025-12-18,28.9753116,41.0106091
TR-Istanbul-0032,Ihlamur Kasrı,Ihlamur Pavilion,Historical Site,Pavilion,İstanbul,Beşiktaş,Teşvikiye,"Teşvikiye, Nişantaşı Ihlamur Yolu Sk., 34357 Beşiktaş/İstanbul",TR-WEST,"Ihlamur Kasrı, İstanbul'da, Beşiktaş ile Nişantaşı arasında yer alan, Sultan Abdülmecid tarafından yaptırılan ve sonraki dönemlerde de kullanılan bir kasırdır. Barok ve Osmanlı mimarisinin karışımı bir üsluba sahiptir.","The Ihlamur Pavilion is a former imperial Ottoman residence located in Istanbul, Turkey. It was commissioned by Sultan Abdülmecid and is a blend of Baroque and Ottoman architectural styles.",09:00 - 17:00,TRUE,https://muze.gov.tr/mekanlar/mekan_detay?Dil=en&objectId=KSR_OZL,https://upload.wikimedia.org/wikipedia/commons/a/a8/Ihlamur_Palace_Ceremonial_House_01.jpg,FALSE,Historical Site,Wikipedia,https://tr.wikipedia.org/wiki/%C4%B0hlamur_Kasr%C4%B1,2025-12-18,29.0010042,41.0500937
TR-Istanbul-0032,Aynalıkavak Kasrı,Aynalıkavak Pavilion,Historical Site,Pavilion,İstanbul,Beyoğlu,Hasköy,"Aynalıkavak Cad. Hasköy, Beyoğlu, İstanbul",TR-WEST,"Aynalıkavak Kasrı, İstanbul'da bulunan tarihi bir yapıdır. Osmanlı döneminde inşa edilmiş olup, çeşitli dönemlerde farklı amaçlarla kullanılmıştır. Günümüzde müze olarak hizmet vermektedir.","Aynalıkavak Pavilion is a historical structure located in Istanbul. Built during the Ottoman period, it has been used for various purposes throughout different eras. Today, it serves as a museum.",09:00 - 17:00 (Closed on Mondays),TRUE,https://muze.gov.tr/muze-detay?SectionId=AYK01&DistId=AYK,https://upload.wikimedia.org/wikipedia/commons/thumb/6/60/Istanbul_asv2021-11_img66_Aynal%C4%B1kavak_Pavilion.jpg/1280px-Istanbul_asv2021-11_img66_Aynal%C4%B1kavak_Pavilion.jpg,TRUE,Historical Monument,Wikipedia,https://en.wikipedia.org/wiki/Aynal%C4%B1kavak_Pavilion,2025-12-18,28.9535271,41.0386698
TR-Istanbul-0032,Laleli Camii,Laleli Mosque,Historical Site,Mosque,İstanbul,Fatih,Laleli,"Laleli, Ordu Caddesi, 34130 Fatih/İstanbul",TR-WEST,"Laleli Camii, İstanbul'da bulunan ve Osmanlı İmparatorluğu döneminde inşa edilmiş bir camidir. Barok ve Osmanlı mimarisinin karışımıyla dikkat çeker.","The Laleli Mosque is an Ottoman imperial mosque located in Istanbul, Turkey. It is known for its blend of Baroque and Ottoman architectural styles.",24/7,FALSE,,https://upload.wikimedia.org/wikipedia/commons/thumb/6/63/Istanbul_asv2020-02_img06_Laleli_Mosque.jpg/960px-Istanbul_asv2020-02_img06_Laleli_Mosque.jpg,FALSE,Historical Monument,Wikipedia,https://en.wikipedia.org/wiki/Laleli_Mosque,2025-12-18,28.9583335,41.0095051
TR-Istanbul-0035,Nuruosmaniye Camii,Nuruosmaniye Mosque,Historical Site,Mosque,İstanbul,Fatih,Nuruosmaniye,"Nuruosmaniye, Dr. Tevfik Sağlam Cd. No:1, 34110 Fatih/İstanbul",TR-WEST,"Nuruosmaniye Camii, İstanbul'da bulunan ve Osmanlı Barok mimarisinin önemli örneklerinden biri olan camidir. 18. yüzyılda inşa edilmiştir.","The Nuruosmaniye Mosque is an 18th-century Ottoman mosque located in Istanbul, Turkey. It is considered one of the finest examples of Ottoman Baroque architecture.",24/7,FALSE,,https://upload.wikimedia.org/wikipedia/commons/thumb/7/74/Nuruosmaniye_Camii.jpg/1280px-Nuruosmaniye_Camii.jpg,TRUE,"Part of the UNESCO World Heritage Site ""Historic Areas of Istanbul""",Wikipedia,https://en.wikipedia.org/wiki/Nuruosmaniye_Mosque,2025-12-18,28.8644377,40.990901
TR-Istanbul-0052,Adile Sultan Sarayı,Adile Sultan Palace,Historical Site,Palace,İstanbul,Üsküdar,Kandilli,"Kandilli, Adile Sultan Yalı Yolu No:46, 34684 Üsküdar/İstanbul",TR-WEST,"Adile Sultan Sarayı, İstanbul'un Kandilli semtinde bulunan tarihi bir saraydır. Günümüzde eğitim merkezi ve kültür merkezi olarak kullanılmaktadır.","Adile Sultan Palace is a historical palace located in the Kandilli neighborhood of Istanbul. Today, it is used as an education and cultural center.",09:00 - 17:00,FALSE,http://www.adilesultansarayi.com/,https://upload.wikimedia.org/wikipedia/commons/5/5f/AdileSultanPalace.jpg,FALSE,None,Wikipedia,https://tr.wikipedia.org/wiki/Adile_Sultan_Saray%C4%B1,2025-12-18,29.076647,41.0740054
TR-Istanbul-0052,Pera Müzesi,Pera Museum,Müze,Sanat Müzesi,İstanbul,Beyoğlu,Tepebaşı,"Meşrutiyet Caddesi No:65, 34435 Tepebaşı - Beyoğlu / İstanbul",TR-WEST,"Pera Müzesi, İstanbul'da, Tepebaşı'nda bulunan özel bir müzedir. Suna ve İnan Kıraç Vakfı tarafından 2005 yılında kurulmuştur. Müzede, Oryantalist resimler, Anadolu ağırlık ve ölçüleri, Kütahya çini ve seramikleri koleksiyonları sergilenmektedir.","Pera Museum is a private museum in Istanbul, Turkey, located in the Tepebaşı quarter of the Beyoğlu district. It was established in 2005 by the Suna and İnan Kıraç Foundation. The museum features a collection of Orientalist paintings, Anatolian weights and measures, and Kütahya tiles and ceramics.","Salı-Cumartesi: 10:00-19:00, Pazar: 12:00-18:00, Pazartesi: Kapalı",TRUE,https://peramuzesi.org.tr/,https://upload.wikimedia.org/wikipedia/commons/thumb/5/5b/Pera_M%C3%BCzesi.jpg/250px-Pera_M%C3%BCzesi.jpg,FALSE,,Pera Müzesi Web Sitesi,https://peramuzesi.org.tr/,2025-12-18,28.9751681,41.0318079
TR-Istanbul-0052,Büyük Saray Mozaikleri Müzesi,Great Palace Mosaic Museum,Museum,Mosaic Museum,İstanbul,Fatih,Sultanahmet,"Sultan Ahmet, Kabasakal Sok. No:5, 34122 Fatih/İstanbul",TR-WEST,"Büyük Saray Mozaikleri Müzesi, İstanbul'da, Sultanahmet Meydanı'nda yer alan ve Bizans dönemine ait mozaikleri sergileyen bir müzedir.","The Great Palace Mosaic Museum is located in Istanbul, Turkey, and houses mosaics from the Byzantine period. It is situated in the Arasta Bazaar area near the Sultanahmet Square.",09:00 - 17:00,TRUE,https://muze.gov.tr/muze-detay?SectionId=BMM01&DistId=MRK,https://upload.wikimedia.org/wikipedia/commons/thumb/4/41/Mosaic_museum_Istanbul_2007_021.jpg/1280px-Mosaic_museum_Istanbul_2007_021.jpg,TRUE,Archaeological Site,Wikipedia,https://en.wikipedia.org/wiki/Istanbul_Mosaic_Museum,2025-12-18,28.9789064,41.0063788
TR-Izmir-0001,Efes Antik Kenti,Ephesus Ancient City,Historical Site,Ancient City,İzmir,Selçuk,,"Selçuk, İzmir, Türkiye",TR-WEST,"Efes, Türkiye'nin İzmir ilinde bulunan antik bir Yunan kentidir. İyonya'nın en önemli ticaret merkezlerinden biriydi ve Artemis Tapınağı ile ünlüdür.","Ephesus was an ancient Greek city on the coast of Ionia, now part of Turkey. It was one of the most important trading centers in the Ionian League and was renowned for the Temple of Artemis.","08:00 - 18:30 (Summer), 08:30 - 17:30 (Winter)",TRUE,https://muze.gov.tr/muze-detay?SectionId=EFS01&DistId=EFS,https://upload.wikimedia.org/wikipedia/commons/thumb/8/84/Ephesus_Celsus_Library_Fa%C3%A7ade.jpg/1280px-Ephesus_Celsus_Library_Fa%C3%A7ade.jpg,TRUE,Archaeological Site,Wikipedia,https://en.wikipedia.org/wiki/Ephesus,2025-12-18,27.142826,38.423734
TR-Izmir-0001,Bergama Çok Katmanlı Kültürel Peyzaj Alanı,Bergama Multi-Layered Cultural Landscape Area,Historical Site,Ancient City,İzmir,Bergama,,"Bergama, İzmir, Türkiye",TR-WEST,"Bergama, İzmir ilinde yer alan ve Helenistik, Roma, Doğu Roma ve Osmanlı dönemlerine ait kalıntıları barındıran çok katmanlı bir kültürel peyzaj alanıdır. Antik Pergamon kentini, tapınakları, tiyatroları, kütüphaneleri ve diğer yapıları içerir. 2014 yılında UNESCO Dünya Mirası Listesi'ne dahil edilmiştir.","Bergama is a multi-layered cultural landscape area located in İzmir province, containing ruins from the Hellenistic, Roman, Eastern Roman, and Ottoman periods. It includes the ancient city of Pergamon, temples, theaters, libraries, and other structures. It was inscribed on the UNESCO World Heritage List in 2014.",08:30 - 17:30 (Müze ve ören yerleri),TRUE,https://muze.gov.tr/muze-detay?SectionId=PRG01&DistId=PRG,https://upload.wikimedia.org/wikipedia/commons/thumb/4/41/Acropolis_-_Bergama_%28Pergamon%29_-_Turkey_-_10_%285747249729%29.jpg/1280px-Acropolis_-_Bergama_%28Pergamon%29_-_Turkey_-_10_%285747249729%29.jpg,TRUE,UNESCO World Heritage Site,Wikipedia,https://en.wikipedia.org/wiki/Pergamon,2025-12-18,27.179913,39.121449
TR-Izmir-0001,İzmir Agorası,Agora of Smyrna,Historical Site,Ancient City,İzmir,Konak,Namazgah,"Agora Ören Yeri, Namazgah, 35230 Konak/İzmir",TR-WEST,"İzmir Agorası, Smyrna antik kentinin günümüze ulaşan önemli kalıntılarından biridir. Roma döneminde inşa edilmiş olan bu agora, antik kentin ticari, siyasi ve dini merkeziydi.","The Agora of Smyrna is an ancient Roman agora located in İzmir, Turkey. It was the commercial, judicial and political nucleus of the ancient city.",08:30 - 17:30,TRUE,https://muze.gov.tr/muze-detay?SectionId=AGR01&DistId=AGR,,FALSE,Archaeological Site,Wikipedia,https://en.wikipedia.org/wiki/Agora_of_Smyrna,2025-12-18,27.1384233,38.4197774
TR-Izmir-0001,Kemeraltı Tarihi Çarşısı,Kemeraltı Bazaar,Historical Site,Bazaar,İzmir,Konak,Kemeraltı,"Konak, İzmir, Türkiye",TR-WEST,"Kemeraltı Çarşısı, İzmir'de Konak ilçesinde bulunan tarihi bir çarşıdır. 17. yüzyılda deniz kenarına kurulmaya başlanmış ve zamanla büyüyerek günümüzdeki halini almıştır. Çarşı, geleneksel el sanatları ürünlerinden, giyim eşyasına, gıdadan, baharata kadar çok çeşitli ürünlerin satıldığı dükkanlara ev sahipliği yapmaktadır. Ayrıca, tarihi hanlar, camiler, sinagoglar ve çeşmeler de çarşı içinde bulunmaktadır.","Kemeraltı Bazaar is a historical bazaar located in the Konak district of İzmir, Turkey. It was founded in the 17th century by the sea and has grown over time to its present state. The bazaar is home to shops selling a wide variety of products, from traditional handicrafts to clothing, food, and spices. There are also historical caravanserais, mosques, synagogues and fountains in the bazaar.",24/7,FALSE,,,TRUE,Urban Site,Wikipedia,https://tr.wikipedia.org/wiki/Kemeralt%C4%B1_%C3%87ar%C5%9F%C4%B1s%C4%B1,2025-12-18,27.1322899,38.4181783
TR-Izmir-0001,Birgi Tarihi Kenti,Historical City of Birgi,Historical Site,Historical Town,İzmir,Ödemiş,Birgi,"Birgi Mahallesi, Ödemiş, İzmir, Türkiye",TR-WEST,"Birgi, İzmir'in Ödemiş ilçesine bağlı tarihi bir mahalledir. Tarihi dokusu ve doğal güzellikleriyle ünlüdür. Birgi, Aydınoğulları Beyliği'ne başkentlik yapmıştır ve birçok tarihi eseri barındırmaktadır.",Birgi is a historical neighborhood in the Ödemiş district of İzmir. It is famous for its historical texture and natural beauties. Birgi was the capital of the Aydınoğulları Principality and houses many historical artifacts.,24/7 (Exterior viewing),FALSE,,,TRUE,Archaeological Site,Wikipedia,https://tr.wikipedia.org/wiki/Birgi,2025-12-18,27.974842,38.228296
TR-Izmir-0001,Kadifekale,Kadifekale,Historical Site,Castle,İzmir,Konak,Kadifekale,"Kadifekale, İzmir",TR-WEST,"Kadifekale, İzmir şehir merkezine hakim bir tepede yer alan tarihi bir kaledir. MÖ 3. yüzyılda Büyük İskender'in generallerinden Lysimakhos tarafından yaptırılmıştır. Kale, Bizans ve Osmanlı dönemlerinde de kullanılmıştır.","Kadifekale is a historical castle located on a hill overlooking the city center of İzmir. It was built in the 3rd century BC by Lysimachus, one of the generals of Alexander the Great. The castle was also used during the Byzantine and Ottoman periods.",24/7,FALSE,,,FALSE,Archaeological Site,Wikipedia,https://en.wikipedia.org/wiki/Kadifekale,2025-12-18,27.1463285,38.4145398
TR-Izmir-0001,Çeşme Kalesi,Çeşme Castle,Historical Site,Castle,İzmir,Çeşme,Çarşı,"Çeşme, 35930 Çeşme/İzmir, Türkiye",TR-WEST,"Çeşme Kalesi, İzmir'in Çeşme ilçesinde yer alan tarihî bir kaledir. 1508 yılında II. Bayezid tarafından yaptırılmıştır. Kale, günümüzde müze olarak hizmet vermektedir.","Çeşme Castle is a historical castle located in Çeşme, İzmir. It was built in 1508 by Bayezid II. The castle serves as a museum today.",08:30 - 17:30,TRUE,https://www.muze.gov.tr/muze-detay?SectionId=CES01&DistId=CES,,FALSE,Cultural Property,Wikipedia,https://en.wikipedia.org/wiki/%C3%87e%C5%9Fme_Castle,2025-12-18,26.3064777,38.3256675
TR-Izmir-0001,İzmir Atatürk Müzesi,İzmir Atatürk Museum,Museum,History Museum,İzmir,Konak,Alsancak,"Atatürk Caddesi No:11, 35210 Alsancak - Konak / İzmir",TR-WEST,"İzmir Atatürk Müzesi, Mustafa Kemal Atatürk'ün İzmir'i ziyaretlerinde konakladığı ve bir süre kullandığı evdir. Günümüzde müze olarak hizmet vermektedir.",İzmir Atatürk Museum is the house where Mustafa Kemal Atatürk stayed and used for a while during his visits to İzmir. Today it serves as a museum.,08:30 - 17:30 (Closed on Mondays),TRUE,https://muze.gov.tr/muze-detay?SectionId=IZM01&DistId=IZM,,FALSE,Museum,"Wikipedia, Muze.gov.tr","https://tr.wikipedia.org/wiki/%C4%B0zmir_Atat%C3%BCrk_M%C3%BCzesi, https://muze.gov.tr/muze-detay?SectionId=IZM01&DistId=IZM",2025-12-18,27.13381,38.428457
TR-Izmir-0001,Arkas Sanat Merkezi,Arkas Art Center,Museum,Art Museum,İzmir,Konak,Alsancak,"1380 Sokak No:1 Alsancak, İzmir",TR-WEST,"Arkas Sanat Merkezi, İzmir'de bulunan bir sanat müzesidir. Özellikle resim ve heykel sergilerine ev sahipliği yapmaktadır.",Arkas Art Center is an art museum located in İzmir. It mainly hosts painting and sculpture exhibitions.,"Tuesday-Sunday: 10:00 - 18:00, Closed on Mondays",TRUE,http://www.arkassanatmerkezi.com/,,FALSE,,Arkas Sanat Merkezi Official Website,http://www.arkassanatmerkezi.com/,2025-12-18,27.138283,38.431735
TR-Izmir-0001,Key Museum (Torbalı Otomobil Müzesi),Key Museum (Torbalı Automobile Museum),Museum,Automobile Museum,İzmir,Torbalı,Özbey,"Özbey Mahallesi, İzmir Aydın Asfaltı No:115, 35860 Torbalı/İzmir",TR-WEST,"Key Museum, İzmir'in Torbalı ilçesinde bulunan ve klasik otomobiller ile çeşitli antika eşyaların sergilendiği bir müzedir.","Key Museum is an automobile museum located in Torbalı, İzmir, Turkey, exhibiting classic automobiles and various antiques.",10:00 - 17:00 (Closed on Mondays),TRUE,http://www.keymuseum.com/,,FALSE,,Wikipedia,https://en.wikipedia.org/wiki/Key_Museum,2025-12-18,27.363269,38.158727
TR-Izmir-0001,Hisar Camii,Hisar Mosque,Historical Site,Mosque,İzmir,Konak,Hisarönü,"Kemeraltı Çarşısı, Hisarönü, Konak, İzmir",TR-WEST,"Hisar Camii, İzmir'in Konak ilçesinde bulunan tarihi bir camidir. İzmir'in en büyük ve en eski camisidir.","Hisar Mosque is a historical mosque in İzmir, Turkey. It is the largest and one of the oldest mosques in İzmir.",24/7,FALSE,,,FALSE,Cultural Property,Wikipedia,https://en.wikipedia.org/wiki/Hisar_Mosque,2025-12-18,27.1323,38.4224
TR-Izmir-0001,Aziz Polikarp Kilisesi,Saint Polycarp Church,Historical Site,Church,İzmir,Konak,Alsancak,"Necatibey Bulvarı No:69, 35210 Konak/İzmir",TR-WEST,"Aziz Polikarp Kilisesi, İzmir'de bulunan en eski kiliselerden biridir. 1625 yılında inşa edilmiştir ve İzmir'in koruyucu azizi olan Aziz Polikarp'a adanmıştır.","Saint Polycarp Church is the oldest church in İzmir. It was built in 1625 and is dedicated to Saint Polycarp, the patron saint of İzmir.",08:00 - 17:00,FALSE,,,FALSE,Cultural Property,Wikipedia,https://en.wikipedia.org/wiki/Saint_Polycarp_Church,2025-12-18,27.137266,38.424135
TR-Izmir-0001,Dario Moreno Sokağı,Dario Moreno Street,Historical Site,Street,İzmir,Konak,Karataş,"Asansör, Dario Moreno Sokağı, Karataş, İzmir",TR-WEST,"Dario Moreno Sokağı, İzmir'in tarihi semti Asansör'de yer alan, ünlü şarkıcı Dario Moreno'nun adını taşıyan pitoresk bir sokaktır. Arnavut kaldırımlı sokak, geleneksel İzmir evleri, küçük dükkanlar ve kafelerle çevrilidir.","Dario Moreno Street is a picturesque street in the historical Asansör district of İzmir, named after the famous singer Dario Moreno. The cobblestone street is surrounded by traditional İzmir houses, small shops and cafes.",24/7,FALSE,,,FALSE,,Wikipedia,https://tr.wikipedia.org/wiki/Dario_Moreno_Soka%C4%9F%C4%B1,2025-12-18,27.1176455,38.4086587
TR-Izmir-0001,Truva Atı (Kordon),Trojan Horse (Kordon),Sanat,Heykel,İzmir,Konak,Alsancak,"Alsancak, İzmir Kordonboyu",TR-WEST,"İzmir Kordon'da bulunan Truva Atı heykeli, Homeros'un İlyada destanında yer alan ünlü Truva Atı'nın bir replikasıdır. Heykel, İzmir Büyükşehir Belediyesi tarafından yaptırılmıştır ve şehrin sembollerinden biri haline gelmiştir.",The Trojan Horse statue located in İzmir Kordon is a replica of the famous Trojan Horse in Homer's Iliad. The statue was commissioned by İzmir Metropolitan Municipality and has become one of the symbols of the city.,24/7,FALSE,,,FALSE,,Wikipedia,https://tr.wikipedia.org/wiki/%C4%B0zmir_Truva_At%C4%B1,2025-12-18,27.142826,38.423734
TR-İzmir-0001,İzmir Tarihi Asansör,İzmir Historical Elevator,Historical Site,Historical Building,İzmir,Konak,Turgut Reis,"Turgut Reis, Şht. Nihatbey Cd. No:76, 35240 Konak/İzmir",TR-WEST,"İzmir Tarihi Asansör, İzmir'in Karataş semtinde, Mithatpaşa Caddesi ile Halil Rıfat Paşa Caddesi arasında bulunan, 1907 yılında Musevi iş insanı Nesim Levi tarafından yaptırılan asansördür. Amacı, iki cadde arasındaki 58 metrelik yükseklik farkını aşmaktır.","The İzmir Historical Elevator, located in the Karataş neighborhood of İzmir, between Mithatpaşa Street and Halil Rıfat Paşa Street, is an elevator built in 1907 by Jewish businessman Nesim Levi. Its purpose is to overcome the 58-meter height difference between the two streets.",08:00 - 00:00,FALSE,,,FALSE,Cultural Property,Wikipedia,https://tr.wikipedia.org/wiki/%C4%B0zmir_Tarihi_Asans%C3%B6r%C3%BC,2025-12-18,27.117608,38.4086049
TR-İzmir-0001,İzmir Tarih ve Sanat Müzesi,İzmir History and Art Museum,Museum,History Museum,İzmir,Konak,Kültür Mahallesi,"Kültürpark İçi, 35260 Konak/İzmir",TR-WEST,"İzmir Tarih ve Sanat Müzesi, İzmir'de bulunan bir müzedir. Müzede taş eserler, seramik eserler, sikkeler ve değerli eşyalar sergilenmektedir.","İzmir History and Art Museum is a museum located in İzmir. Stone artifacts, ceramic artifacts, coins and valuables are exhibited in the museum.",08:30 - 17:30,TRUE,https://www.izmir.ktb.gov.tr/,,FALSE,,Wikipedia,https://tr.wikipedia.org/wiki/%C4%B0zmir_Tarih_ve_Sanat_M%C3%BCzesi,2025-12-18,27.1332771,38.4142877
TR-Izmir-0005,Şirince Köyü,Şirince Village,Historical Site,Village,İzmir,Selçuk,Şirince,"Şirince Köyü, Selçuk, İzmir, Türkiye",TR-WEST,"Şirince, İzmir'in Selçuk ilçesine bağlı, tarihi evleri ve şaraplarıyla ünlü bir köydür. Özellikle taş sokakları, geleneksel mimarisi ve doğal güzellikleriyle ziyaretçilerini cezbeder.","Şirince is a village in Selçuk, İzmir, Turkey, known for its historical houses and wines. It attracts visitors with its stone streets, traditional architecture, and natural beauty.",24/7 (Village itself); Shops and restaurants vary,FALSE,,,FALSE,Urban Protected Area,Wikipedia,https://tr.wikipedia.org/wiki/%C5%9Eirince,2025-12-18,27.369954,37.950845
TR-Izmir-0008,Klazomenai Antik Kenti,Klazomenai Ancient City,Historical Site,Ancient City,İzmir,Urla,Zeytinalanı,"Zeytinalanı Mahallesi, Urla, İzmir, Türkiye",TR-WEST,"Klazomenai, İzmir'in Urla ilçesi yakınlarında bulunan antik bir İyon kentidir. Zeytinyağı işlikleri ve seramik üretimi ile ünlüydü.","Klazomenai was an ancient Ionian city located near Urla, İzmir. It was famous for its olive oil workshops and ceramic production.",24/7,FALSE,,,FALSE,Archaeological Site,Wikipedia,https://tr.wikipedia.org/wiki/Klazomenai,2025-12-18,26.842442,38.3658532
TR-Izmir-0008,Uşakizade Köşkü (Latife Hanım Köşkü),Uşakizade Mansion (Latife Hanım Mansion),Historical Site,Mansion,İzmir,Konak,Göztepe,"Göztepe, İzmir, Türkiye",TR-WEST,"Uşakizade Köşkü, İzmir'in Göztepe semtinde bulunan tarihi bir köşk olup, Mustafa Kemal Atatürk'ün eşi Latife Hanım'ın ailesine aittir. Bir dönem Atatürk'ün de ikamet ettiği köşk, günümüzde müze olarak hizmet vermektedir.","Uşakizade Mansion, located in the Göztepe district of İzmir, is a historical mansion that belonged to the family of Latife Hanım, the wife of Mustafa Kemal Atatürk. The mansion, where Atatürk also resided for a period, now serves as a museum.",09:00 - 17:00 (Closed on Mondays),TRUE,http://www.latifehanimkosku.gov.tr/ (Official Website - may not be active),,FALSE,Cultural Property,Wikipedia,https://tr.wikipedia.org/wiki/U%C5%9Fakizade_K%C3%B6%C5%9Fk%C3%BC,2025-12-18,27.142826,38.423734
TR-Izmir-0008,Urla Sanat Sokağı,Urla Art Street,Cultural,Street,İzmir,Urla,Urla Merkez,"Urla Sanat Sokağı, Urla, İzmir, Türkiye",TR-WEST,"Urla Sanat Sokağı, İzmir'in Urla ilçesinde yer alan ve çeşitli sanat galerileri, atölyeler ve butiklerin bulunduğu bir sokaktır. Sokak, özellikle hafta sonları canlı müzik performansları ve çeşitli etkinliklere ev sahipliği yapmaktadır.","Urla Art Street is a street located in Urla district of İzmir, featuring various art galleries, workshops and boutiques. The street hosts live music performances and various events, especially on weekends.",24/7,FALSE,,,FALSE,,Foursquare,https://foursquare.com/v/%C3%BCrla-sanat-soka%C4%9F%C4%B1/4bd96215a163c9b668a16743,2025-12-18,26.7527927,38.324029
TR-Izmir-0008,Çandarlı Kalesi,Çandarlı Castle,Historical Site,Castle,İzmir,Dikili,Çandarlı,"Çandarlı Mahallesi, Kale İçi, Dikili, İzmir, Türkiye",TR-WEST,"Çandarlı Kalesi, İzmir'in Dikili ilçesine bağlı Çandarlı beldesinde bulunan tarihi bir kaledir. Cenevizliler tarafından yapıldığı tahmin edilen kale, Osmanlı döneminde Çandarlı Halil Paşa tarafından restore edilmiştir.","Çandarlı Castle is a historical castle located in Çandarlı, a town in the Dikili district of İzmir. The castle, believed to have been built by the Genoese, was restored by Çandarlı Halil Pasha during the Ottoman period.",24/7,FALSE,,,FALSE,Archaeological Site,Wikipedia,https://tr.wikipedia.org/wiki/%C3%87andarl%C4%B1_Kalesi,2025-12-18,26.9342015,38.9342006
TR-Izmir-0008,Foça Beşkapılar Kalesi,Foça Beşkapılar Castle,Historical Site,Castle,İzmir,Foça,Atatürk,"Atatürk Mahallesi, Kale Caddesi, No: 2, Foça, İzmir",TR-WEST,"Foça Beşkapılar Kalesi, İzmir'in Foça ilçesinde bulunan tarihi bir kaledir. Osmanlı döneminde inşa edilmiştir ve günümüzde restore edilerek turizme kazandırılmıştır.",Foça Beşkapılar Castle is a historical castle located in Foça district of İzmir. It was built during the Ottoman period and has been restored and opened to tourism today.,08:00 - 17:00,FALSE,,,FALSE,Archaeological Site,Wikipedia,https://tr.wikipedia.org/wiki/Be%C5%9Fkap%C4%B1lar_Kalesi,2025-12-18,26.836653,38.7325861
TR-Izmir-0008,Siren Kayalıkları,Siren Rocks,Natural,Rock Formation,İzmir,Foça,,,TR-WEST,"Siren Kayalıkları, İzmir'in Foça ilçesi açıklarında bulunan, mitolojik öneme sahip kayalık bir adacıktır. Efsaneye göre, Sirenler burada denizcileri şarkılarıyla cezbederek gemilerini batırmışlardır.","The Siren Rocks are a rocky islet located off the coast of Foça, İzmir, with mythological significance. According to legend, Sirens lured sailors here with their songs, causing their ships to sink.",24/7,FALSE,,,FALSE,Natural Site,Wikipedia,https://tr.wikipedia.org/wiki/Siren_Kayal%C4%B1klar%C4%B1,2025-12-18,26.7548675,38.6684502
TR-İzmir-0008,Köstem Zeytinyağı Müzesi,Köstem Olive Oil Museum,Museum,Specialty Museum,İzmir,Urla,Kuşçular Köyü,"Kuşçular Köyü, 8036. Sk. No:12, 35430 Urla/İzmir, Türkiye",TR-WEST,"Köstem Zeytinyağı Müzesi, İzmir'in Urla ilçesinde bulunan ve zeytinyağı üretiminin tarihini ve yöntemlerini sergileyen bir müzedir.","Köstem Olive Oil Museum is a museum located in Urla, İzmir, Turkey, exhibiting the history and methods of olive oil production.",10:00 - 18:00 (Closed on Mondays),TRUE,http://www.kostemzeytinyagimuzesi.org/,,FALSE,,Wikipedia,https://tr.wikipedia.org/wiki/K%C3%B6stem_Zeytinya%C4%9F%C4%B1_M%C3%BCzesi,2025-12-18,26.750716,38.281687
TR-Izmir-0012,Teos Antik Kenti,Teos Ancient City,Historical Site,Ancient City,İzmir,Seferihisar,Sığacık,"Sığacık, Seferihisar, İzmir, Türkiye",TR-WEST,"Teos, İzmir'in Seferihisar ilçesi sınırları içinde yer alan antik bir İyon kentidir. MÖ 1000'li yıllarda kurulmuştur ve şarap tanrısı Dionysos'un en önemli kült merkezlerinden biri olmuştur.","Teos was an ancient Greek city located in what is now Seferihisar, İzmir, Turkey. It was founded around 1000 BC and was one of the twelve cities of the Ionian League. Teos was known as a center for the cult of Dionysus, the god of wine.",24/7,FALSE,,,FALSE,Archaeological Site,Wikipedia,https://tr.wikipedia.org/wiki/Teos,2025-12-18,26.834402,38.19515
TR-Izmir-0012,Metropolis Antik Kenti,Metropolis Ancient City,Historical Site,Ancient City,İzmir,Torbalı,Yeniköy,"Yeniköy Mahallesi, Torbalı, İzmir, Türkiye",TR-WEST,"Metropolis, İzmir'in Torbalı ilçesinde yer alan antik bir kenttir. MÖ 3. binyıla kadar uzanan bir geçmişe sahip olan kent, Helenistik, Roma ve Bizans dönemlerinde önemli bir yerleşim yeri olmuştur. Kazılarda ortaya çıkarılan yapılar arasında tiyatro, hamam, agora ve konutlar bulunmaktadır.","Metropolis is an ancient city located in the Torbalı district of İzmir. With a history dating back to the 3rd millennium BC, the city was an important settlement in the Hellenistic, Roman, and Byzantine periods. Structures uncovered during excavations include a theater, bath, agora, and residences.",08:30 - 17:30,TRUE,https://www.metropoliskazisi.com/,,FALSE,Archaeological Site,Wikipedia,https://tr.wikipedia.org/wiki/Metropolis_(antik_kent),2025-12-18,27.3272029,38.121238
TR-Izmir-0012,Erythrai Antik Kenti,Erythrai Ancient City,Historical Site,Ancient City,İzmir,Çeşme,Ildırı,"Ildırı, Çeşme, İzmir, Türkiye",TR-WEST,"Erythrai, İyonya bölgesinde yer alan önemli antik kentlerden biridir. Günümüzde İzmir'in Çeşme ilçesine bağlı Ildırı köyünde bulunmaktadır. Kent, özellikle MÖ 6. yüzyılda büyük bir gelişme göstermiştir ve o dönemde önemli bir ticaret merkezi olmuştur. Erythrai, kehanetleriyle ünlüydü ve Sibyl adındaki kahinesiyle tanınırdı.","Erythrai was one of the important ancient cities in the Ionia region. Today, it is located in the Ildırı village of Çeşme district of İzmir. The city developed greatly, especially in the 6th century BC, and was an important trade center at that time. Erythrai was famous for its prophecies and was known for its priestess named Sibyl.",08:30 - 17:30,TRUE,https://muze.gov.tr/muze-detay?SectionId=ERY01&DistId=ERY,,FALSE,Archaeological Site,Wikipedia,https://tr.wikipedia.org/wiki/Erythrai,2025-12-18,26.477091,38.383412
TR-Izmir-0012,İnciraltı Deniz Müzesi,İnciraltı Maritime Museum,Museum,Maritime Museum,İzmir,Balçova,İnciraltı,"İnciraltı, Mustafa Kemal Sahil Blv. No:176, 35340 Balçova/İzmir",TR-WEST,"İnciraltı Deniz Müzesi, Türkiye'nin İzmir şehrinde bulunan bir denizcilik müzesidir. Müzede, Türk Deniz Kuvvetleri'ne ait çeşitli gemi ve denizaltılar sergilenmektedir.","İnciraltı Maritime Museum is a maritime museum located in İzmir, Turkey. The museum exhibits various ships and submarines belonging to the Turkish Naval Forces.",10:00 - 17:00 (Closed on Mondays),TRUE,,,FALSE,,Wikipedia,https://tr.wikipedia.org/wiki/%C4%B0nciralt%C4%B1_Deniz_M%C3%BCzesi,2025-12-18,27.0075454,38.3979497
TR-Izmir-0015,Notion Antik Kenti,Notion Ancient City,Historical Site,Ancient City,İzmir,Menderes,Ahmetbeyli,"Ahmetbeyli, Menderes/İzmir, Türkiye",TR-WEST,"Notion, Kolophon ve Klaros arasında yer alan antik bir kenttir. Kentin kalıntıları günümüzde Ahmetbeyli beldesinde bulunmaktadır. Helenistik, Roma ve Bizans dönemlerinde yerleşim görmüştür.","Notion was an ancient city located between Kolophon and Klaros. The ruins of the city are located in the present-day Ahmetbeyli. It was inhabited during the Hellenistic, Roman, and Byzantine periods.",24/7,FALSE,,,FALSE,Archaeological Site,Wikipedia,https://tr.wikipedia.org/wiki/Notion,2025-12-18,27.185294,38.0174475
TR-Izmir-0015,Lebedos Antik Kenti,Lebedos Ancient City,Historical Site,Ancient City,İzmir,Menderes,Ürkmez,"Ürkmez, Menderes, İzmir, Türkiye",TR-WEST,"Lebedos, İzmir'in Menderes ilçesinde bulunan antik bir İyon kentidir. MÖ 11. yüzyılda kurulduğu tahmin edilmektedir. Kent, şarap tanrısı Dionysos'a adanmış tapınağıyla bilinirdi.","Lebedos was one of the twelve cities of the Ionian League, located on the coast of Asia Minor. It was situated south of Smyrna, about 12 miles (19 km) west of Colophon. It is now located near the town of Ürkmez in the Menderes district of İzmir Province, Turkey.",24/7,FALSE,,,FALSE,Archaeological Site,Wikipedia,https://en.wikipedia.org/wiki/Lebedos,2025-12-18,27.1329495,38.2518012
TR-Izmir-0025,Klaros Bilicilik Merkezi,Klaros Oracle Center,Historical Site,Ancient City,İzmir,Menderes,Ahmetbeyli,"Ahmetbeyli, Menderes, İzmir, Türkiye",TR-WEST,"Klaros, İzmir'in Menderes ilçesinde bulunan antik bir kehanet merkezidir. Apollon Klaros Tapınağı ve diğer yapıları içerir.",Klaros is an ancient sanctuary and oracle center located in the Menderes district of İzmir. It includes the Temple of Apollo Klaros and other structures.,"08:30 - 17:30 (Summer Season), 08:30 - 17:00 (Winter Season)",TRUE,https://muze.gov.tr/muze-detay?SectionId=KLR01&DistId=KLR,,FALSE,Archaeological Site,Wikipedia,https://en.wikipedia.org/wiki/Klaros,2025-12-18,27.185294,38.0174475
TR-Karabuk-0001,Safranbolu Tarihi Kenti,Historic City of Safranbolu,Historical Site,Historic Town,Karabük,Safranbolu,,,TR-WEST,"Safranbolu, Osmanlı döneminden kalma tarihi evleri ve şehir planlaması ile ünlü bir Türk şehridir. UNESCO Dünya Mirası Listesi'nde yer almaktadır.",Safranbolu is a Turkish town known for its Ottoman-era houses and urban planning. It is a UNESCO World Heritage Site.,24/7 (Exterior),FALSE,https://whc.unesco.org/en/list/614/,,TRUE,Urban Site,Wikipedia,https://en.wikipedia.org/wiki/Safranbolu,2025-12-18,32.683128,41.249306
TR-Karabuk-0001,Kuşkayası Yol Anıtı,Kuşkayası Road Monument,Historical Site,Ancient Monument,Karabük,Eskipazar,,"Eskipazar, Karabük, Türkiye",TR-WEST,"Kuşkayası Yol Anıtı, Karabük'ün Eskipazar ilçesinde bulunan, Roma dönemine ait bir yol anıtıdır. MS 1. yüzyılda yapıldığı tahmin edilmektedir. Anıt, kayaya oyulmuş insan figürleri ve Latince yazıtlar içermektedir. Yol yapımını ve İmparator Claudius'a bağlılığı simgelemektedir.",Kuşkayası Road Monument is a Roman-era road monument located in the Eskipazar district of Karabük. It is estimated to have been built in the 1st century AD. The monument contains human figures carved into the rock and Latin inscriptions. It symbolizes road construction and loyalty to Emperor Claudius.,24/7,FALSE,,,FALSE,Archaeological Site,Wikipedia,https://tr.wikipedia.org/wiki/Ku%C5%9Fkayas%C4%B1_Yol_An%C4%B1t%C4%B1,2025-12-18,32.5322,40.9445
TR-Karabuk-0001,Yörük Köyü,Yoruk Village,Historical Site,Village,Karabük,Safranbolu,Yörük Köyü,"Yörük Köyü, Safranbolu, Karabük, Türkiye",TR-WEST,"Yörük Köyü, Safranbolu'ya bağlı, tarihi dokusu korunmuş bir köydür. Köyde Osmanlı döneminden kalma birçok ev, cami ve çamaşırhane bulunmaktadır. Özellikle Sipahioğlu Konağı Müzesi ve köyün otantik atmosferi ziyaretçilerin ilgisini çekmektedir.","Yoruk Village is a historical village connected to Safranbolu, where its historical texture has been preserved. The village has many houses, mosques and laundry rooms from the Ottoman period. Especially the Sipahioğlu Mansion Museum and the authentic atmosphere of the village attract the attention of visitors.",24/7 (köyün kendisi),FALSE,,,TRUE,Cultural Heritage Site,Wikipedia,https://tr.wikipedia.org/wiki/Y%C3%B6r%C3%BCk_K%C3%B6y%C3%BC,2025-12-18,32.7988595,41.2225994
TR-Kırklareli-0001,Dupnisa Mağarası,Dupnisa Cave,Natural,Cave,Kırklareli,Demirköy,Sarpdere,"Sarpdere Köyü, Demirköy, Kırklareli",TR-WEST,"Dupnisa Mağarası, Kırklareli'nin Demirköy ilçesinde bulunan, yeraltı deresi ve gölleriyle ünlü bir mağaradır. İçerisinde sarkıtlar, dikitler ve sütunlar bulunur. Turizme açık olan mağara, özellikle doğa severler tarafından ziyaret edilmektedir.","Dupnisa Cave is a cave located in the Demirköy district of Kırklareli, Turkey, famous for its underground stream and lakes. It contains stalactites, stalagmites and columns. The cave, which is open to tourism, is especially visited by nature lovers.",09:00 - 17:00 (Yaz Sezonu),TRUE,,,FALSE,Natural Monument,Wikipedia,https://tr.wikipedia.org/wiki/Dupnisa_Ma%C4%9Faras%C4%B1,2025-12-18,27.587961,41.866008
TR-Kırklareli-0001,Vize Antik Tiyatrosu,Vize Ancient Theatre,Historical Site,Ancient Theatre,Kırklareli,Vize,Cumhuriyet,"Cumhuriyet Mahallesi, Kale Sokak, Vize, Kırklareli",TR-WEST,"Vize Antik Tiyatrosu, Kırklareli'nin Vize ilçesinde bulunan ve Roma dönemine ait olan bir antik tiyatrodur. Türkiye'deki Trakya bölgesinde bulunan tek antik tiyatrodur.",The Vize Ancient Theatre is a Roman-era theatre located in the Vize district of Kırklareli. It is the only ancient theatre found in the Thracian region of Turkey.,"08:00 - 17:00 (Winter), 08:00 - 19:00 (Summer)",TRUE,https://muze.gov.tr/muze-detay?SectionId=KLK01&DistId=KLK,,FALSE,Archaeological Site,Wikipedia,https://tr.wikipedia.org/wiki/Vize_Antik_Tiyatrosu,2025-12-18,27.844502,41.6692648
TR-Kırklareli-0001,İğneada Longoz Ormanları Milli Parkı,İğneada Floodplain Forests National Park,Natural,National Park,Kırklareli,Demirköy,İğneada,"İğneada, Demirköy, Kırklareli, Türkiye",TR-WEST,"İğneada Longoz Ormanları Milli Parkı, Türkiye'nin Kırklareli ilinde bulunan ve longoz (su basar) ormanlarını içeren bir milli parktır. Zengin bitki ve hayvan çeşitliliğine sahiptir.","İğneada Floodplain Forests National Park is a national park located in Kırklareli Province, Turkey, featuring floodplain forests. It is known for its rich biodiversity.",24/7,FALSE,,,FALSE,National Park,Wikipedia,https://tr.wikipedia.org/wiki/%C4%B0%C4%9Fneada_Longoz_Ormanlar%C4%B1_Milli_Park%C4%B1,2025-12-18,27.9874936,41.8775342
TR-Kocaeli-0001,Nikomedia Antik Kenti,Ancient City of Nicomedia,Historical Site,Ancient City,Kocaeli,İzmit,,"İzmit, Kocaeli, Türkiye",TR-WEST,"Nikomedia, günümüzde İzmit olarak bilinen şehrin antik adıdır. Roma İmparatorluğu döneminde önemli bir merkez olmuştur. Kentin kalıntıları İzmit şehir merkezinde bulunmaktadır.","Nicomedia was an ancient city located in what is now İzmit, Turkey. It served as an important center during the Roman Empire. The ruins of the city are located in the city center of İzmit.",24/7 (Site),FALSE,,,FALSE,Archaeological Site,Wikipedia,https://tr.wikipedia.org/wiki/Nikomedia,2025-12-18,29.9408089,40.7654408
TR-Kocaeli-0001,Hereke Halı Dokumacılığı,Hereke Carpets,Sanat ve El Sanatları,El Sanatları,Kocaeli,Körfez,Hereke,"Hereke, Kocaeli, Türkiye",TR-WEST,"Hereke Halıları, Kocaeli'nin Hereke ilçesinde üretilen dünyaca ünlü el dokuması halılardır. Osmanlı İmparatorluğu döneminde saray ve devlet büyükleri için özel olarak üretilmeye başlanmıştır. İpek, yün ve pamuk kullanılarak yapılan halılar, ince işçilikleri ve özgün desenleriyle dikkat çeker.","Hereke Carpets are world-famous hand-woven carpets produced in the Hereke district of Kocaeli. They were first produced during the Ottoman Empire specifically for the palace and state dignitaries. Made using silk, wool and cotton, the carpets attract attention with their fine workmanship and original designs.",,FALSE,,,FALSE,,Wikipedia,https://tr.wikipedia.org/wiki/Hereke_hal%C4%B1s%C4%B1,2025-12-18,29.626024,40.793768
TR-Kutahya-0001,Aizanoi Antik Kenti,Aizanoi Ancient City,Historical Site,Ancient City,Kütahya,Çavdarhisar,,"Çavdarhisar, Kütahya, Türkiye",TR-WEST,"Aizanoi, Çavdarhisar ilçesinde bulunan antik bir Frigya kentidir. Roma döneminde önemli bir merkez olmuştur ve günümüze ulaşan etkileyici yapılarıyla dikkat çeker. Zeus Tapınağı, tiyatro, stadyum ve hamam kompleksi en önemli kalıntılarıdır.","Aizanoi is an ancient Phrygian city located in the Çavdarhisar district. It became an important center during the Roman period and attracts attention with its impressive structures that have survived to the present day. The Temple of Zeus, theater, stadium, and bath complex are the most important remains.",08:30 - 17:30,TRUE,https://muze.gov.tr/muze-detay?SectionId=AIZ01&DistId=AIZ,,TRUE,Archaeological Site,"Wikipedia, Muze.gov.tr","https://en.wikipedia.org/wiki/Aizanoi, https://muze.gov.tr/muze-detay?SectionId=AIZ01&DistId=AIZ",2025-12-18,29.617246,39.196872
TR-Kutahya-0001,Kütahya Çini Sanatı,Kütahya Tile Art,Cultural Heritage,Handicraft,Kütahya,Merkez,,"Kütahya, Türkiye",TR-WEST,"Kütahya Çini Sanatı, Türkiye'nin Kütahya şehrinde gelişmiş, köklü bir el sanatıdır. Osmanlı döneminden günümüze ulaşan bu sanat, özellikle seramik ve fayans üretiminde kendini gösterir. Kütahya çinileri, canlı renkleri, özgün desenleri ve yüksek kalitesiyle bilinir.","Kütahya Tile Art is a deeply rooted handicraft that has developed in the city of Kütahya, Turkey. Originating from the Ottoman period, this art is particularly prominent in the production of ceramics and tiles. Kütahya tiles are known for their vibrant colors, unique designs, and high quality.",,FALSE,,,FALSE,Traditional Craft,Wikipedia,https://en.wikipedia.org/wiki/K%C3%BCtahya_tile,2025-12-18,35.243322,38.963745
TR-Kütahya-0001,Germiyan Sokağı,Germiyan Street,Historical Site,Street,Kütahya,Merkez,Germiyan,"Germiyan Mahallesi, Germiyan Sokağı, Kütahya",TR-WEST,"Germiyan Sokağı, Kütahya'da geleneksel Kütahya evlerinin bulunduğu, restore edilmiş tarihi bir sokaktır. Sokak, Osmanlı döneminden kalma mimari özelliklerini yansıtan evleri, taş döşemesi ve otantik atmosferi ile ziyaretçilerini cezbeder.","Germiyan Street is a historical street in Kütahya where traditional Kütahya houses are located. The street attracts visitors with its houses reflecting Ottoman-era architectural features, stone pavement, and authentic atmosphere.",24/7,FALSE,,,FALSE,Urban Protected Area,Wikipedia,https://tr.wikipedia.org/wiki/Germiyan_Soka%C4%9F%C4%B1,2025-12-18,29.9791536,39.4219741
TR-Kütahya-0001,Dumlupınar Şehitliği,Dumlupınar Martyrs' Cemetery,Historical Site,War Memorial,Kütahya,Dumlupınar,,"Dumlupınar, Kütahya, Türkiye",TR-WEST,"Dumlupınar Şehitliği, Kurtuluş Savaşı'nda şehit düşen Türk askerleri anısına Kütahya'nın Dumlupınar ilçesinde inşa edilmiş bir şehitliktir.","Dumlupınar Martyrs' Cemetery is a memorial site in Dumlupınar, Kütahya, Turkey, dedicated to the Turkish soldiers who died in the Turkish War of Independence.",24/7,FALSE,,,FALSE,,Wikipedia,https://tr.wikipedia.org/wiki/Dumlup%C4%B1nar_%C5%9Eehitli%C4%9Fi,2025-12-18,29.9762,38.8552
TR-Manisa-0001,Manisa Mesir Macunu Festivali,Manisa Mesir Paste Festival,Cultural,Festival,Manisa,Merkez,,,TR-WEST,"Manisa Mesir Macunu Festivali, her yıl Manisa'da düzenlenen geleneksel bir festivaldir. Festival, Osmanlı döneminden kalma bir şifa geleneğini yaşatmakta ve mesir macunu adı verilen şifalı baharat karışımının halka dağıtılmasıyla kutlanmaktadır.","The Manisa Mesir Paste Festival is a traditional festival held annually in Manisa. The festival keeps alive a healing tradition from the Ottoman period and is celebrated by distributing mesir paste, a medicinal spice mixture, to the public.",,FALSE,,,TRUE,,Wikipedia,https://tr.wikipedia.org/wiki/Manisa_Mesir_Macunu_Festivali,2025-12-18,27.4086488,38.6742459
TR-Manisa-0001,Sardes Antik Kenti,Sardis Ancient City,Historical Site,Ancient City,Manisa,Salihli,Sart,"Sart Mahallesi, 45300 Salihli/Manisa, Türkiye",TR-WEST,"Sardes, Lidya Krallığı'nın başkenti olmuş antik bir şehirdir. Günümüzde Manisa'nın Salihli ilçesi yakınlarında bulunmaktadır. Artemis Tapınağı ve Gymnasium gibi önemli yapıları barındırır.",Sardis was an ancient city that served as the capital of the Kingdom of Lydia. It is located near Salihli in present-day Manisa Province. It houses important structures such as the Temple of Artemis and the Gymnasium.,08:30 - 17:30,TRUE,https://muze.gov.tr/muze-detay?SectionId=SDS01&DistId=SDS,,TRUE,Archaeological Site,Wikipedia,https://en.wikipedia.org/wiki/Sardis,2025-12-18,28.1649291,38.484819
TR-Manisa-0001,Aigai Antik Kenti,Aigai Ancient City,Historical Site,Ancient City,Manisa,Köprübaşı,Köseler Köyü,"Köseler, Yuntdağı, 45950 Yuntdağı Köseler Köyü/Köprübaşı/Manisa, Türkiye",TR-WEST,"Aigai, Batı Anadolu'da, günümüz Türkiye'sinde bulunan antik bir kenttir. Aiolis bölgesinde yer alır ve önemli bir tarihi geçmişe sahiptir. Kent, özellikle Helenistik ve Roma dönemlerinde gelişmiştir.","Aigai is an ancient city located in Western Anatolia, in modern-day Turkey. It is situated in the region of Aeolis and has a significant historical background. The city flourished particularly during the Hellenistic and Roman periods.",08:30 - 17:30 (Winter) / 08:30 - 19:00 (Summer),TRUE,https://muze.gov.tr/mekanlar/aigai-antik-kenti,,FALSE,Archaeological Site,"Wikipedia, Muze.gov.tr","https://en.wikipedia.org/wiki/Aegae,_Aeolis",2025-12-18,28.4625711,39.024225
TR-Manisa-0001,Kula Tarihi Evleri ve Jeoparkı,Kula Historical Houses and Geopark,Historical Site,Historical Houses,Manisa,Kula,,"45600 Kula/Manisa, Türkiye",TR-WEST,"Kula, Manisa'da yer alan tarihi evleri ve jeolojik oluşumlarıyla ünlü bir bölgedir. Kula Evleri, Osmanlı döneminden kalma mimari yapılarıyla dikkat çekerken, Kula Jeoparkı ise volkanik kayaçları, mağaraları ve diğer jeolojik özellikleriyle ziyaretçilerine eşsiz bir deneyim sunar.","Kula is a region in Manisa famous for its historical houses and geological formations. Kula Houses attract attention with their Ottoman-era architectural structures, while Kula Geopark offers a unique experience to its visitors with its volcanic rocks, caves and other geological features.",24/7 (Outdoor Area),FALSE,https://kulajpg.org/,,TRUE,Urban Site,Wikipedia,"https://en.wikipedia.org/wiki/Kula,_Turkey",2025-12-18,28.644585,38.543234
TR-Mugla-0005,Ksantos-Letoon,Xanthos-Letoon,Historical Site,Ancient City,Muğla,Fethiye/Kaş,,"Kınık Mahallesi, Kaş/Antalya (Ksantos) ve Kumluova Mahallesi, Fethiye/Muğla (Letoon)",TR-WEST,"Ksantos ve Letoon, Likya uygarlığının en önemli iki kentidir. Ksantos, Likya'nın başkenti olmuş ve Letoon ise dini merkez olarak kabul görmüştür. Bu iki antik kent, Likya'nın tarihini ve kültürünü yansıtan önemli kalıntılara ev sahipliği yapmaktadır.","Xanthos and Letoon are two of the most important cities of the Lycian civilization. Xanthos was the capital of Lycia, and Letoon was considered its religious center. These two ancient cities are home to important ruins reflecting the history and culture of Lycia.",08:30 - 17:30 (Varies seasonally),TRUE,https://muze.gov.tr/muze-detay?SectionId=ANT01&DistId=ANT,,TRUE,Archaeological Site,Wikipedia,https://en.wikipedia.org/wiki/Xanthos,2025-12-18,29.126347,36.659246
TR-Mugla-0005,Knidos Antik Kenti,Knidos Ancient City,Historical Site,Ancient City,Muğla,Datça,Yazıköy,"Yazıköy, Datça, Muğla, Türkiye",TR-WEST,"Knidos, Datça Yarımadası'nın ucunda yer alan antik bir kenttir. Tarihi MÖ 4. yüzyıla kadar uzanır ve Helenistik dönemde önemli bir ticaret ve kültür merkezi olmuştur. Kent, özellikle Afrodit heykeli ve ünlü astronomi okulu ile tanınır. Günümüzde kalıntıları ziyaret edilebilir.","Knidos is an ancient city located at the tip of the Datça Peninsula. Its history dates back to the 4th century BC and it was an important trade and cultural center during the Hellenistic period. The city is particularly known for its Aphrodite statue and famous astronomy school. Today, its ruins can be visited.",08:30 - 17:30 (Summer Season),TRUE,https://muze.gov.tr/muze-detay?SectionId=KNI01&DistId=KNI,,FALSE,Archaeological Site,Wikipedia,https://en.wikipedia.org/wiki/Knidos,2025-12-18,27.6846068,36.7247333
TR-Mugla-0005,Kayaköy (Levissi),Kayaköy (Levissi),Historical Site,Ghost Town,Muğla,Fethiye,Kayaköy Mahallesi,"Kayaköy Mahallesi, Fethiye, Muğla",TR-WEST,"Kayaköy, Fethiye yakınlarında bulunan, terk edilmiş bir Rum köyüdür. 1923'teki mübadele sonucu boşaltılmıştır ve günümüzde bir açık hava müzesi olarak hizmet vermektedir.","Kayaköy, near Fethiye, is an abandoned Greek village. It was evacuated as a result of the exchange in 1923 and now serves as an open-air museum.",08:30 - 17:30 (Yaz Saati),TRUE,https://muze.gov.tr/muze-detay?SectionId=KAY01&DistId=KAY,,TRUE,Archaeological Site,Wikipedia,https://tr.wikipedia.org/wiki/Kayak%C3%B6y,2025-12-18,29.091094,36.574983
TR-Mugla-0008,Kaunos Antik Kenti,Kaunos Ancient City,Historical Site,Ancient City,Muğla,Köyceğiz,Çandır,"Çandır Mahallesi, Köyceğiz, Muğla, Türkiye",TR-WEST,"Kaunos, Muğla'nın Köyceğiz ilçesi yakınlarında bulunan antik bir Karya kentidir. Kent, özellikle kaya mezarlarıyla ünlüdür ve önemli bir tarihi ve turistik mekandır.","Kaunos was an ancient Karian city located near Köyceğiz in Muğla Province, Turkey. The city is famous for its rock-cut tombs and is an important historical and tourist site.",08:30 - 17:30,TRUE,https://muze.gov.tr/muze-detay?SectionId=KOS01&DistId=KOS,,TRUE,Archaeological Site,Wikipedia,https://tr.wikipedia.org/wiki/Kaunos,2025-12-18,28.609538,36.827039
TR-Mugla-0008,Euromos Antik Kenti,Euromos Ancient City,Historical Site,Ancient City,Muğla,Milas,Selimiye,"Selimiye, 48200 Milas/Muğla, Türkiye",TR-WEST,"Euromos, Muğla'nın Milas ilçesinde bulunan antik bir kenttir. Kentin en önemli yapısı, MÖ 2. yüzyıla tarihlenen Zeus Lepsinos Tapınağı'dır. Tapınak, Anadolu'daki en iyi korunmuş tapınaklardan biridir.","Euromos is an ancient city located in the Milas district of Muğla, Turkey. The most important structure of the city is the Temple of Zeus Lepsinos, dating back to the 2nd century BC. The temple is one of the best-preserved temples in Anatolia.",24/7,FALSE,,,FALSE,Archaeological Site,Wikipedia,https://en.wikipedia.org/wiki/Euromos,2025-12-18,27.7820474,37.3175597
TR-Mugla-0012,Stratonikeia Antik Kenti,Stratonikeia Ancient City,Historical Site,Ancient City,Muğla,Yatağan,Eskihisar,"Eskihisar Mahallesi, Yatağan, Muğla, Türkiye",TR-WEST,"Stratonikeia, Muğla'nın Yatağan ilçesinde bulunan antik bir kenttir. Helenistik dönemde kurulmuş ve Roma döneminde önemli bir merkez olmuştur. Kent, özellikle mermer yapıları ve anıtsal giriş kapılarıyla dikkat çeker.",Stratonikeia is an ancient city located in the Yatağan district of Muğla. It was founded in the Hellenistic period and became an important center during the Roman period. The city is notable for its marble structures and monumental entrance gates.,08:30 - 17:30,TRUE,https://muze.gov.tr/mekanlar/stratonikeia-antik-kenti,,FALSE,Archaeological Site,Wikipedia,https://tr.wikipedia.org/wiki/Stratonikeia,2025-12-18,28.043103,37.308642
TR-Sakarya-0001,Justinianus Köprüsü,Justinianus Bridge,Historical Site,Ancient Bridge,Sakarya,Adapazarı,Beşköprü,"Beşköprü Mahallesi, 54100 Adapazarı/Sakarya, Türkiye",TR-WEST,"Justinianus Köprüsü, Sakarya Nehri üzerinde bulunan ve Bizans İmparatoru I. Justinianus tarafından 6. yüzyılda inşa ettirilen tarihi bir köprüdür. Günümüzde kalıntıları bulunmaktadır.",The Justinianus Bridge is a late Roman bridge across the Sakarya River in present-day Turkey. It was built by the Byzantine emperor Justinian I in the 6th century AD.,24/7,FALSE,,,FALSE,Archaeological Site,Wikipedia,https://en.wikipedia.org/wiki/Justinianus_Bridge,2025-12-18,30.3521983,40.7390088
TR-Sakarya-0001,Taraklı Tarihi Evleri,Taraklı Historical Houses,Historical Site,Historical Houses,Sakarya,Taraklı,Yukarıköy,"Yukarıköy, Taraklı, Sakarya, Türkiye",TR-WEST,"Taraklı'nın tarihi evleri, Osmanlı döneminden kalma mimari özelliklerini yansıtan, ahşap ve kerpiçten yapılmış geleneksel Türk evleridir. Restore edilerek turizme kazandırılan bu evler, Taraklı'nın tarihi dokusunu korumaktadır.","The historical houses of Taraklı are traditional Turkish houses made of wood and adobe, reflecting the architectural features of the Ottoman period. These houses, which have been restored and opened to tourism, preserve the historical texture of Taraklı.",24/7 (Exterior viewing),FALSE,,,FALSE,Urban Site,Wikipedia,https://tr.wikipedia.org/wiki/Tarakl%C4%B1,2025-12-18,30.4920519,40.3965105
TR-Sakarya-0001,Sansarak Kanyonu,Sansarak Canyon,Natural,Canyon,Sakarya,Taraklı,Sansarak Köyü,"Sansarak Köyü, Taraklı, Sakarya, Türkiye",TR-WEST,"Sansarak Kanyonu, Sakarya'nın Taraklı ilçesinde bulunan doğal güzelliklerden biridir. Yemyeşil bitki örtüsü ve şelaleleriyle ünlüdür. Kanyon, doğa yürüyüşü ve fotoğrafçılık için popüler bir destinasyondur.",Sansarak Canyon is one of the natural beauties located in the Taraklı district of Sakarya. It is famous for its lush vegetation and waterfalls. The canyon is a popular destination for nature walks and photography.,24/7,FALSE,,,FALSE,Natural Protected Area,Wikipedia,https://tr.wikipedia.org/wiki/Sansarak_Kanyonu,2025-12-18,30.4920519,40.3965105
TR-Tekirdag-0001,Rakoczi Müzesi,Rakoczi Museum,Museum,History Museum,Tekirdağ,Merkez,Eski Cami,"Eski Cami Mahallesi, Rakoczi Caddesi No:2, 59100 Tekirdağ Merkez/Tekirdağ",TR-WEST,"Rakoczi Müzesi, Tekirdağ'da bulunan ve Macar bağımsızlık hareketinin önemli figürlerinden biri olan II. Ferenc Rakoczi'nin anısına adanmış bir müzedir. Müze, Rakoczi'nin sürgün yıllarını geçirdiği ve öldüğü evde yer almaktadır.","The Rakoczi Museum is a museum in Tekirdağ dedicated to the memory of Francis II Rákóczi, a significant figure in the Hungarian independence movement. The museum is located in the house where Rákóczi spent his years in exile and died.",09:00 - 17:00 (Closed on Mondays),TRUE,http://www.tekirdag.ktb.gov.tr/TR-77707/rakoczi-muzesi.html,,FALSE,Cultural Property,Wikipedia,https://en.wikipedia.org/wiki/Rakoczi_Museum,2025-12-18,27.508531,40.9757986
TR-Tekirdag-0001,Namık Kemal Evi,Namık Kemal House,Müze,Edebiyat Müzesi,Tekirdağ,Merkez,Eski Cami,"Eski Cami Mahallesi, Namık Kemal Caddesi No:1, 59100 Tekirdağ Merkez/Tekirdağ",TR-WEST,"Namık Kemal Evi, Türk edebiyatının önemli isimlerinden Namık Kemal'in doğduğu ve yaşadığı evdir. Müze olarak restore edilmiştir ve Namık Kemal'in hayatına ve eserlerine dair bilgiler sunmaktadır.","Namık Kemal House is the house where Namık Kemal, one of the important figures of Turkish literature, was born and lived. It has been restored as a museum and offers information about Namık Kemal's life and works.",08:00 - 17:00,FALSE,,,FALSE,Kültür Varlığı,Wikipedia,https://tr.wikipedia.org/wiki/Nam%C4%B1k_Kemal_Evi,2025-12-18,27.516003,40.978857
TR-Usak-0001,Blaundus Antik Kenti,Blaundus Ancient City,Historical Site,Ancient City,Uşak,Ulubey,,"Ulubey, Uşak, Türkiye",TR-WEST,"Blaundus, Uşak ilinin Ulubey ilçesinde bulunan antik bir kenttir. MÖ 3. yüzyılda kurulmuştur ve Helenistik, Roma ve Bizans dönemlerinde yerleşim görmüştür. Kent, dik bir vadi yamacında kurulmuş olup, etkileyici kaya mezarları ve tapınaklarıyla dikkat çekmektedir.","Blaundus is an ancient city located in the Ulubey district of Uşak province, Turkey. It was founded in the 3rd century BC and was inhabited during the Hellenistic, Roman, and Byzantine periods. The city is built on a steep valley slope and is notable for its impressive rock tombs and temples.",24/7,FALSE,,,FALSE,Archaeological Site,Wikipedia,https://tr.wikipedia.org/wiki/Blaundus,2025-12-18,29.290451,38.42166
TR-Uşak-0001,Ulubey Kanyonu,Ulubey Canyon,Natural,Canyon,Uşak,Ulubey,,"Ulubey, Uşak, Türkiye",TR-WEST,"Ulubey Kanyonu, Uşak ilinin Ulubey ilçesinde bulunan ve dünyanın en büyük ikinci kanyonu olarak kabul edilen doğal güzelliktir. İçinden geçen Ulubey Çayı ile birlikte görsel bir şölen sunar.","Ulubey Canyon is a natural wonder located in the Ulubey district of Uşak province, Turkey, and is recognized as the second-largest canyon in the world. It offers a visual feast with the Ulubey Stream flowing through it.",24/7,FALSE,,,FALSE,Natural Park,Wikipedia,https://tr.wikipedia.org/wiki/Ulubey_Kanyonu,2025-12-18,29.290451,38.42166
TR-Yalova-0001,Yalova Termal Kaplıcaları,Yalova Thermal Baths,Natural,Thermal Spring,Yalova,Termal,,"Termal, Yalova, Türkiye",TR-WEST,"Yalova Termal Kaplıcaları, Türkiye'nin Yalova ilinde bulunan ve şifalı sularıyla ünlü bir kaplıca merkezidir. Roma döneminden beri kullanılan kaplıcalar, günümüzde modern tesislerle hizmet vermektedir.","Yalova Thermal Baths are a thermal spa center located in Yalova, Turkey, famous for its healing waters. Used since the Roman period, the spas now offer services with modern facilities.",08:00 - 22:00,TRUE,http://www.yalovatermal.com.tr/,,FALSE,Natural Protected Area,Wikipedia,https://tr.wikipedia.org/wiki/Yalova_Termal_Kapl%C4%B1calar%C4%B1,2025-12-18,29.1739513,40.5965507
TR-Zonguldak-0001,Filyos (Tios) Antik Kenti,Filyos (Tios) Ancient City,Historical Site,Ancient City,Zonguldak,Çaycuma,Filyos,"Filyos, Çaycuma, Zonguldak, Türkiye",TR-WEST,"Filyos Antik Kenti, Karadeniz kıyısında yer alan önemli bir antik yerleşim yeridir. Tios adıyla da bilinir ve tarih boyunca çeşitli medeniyetlere ev sahipliği yapmıştır. Roma ve Bizans dönemlerinde önemli bir liman kenti olmuştur.","The Ancient City of Filyos is an important ancient settlement located on the Black Sea coast. Also known as Tios, it has hosted various civilizations throughout history. It was an important port city during the Roman and Byzantine periods.",24/7,FALSE,,https://www.kulturportali.gov.tr/contents/images/Filyos%20Tios%20%c3%96renyeri%20(12)%20kopya.jpg,FALSE,Archaeological Site,Wikipedia,https://tr.wikipedia.org/wiki/Filyos,2025-12-18,32.077204,41.428644
TR-Zonguldak-0001,Zonguldak Maden Müzesi,Zonguldak Mining Museum,Museum,Specialty Museum,Zonguldak,Merkez,,"Zonguldak Merkez/Zonguldak, Turkey",TR-WEST,"Zonguldak Maden Müzesi, Türkiye'nin ilk maden müzesi olarak 1969 yılında Zonguldak'ta kurulmuştur. Müze, bölgenin kömür madenciliği tarihini ve süreçlerini sergilemektedir.","Zonguldak Mining Museum, established in 1969 in Zonguldak, is Turkey's first mining museum. The museum exhibits the history and processes of coal mining in the region.",08:00 - 17:00,TRUE,http://www.maden.gov.tr/Sayfalar/Muzeler/Zonguldak-Maden-Muzesi.aspx,https://visitzonguldak.com/assets/upload/fotograflar/20160324_160453_001-2000x1125.jpg,FALSE,,Wikipedia,https://tr.wikipedia.org/wiki/Maden_M%C3%BCzesi,2025-12-18,31.8878093,41.3605967